<?xml version="1.0" encoding="UTF-8"?>
<osm version="0.6" generator="Overpass API 0.7.59 e21c39fe">
<note>The data included in this document is from www.openstreetmap.org. The data is made available under ODbL.</note>
<meta osm_base="2023-01-27T07:32:09Z" areas="2023-01-27T02:44:46Z"/>

  <node id="2261925805" lat="50.8765509" lon="18.4305703" version="10" timestamp="2014-11-03T09:45:15Z" changeset="26521866" uid="2319082" user="jacek_zwik">
    <tag k="addr:city" v="Olesno"/>
    <tag k="addr:housenumber" v="5"/>
    <tag k="addr:postcode" v="46-300"/>
    <tag k="addr:street" v="Juliusza Kossaka"/>
    <tag k="name" v="Powiatowy Inspektorat Nadzoru Budowlanego"/>
    <tag k="office" v="government"/>
    <tag k="source" v="http://sdi.opolskie.pl/mapa_bazowa/request.aspx"/>
  </node>
  <node id="2434287107" lat="50.0410761" lon="22.0092240" version="5" timestamp="2023-01-25T19:11:44Z" changeset="131707869" uid="1479852" user="kubahahaha">
    <tag k="email" v="pinb@pinb.erzeszow.pl"/>
    <tag k="fax" v="+48 17 748 43 50"/>
    <tag k="government" v="building_control"/>
    <tag k="name" v="Powiatowy Inspektorat Nadzoru Budowlanego"/>
    <tag k="office" v="government"/>
    <tag k="official_name" v="Powiatowy Inspektorat Nadzoru Budowlanego dla miasta Rzeszów"/>
    <tag k="phone" v="+48 17 748 43 50"/>
    <tag k="short_name" v="PINB dla miasta Rzeszów"/>
    <tag k="source:office" v="Baza teleadresowa administracji zespolonej według stanu na 16.08.2021"/>
    <tag k="website" v="https://bip.erzeszow.pl/pl/309-powiatowy-inspektorat-nadzoru-budowlanego.html"/>
  </node>
  <node id="3928563584" lat="50.7815460" lon="16.0352943" version="1" timestamp="2016-01-05T12:21:32Z" changeset="36379399" uid="2313574" user="szydzio">
    <tag k="name" v="Powiatowy Inspektorat Nadzoru Budowlanego"/>
    <tag k="office" v="government"/>
  </node>
  <node id="4437789153" lat="52.6003030" lon="16.5881876" version="3" timestamp="2020-06-05T08:00:44Z" changeset="86229973" uid="576108" user="m@rio">
    <tag k="addr:city" v="Szamotuły"/>
    <tag k="addr:city:simc" v="0971531"/>
    <tag k="addr:postcode" v="64-500"/>
    <tag k="addr:street" v="Bolesława Chrobrego"/>
    <tag k="name" v="Powiatowy inspektorat nadzoru budowlanego w Szamotułach"/>
    <tag k="office" v="government"/>
    <tag k="source:addr" v="szamotuly.e-mapa.net"/>
  </node>
  <node id="4560918664" lat="51.6468696" lon="17.8198130" version="3" timestamp="2019-08-22T17:37:47Z" changeset="73635992" uid="2727857" user="gp84">
    <tag k="addr:city" v="Ostrów Wielkopolski"/>
    <tag k="addr:housenumber" v="16"/>
    <tag k="addr:postcode" v="63-400"/>
    <tag k="addr:street" v="Aleja Powstańców Wielkopolskich"/>
    <tag k="government" v="administrative"/>
    <tag k="name" v="Powiatowy Inspektorat Nadzoru Budowlanego"/>
    <tag k="office" v="government"/>
  </node>
  <node id="4587724996" lat="52.4264460" lon="20.7219397" version="1" timestamp="2017-01-03T19:33:19Z" changeset="44880223" uid="564141" user="Madmaks">
    <tag k="name" v="Powiatowy Inspektorat Nadzoru Budowlanego"/>
    <tag k="office" v="government"/>
  </node>
  <node id="4737624094" lat="51.9602693" lon="20.1446655" version="4" timestamp="2020-09-30T12:32:44Z" changeset="91768981" uid="3183432" user="Think of Home">
    <tag k="government" v="administrative"/>
    <tag k="name" v="Powiatowy Inspektorat Nadzoru Budowlanego"/>
    <tag k="office" v="government"/>
    <tag k="opening_hours" v="Mo-Fr 08:00-16:00"/>
    <tag k="opening_hours:covid19" v="same"/>
  </node>
  <node id="5429088138" lat="50.2960800" lon="21.4439601" version="1" timestamp="2018-02-22T13:37:54Z" changeset="56579481" uid="7540619" user="MR-300">
    <tag k="admin_level" v="6"/>
    <tag k="name" v="Powiatowy Inspektorat Nadzoru Budowlanego"/>
    <tag k="office" v="government"/>
  </node>
  <node id="6140156956" lat="54.1802232" lon="15.5705111" version="3" timestamp="2022-02-17T13:50:16Z" changeset="117522682" uid="1983103" user="Jorisbo">
    <tag k="email" v="pinb@kolobrzeg.powiat.pl"/>
    <tag k="name" v="Powiatowy Inspektorat Nadzoru Budowlanego"/>
    <tag k="office" v="government"/>
    <tag k="opening_hours" v="Mo-Fr 07:30-15:30"/>
    <tag k="operator" v="Starostwo Powiatowe"/>
    <tag k="phone" v="+48 94 352 78 89"/>
    <tag k="website" v="https://www.pinbkolobrzeg.finn.pl/"/>
  </node>
  <node id="6168908822" lat="50.4601181" lon="20.7220894" version="3" timestamp="2023-01-25T18:58:56Z" changeset="131707476" uid="1479852" user="kubahahaha">
    <tag k="addr:city" v="Busko-Zdrój"/>
    <tag k="addr:housenumber" v="13"/>
    <tag k="addr:postcode" v="28-100"/>
    <tag k="addr:street" v="1 Maja"/>
    <tag k="email" v="pinb@pinb.busko.pl"/>
    <tag k="fax" v="+48 41 370 16 27"/>
    <tag k="full_name" v="Powiatowy Inspektorat Nadzoru Budowlanego w w Busku-Zdroju"/>
    <tag k="government" v="building_control"/>
    <tag k="name" v="Powiatowy Inspektorat Nadzoru Budowlanego"/>
    <tag k="office" v="government"/>
    <tag k="phone" v="+48 41 370 16 27"/>
    <tag k="short_name" v="PINB w Busku-Zdroju"/>
    <tag k="source:office" v="Baza teleadresowa administracji zespolonej według stanu na 16.08.2021"/>
    <tag k="website" v="pinb.busko.pl"/>
  </node>
  <node id="6564426968" lat="52.0715412" lon="21.0249669" version="2" timestamp="2019-10-04T09:05:53Z" changeset="75266197" uid="1970880" user="pancernik">
    <tag k="addr:city" v="Piaseczno"/>
    <tag k="addr:housenumber" v="2/4"/>
    <tag k="addr:postcode" v="05-500"/>
    <tag k="addr:street" v="Ludwika Czajewicza"/>
    <tag k="email" v="sekretariat@pinbpiaseczno.pl"/>
    <tag k="name" v="Powiatowy Inspektorat Nadzoru Budowlanego"/>
    <tag k="office" v="government"/>
    <tag k="opening_hours" v="Mo 09:00-17:00; Tu-Fr 07:30-15:30"/>
    <tag k="phone" v="+48 22 777 40 07"/>
    <tag k="website" v="http://www.pinb.nbip.pl/"/>
  </node>
  <node id="6610749194" lat="54.2509657" lon="20.8154300" version="2" timestamp="2021-06-29T09:32:07Z" changeset="107136686" uid="5060085" user="Piotr Strębski">
    <tag k="addr:city" v="Bartoszyce"/>
    <tag k="addr:housenumber" v="1/323"/>
    <tag k="addr:postcode" v="11-200"/>
    <tag k="addr:street" v="Generała Stefana Grota-Roweckiego"/>
    <tag k="email" v="pinb@pinb-bartoszyce.gov.pl"/>
    <tag k="government" v="public_service"/>
    <tag k="name" v="Powiatowy Inspektorat Nadzoru Budowlanego w Bartoszycach"/>
    <tag k="office" v="government"/>
    <tag k="opening_hours" v="Mo-Fr 07:00-15:00"/>
    <tag k="phone" v="+48 89 762 93 90"/>
    <tag k="website" v="https://pinb-bartoszyce.gov.pl/"/>
  </node>
  <node id="6942361510" lat="51.3762184" lon="20.2878071" version="1" timestamp="2019-11-03T05:29:12Z" changeset="76543213" uid="3646457" user="H_A_B_U">
    <tag k="government" v="public_service"/>
    <tag k="name" v="Powiatowy Inspektorat Nadzoru Budowlanego w Opocznie"/>
    <tag k="office" v="government"/>
  </node>
  <node id="6950359300" lat="51.0552207" lon="16.1939850" version="2" timestamp="2022-06-01T20:08:43Z" changeset="121826361" uid="8826419" user="Mordechai23">
    <tag k="name" v="Powiatowy Inspektorat Nadzoru Budowlanego w Jaworze"/>
    <tag k="office" v="government"/>
  </node>
  <node id="7313019071" lat="49.6686926" lon="21.1720455" version="5" timestamp="2023-01-25T18:58:56Z" changeset="131707476" uid="1479852" user="kubahahaha">
    <tag k="email" v="biuro@gorlice.pinb.gov.pl"/>
    <tag k="fax" v="+48 18 353 02 34"/>
    <tag k="full_name" v="Powiatowy Inspektorat Nadzoru Budowlanego w Gorlicach"/>
    <tag k="government" v="building_control"/>
    <tag k="name" v="Powiatowy Inspektorat Nadzoru Budowlanego"/>
    <tag k="office" v="government"/>
    <tag k="phone" v="+48 18 354 00 65"/>
    <tag k="short_name" v="PINB w Gorlicach"/>
    <tag k="source:office" v="Baza teleadresowa administracji zespolonej według stanu na 16.08.2021"/>
    <tag k="website" v="http://bip.malopolska.pl/pinbgorlice/"/>
  </node>
  <node id="7594296302" lat="50.9649332" lon="22.1722290" version="3" timestamp="2023-01-25T18:58:56Z" changeset="131707476" uid="1479852" user="kubahahaha">
    <tag k="addr:city" v="Kraśnik"/>
    <tag k="addr:housenumber" v="10a"/>
    <tag k="addr:postcode" v="23-204"/>
    <tag k="addr:street" v="Aleja Niepodległości"/>
    <tag k="email" v="biuro@pinbkrasnik.pl"/>
    <tag k="fax" v="+48 81 825 31 07"/>
    <tag k="full_name" v="Powiatowy Inspektorat Nadzoru Budowlanego w Kraśniku"/>
    <tag k="government" v="building_control"/>
    <tag k="name" v="Powiatowy Inspektorat Nadzoru Budowlanego"/>
    <tag k="office" v="government"/>
    <tag k="phone" v="+48 81 825 31 07"/>
    <tag k="short_name" v="PINB w Kraśniku"/>
    <tag k="source:office" v="Baza teleadresowa administracji zespolonej według stanu na 16.08.2021"/>
    <tag k="website" v="https://pinbkrasnik.bip.gov.pl/"/>
  </node>
  <node id="7653046048" lat="53.2601859" lon="14.4898652" version="1" timestamp="2020-06-25T15:12:16Z" changeset="87147670" uid="3214275" user="pio2_122">
    <tag k="description" v="Powiatowy Inspektor Nadzoru Budowlanego w Gryfinie oraz inspektorzy przyjmują osobiście interesantów po uprzednim umówieniu się w następujących dniach i godzinach: Środa 10.00-15.00, Piątek 11.00-14.00."/>
    <tag k="email" v="nadzor.bud@gryfino.powiat.pl"/>
    <tag k="fax" v="+48 91 415 02 13"/>
    <tag k="government" v="audit"/>
    <tag k="name" v="Powiatowy Inspektorat Nadzoru Budowlanego w Gryfinie"/>
    <tag k="office" v="government"/>
    <tag k="opening_hours" v="Mo-Fr 08:00-15:00; Sa,Su off; PH off"/>
    <tag k="phone" v="+48 91 415 02 13; +48 91 415 03 13"/>
    <tag k="short_name" v="PINB Gryfino"/>
    <tag k="website" v="http://www.pinbgryfino.pl/"/>
  </node>
  <node id="7998118034" lat="52.8988352" lon="16.5589314" version="1" timestamp="2020-10-11T21:12:26Z" changeset="92314102" uid="4493657" user="Aim311">
    <tag k="name" v="Powiatowy Inspektorat Nadzoru Budowlanego w Czarnkowie"/>
    <tag k="office" v="government"/>
  </node>
  <node id="8315014956" lat="51.3912208" lon="21.1614497" version="1" timestamp="2021-01-12T12:54:27Z" changeset="97375219" uid="1744629" user="voltairovicz">
    <tag k="name" v="Powiatowy Inspektorat Nadzoru Budowlanego"/>
    <tag k="office" v="government"/>
  </node>
  <node id="8442457307" lat="50.5003692" lon="19.4259629" version="1" timestamp="2021-02-21T11:02:21Z" changeset="99675434" uid="9548812" user="Ronczka">
    <tag k="building" v="yes"/>
    <tag k="government" v="administrative"/>
    <tag k="name" v="Powiatowy Inspektorat Nadzoru Budowlanego"/>
    <tag k="office" v="government"/>
    <tag k="phone" v="+48326702074"/>
    <tag k="website" v="http://pinb-zawiercie.pl/"/>
  </node>
  <node id="8789278922" lat="52.0485337" lon="19.2150616" version="1" timestamp="2021-06-01T12:43:12Z" changeset="105678969" uid="1646919" user="ara861">
    <tag k="addr:city" v="Łęczyca"/>
    <tag k="addr:housenumber" v="18"/>
    <tag k="addr:postcode" v="99-100"/>
    <tag k="addr:street" v="Adama Mickiewicza"/>
    <tag k="government" v="administrative"/>
    <tag k="name" v="Powiatowy Inspektorat Nadzoru Budowlanego"/>
    <tag k="office" v="government"/>
  </node>
  <node id="8826112992" lat="52.1642705" lon="20.7903676" version="5" timestamp="2023-01-25T18:58:56Z" changeset="131707476" uid="1479852" user="kubahahaha">
    <tag k="addr:city" v="Pruszków"/>
    <tag k="addr:city:simc" v="0921510"/>
    <tag k="addr:housenumber" v="4"/>
    <tag k="addr:postcode" v="05-800"/>
    <tag k="addr:street" v="Stanisława Staszica"/>
    <tag k="email" v="kancelaria@pinbpruszkow.pl"/>
    <tag k="full_name" v="Powiatowy Inspektorat Nadzoru Budowlanego w Pruszkowie"/>
    <tag k="government" v="building_control"/>
    <tag k="name" v="Powiatowy Inspektorat Nadzoru Budowlanego"/>
    <tag k="office" v="government"/>
    <tag k="phone" v="+48 22 490 99 07"/>
    <tag k="short_name" v="PINB w Pruszkowie"/>
    <tag k="source:office" v="Baza teleadresowa administracji zespolonej według stanu na 16.08.2021"/>
    <tag k="website" v="https://pinbpruszkow.pl/"/>
  </node>
  <node id="9557548184" lat="50.0896159" lon="18.5421244" version="1" timestamp="2022-03-06T10:50:45Z" changeset="118153654" uid="15070232" user="PiorMaper">
    <tag k="name" v="Powiatowy Inspektorat Nadzoru Budowlanego"/>
    <tag k="office" v="government"/>
  </node>
  <node id="10075403602" lat="54.1890927" lon="16.1932113" version="2" timestamp="2022-10-04T16:43:32Z" changeset="127005301" uid="3214275" user="pio2_122">
    <tag k="email" v="pinb-koszalin@szczecin.uw.gov.pl"/>
    <tag k="name" v="Powiatowy Inspektorat Nadzoru Budowlanego dla miasta Koszalin"/>
    <tag k="office" v="government"/>
    <tag k="official_name" v="Powiatowy Inspektorat Nadzoru Budowlanego dla miasta na prawach powiatu w Koszalinie"/>
    <tag k="opening_hours" v="Mo-Fr 07:30-15:30; Sa,Su off; PH off"/>
    <tag k="phone" v="+48 94 342 85 00"/>
    <tag k="website" v="http://www.pinb.koszalin.pl/index.html"/>
  </node>
  <node id="10172575057" lat="51.5574384" lon="23.5535198" version="3" timestamp="2023-01-25T18:58:56Z" changeset="131707476" uid="1479852" user="kubahahaha">
    <tag k="email" v="pinb_w@op.pl"/>
    <tag k="fax" v="+48 82 545 10 19"/>
    <tag k="full_name" v="Powiatowy Inspektorat Nadzoru Budowlanego we Włodawie"/>
    <tag k="government" v="building_control"/>
    <tag k="name" v="Powiatowy Inspektorat Nadzoru Budowlanego"/>
    <tag k="office" v="government"/>
    <tag k="phone" v="+48 82 572 58 98"/>
    <tag k="short_name" v="PINB we Włodawie"/>
    <tag k="source:office" v="Baza teleadresowa administracji zespolonej według stanu na 16.08.2021"/>
    <tag k="website" v="pinbwlodawa.pl"/>
  </node>
  <node id="10313998251" lat="51.3029682" lon="17.0695128" version="3" timestamp="2023-01-25T19:06:31Z" changeset="131707669" uid="1479852" user="kubahahaha">
    <tag k="email" v="pinb@powiat.trzebnica.pl"/>
    <tag k="government" v="building_control"/>
    <tag k="name" v="Powiatowy Inspektorat Nadzoru Budowlanego"/>
    <tag k="office" v="government"/>
    <tag k="official_name" v="Powiatowy Inspektorat Nadzoru Budowlanego w Trzebnicy"/>
    <tag k="phone" v="+48 71 387 95 70"/>
    <tag k="short_name" v="PINB w Trzebnicy"/>
    <tag k="source:office" v="Baza teleadresowa administracji zespolonej według stanu na 16.08.2021"/>
    <tag k="website" v="http://www.pinb.trzebnica.pl/"/>
  </node>
  <node id="10314036598" lat="51.1135093" lon="20.8582898" version="3" timestamp="2023-01-25T19:14:18Z" changeset="131707957" uid="1479852" user="kubahahaha">
    <tag k="email" v="pinb.skarzysko@neostrada.pl"/>
    <tag k="fax" v="+48 41 252 31 65"/>
    <tag k="government" v="building_control"/>
    <tag k="name" v="Powiatowy Inspektorat Nadzoru Budowlanego"/>
    <tag k="office" v="government"/>
    <tag k="official_name" v="Powiatowy Inspektorat Nadzoru Budowlanego w Skarżysku-Kamiennej"/>
    <tag k="phone" v="+48 41 252 31 65"/>
    <tag k="short_name" v="PINB w Skarżysku-Kamiennej"/>
    <tag k="source:office" v="Baza teleadresowa administracji zespolonej według stanu na 16.08.2021"/>
    <tag k="website" v="www.powiat.skarzyski.lo.pl"/>
  </node>
  <node id="10314062291" lat="51.2984388" lon="22.8867542" version="3" timestamp="2023-01-25T19:09:54Z" changeset="131707802" uid="1479852" user="kubahahaha">
    <tag k="email" v="pinb.leczna@neostrada.pl"/>
    <tag k="fax" v="+48 81 752 32 33"/>
    <tag k="government" v="building_control"/>
    <tag k="name" v="Powiatowy Inspektorat Nadzoru Budowlanego"/>
    <tag k="office" v="government"/>
    <tag k="official_name" v="Powiatowy Inspektorat Nadzoru Budowlanego w Łęcznej"/>
    <tag k="phone" v="+48 81 752 32 33"/>
    <tag k="short_name" v="PINB w Łęcznej"/>
    <tag k="source:office" v="Baza teleadresowa administracji zespolonej według stanu na 16.08.2021"/>
    <tag k="website" v="https://pinbleczna.bip.gov.pl"/>
  </node>
  <node id="10314071491" lat="51.2272143" lon="22.6990191" version="3" timestamp="2023-01-25T19:09:45Z" changeset="131707800" uid="1479852" user="kubahahaha">
    <tag k="email" v="pinb10@o2.pl"/>
    <tag k="fax" v="+48 81 468 70 78"/>
    <tag k="government" v="building_control"/>
    <tag k="name" v="Powiatowy Inspektorat Nadzoru Budowlanego"/>
    <tag k="office" v="government"/>
    <tag k="official_name" v="Powiatowy Inspektorat Nadzoru Budowlanego w Świdniku"/>
    <tag k="phone" v="+48 81 468 70 78"/>
    <tag k="short_name" v="PINB w Świdniku"/>
    <tag k="source:office" v="Baza teleadresowa administracji zespolonej według stanu na 16.08.2021"/>
    <tag k="website" v="www.swidnik.pinb.pl"/>
  </node>
  <node id="10314072108" lat="50.4471390" lon="23.4151439" version="3" timestamp="2023-01-25T19:13:23Z" changeset="131707924" uid="1479852" user="kubahahaha">
    <tag k="email" v="pinb.tomaszow@wp.pl"/>
    <tag k="fax" v="+48 84 664 31 90"/>
    <tag k="government" v="building_control"/>
    <tag k="name" v="Powiatowy Inspektorat Nadzoru Budowlanego"/>
    <tag k="office" v="government"/>
    <tag k="official_name" v="Powiatowy Inspektorat Nadzoru Budowlanego w Tomaszowie Lubelskim"/>
    <tag k="phone" v="+48 84 664 31 90"/>
    <tag k="short_name" v="PINB w Tomaszowie Lubelskim"/>
    <tag k="source:office" v="Baza teleadresowa administracji zespolonej według stanu na 16.08.2021"/>
    <tag k="website" v="www.pinb-tomaszow-lubelski.pl"/>
  </node>
  <node id="10314073466" lat="50.5284150" lon="22.7164484" version="3" timestamp="2023-01-25T19:09:10Z" changeset="131707771" uid="1479852" user="kubahahaha">
    <tag k="email" v="pinbbilgoraj@op.pl"/>
    <tag k="fax" v="+48 84 686 70 93"/>
    <tag k="government" v="building_control"/>
    <tag k="name" v="Powiatowy Inspektorat Nadzoru Budowlanego"/>
    <tag k="office" v="government"/>
    <tag k="official_name" v="Powiatowy Inspektorat Nadzoru Budowlanego w Biłgoraju"/>
    <tag k="phone" v="+48 84 686 70 93"/>
    <tag k="short_name" v="PINB w Biłgoraju"/>
    <tag k="source:office" v="Baza teleadresowa administracji zespolonej według stanu na 16.08.2021"/>
    <tag k="website" v="http://pinbbilgoraj.nbip.pl"/>
  </node>
  <node id="10314073946" lat="51.2469304" lon="22.5538954" version="3" timestamp="2023-01-25T19:07:23Z" changeset="131707696" uid="1479852" user="kubahahaha">
    <tag k="email" v="sekretariat@pinb.lublin.pl"/>
    <tag k="fax" v="+48 81 534 47 73"/>
    <tag k="government" v="building_control"/>
    <tag k="name" v="Powiatowy Inspektorat Nadzoru Budowlanego"/>
    <tag k="office" v="government"/>
    <tag k="official_name" v="Powiatowy Inspektorat Nadzoru Budowlanego w Lublinie (powiat grodzki)"/>
    <tag k="phone" v="+48 81 534 47 72"/>
    <tag k="short_name" v="PINB w Lublinie (powiat grodzki)"/>
    <tag k="source:office" v="Baza teleadresowa administracji zespolonej według stanu na 16.08.2021"/>
    <tag k="website" v="www.pinb.lublin.pl"/>
  </node>
  <node id="10314074302" lat="50.7168817" lon="23.2512312" version="3" timestamp="2023-01-25T19:13:41Z" changeset="131707935" uid="1479852" user="kubahahaha">
    <tag k="email" v="pinb@pinb.zamosc.pl"/>
    <tag k="fax" v="+48 84 639 28 22"/>
    <tag k="government" v="building_control"/>
    <tag k="name" v="Powiatowy Inspektorat Nadzoru Budowlanego"/>
    <tag k="office" v="government"/>
    <tag k="official_name" v="Powiatowy Inspektorat Nadzoru Budowlanego w Zamościu (powiat grodzki)"/>
    <tag k="phone" v="+48 84 639 28 22"/>
    <tag k="short_name" v="PINB w Zamościu (powiat grodzki)"/>
    <tag k="source:office" v="Baza teleadresowa administracji zespolonej według stanu na 16.08.2021"/>
    <tag k="website" v="https://bip.pinb.zamosc.pl"/>
  </node>
  <node id="10314081095" lat="51.2470929" lon="22.5535534" version="3" timestamp="2023-01-25T19:09:36Z" changeset="131707793" uid="1479852" user="kubahahaha">
    <tag k="addr:city" v="Lublin"/>
    <tag k="addr:door" v="10"/>
    <tag k="addr:housenumber" v="3"/>
    <tag k="addr:postcode" v="20-027"/>
    <tag k="addr:street" v="Hipoteczna"/>
    <tag k="email" v="biuro@pinbpowiat.lublin.pl"/>
    <tag k="government" v="building_control"/>
    <tag k="name" v="Powiatowy Inspektorat Nadzoru Budowlanego"/>
    <tag k="office" v="government"/>
    <tag k="official_name" v="Powiatowy Inspektorat Nadzoru Budowlanego w Lublinie (powiat ziemski)"/>
    <tag k="phone" v="+48 81 532 29 49"/>
    <tag k="short_name" v="PINB w Lublinie (powiat ziemski)"/>
    <tag k="source:office" v="Baza teleadresowa administracji zespolonej według stanu na 16.08.2021"/>
    <tag k="website" v="http://www.pinbpowiat.lublin.pl"/>
  </node>
  <node id="10314081965" lat="50.9823741" lon="23.1617723" version="3" timestamp="2023-01-25T19:08:57Z" changeset="131707746" uid="1479852" user="kubahahaha">
    <tag k="email" v="pinbkrasnystaw@onet.pl"/>
    <tag k="government" v="building_control"/>
    <tag k="name" v="Powiatowy Inspektorat Nadzoru Budowlanego"/>
    <tag k="office" v="government"/>
    <tag k="official_name" v="Powiatowy Inspektorat Nadzoru Budowlanego w Krasnymstawie"/>
    <tag k="phone" v="+48 82 576 66 43"/>
    <tag k="short_name" v="PINB w Krasnymstawie"/>
    <tag k="source:office" v="Baza teleadresowa administracji zespolonej według stanu na 16.08.2021"/>
  </node>
  <node id="10314082194" lat="51.9305959" lon="22.3787096" version="3" timestamp="2023-01-25T19:10:19Z" changeset="131707821" uid="1479852" user="kubahahaha">
    <tag k="email" v="pinblukow@wp.pl"/>
    <tag k="fax" v="+48 25 798 97 41"/>
    <tag k="government" v="building_control"/>
    <tag k="name" v="Powiatowy Inspektorat Nadzoru Budowlanego"/>
    <tag k="office" v="government"/>
    <tag k="official_name" v="Powiatowy Inspektorat Nadzoru Budowlanego w Łukowie"/>
    <tag k="phone" v="+48 25 798 97 41"/>
    <tag k="short_name" v="PINB w Łukowie"/>
    <tag k="source:office" v="Baza teleadresowa administracji zespolonej według stanu na 16.08.2021"/>
    <tag k="website" v="www.pinb.lukow.pl"/>
  </node>
  <node id="10314082196" lat="52.1685982" lon="22.2763056" version="3" timestamp="2023-01-25T19:10:30Z" changeset="131707828" uid="1479852" user="kubahahaha">
    <tag k="email" v="pinb@powiatsiedlecki.pl"/>
    <tag k="government" v="building_control"/>
    <tag k="name" v="Powiatowy Inspektorat Nadzoru Budowlanego"/>
    <tag k="office" v="government"/>
    <tag k="official_name" v="Powiatowy Inspektorat Nadzoru Budowlanego w Siedlcach"/>
    <tag k="phone" v="+48 25 633 93 16"/>
    <tag k="short_name" v="PINB w Siedlcach"/>
    <tag k="source:office" v="Baza teleadresowa administracji zespolonej według stanu na 16.08.2021"/>
    <tag k="website" v="https://pinbsiedlce.bip.gov.pl/"/>
  </node>
  <node id="10314084534" lat="52.0352165" lon="23.1272356" version="4" timestamp="2023-01-25T19:08:31Z" changeset="131707738" uid="1479852" user="kubahahaha">
    <tag k="email" v="pinb_bp@poczta.onet.pl"/>
    <tag k="fax" v="+48 83 351 13 29"/>
    <tag k="government" v="building_control"/>
    <tag k="name" v="Powiatowy Inspektorat Nadzoru Budowlanego"/>
    <tag k="office" v="government"/>
    <tag k="official_name" v="Powiatowy Inspektorat Nadzoru Budowlanego w Białej Podlaskiej (powiat ziemski)"/>
    <tag k="phone" v="+48 83 351 13 39"/>
    <tag k="short_name" v="PINB w Białej Podlaskiej (powiat ziemski)"/>
    <tag k="source:office" v="Baza teleadresowa administracji zespolonej według stanu na 16.08.2021"/>
    <tag k="website" v="https://pinbbialapodlaska.bip.lubelskie.pl/"/>
  </node>
  <node id="10314087172" lat="50.7026546" lon="22.4187216" version="3" timestamp="2023-01-25T19:09:28Z" changeset="131707788" uid="1479852" user="kubahahaha">
    <tag k="email" v="pinb_janow@wp.pl"/>
    <tag k="fax" v="+48 15 872 34 80"/>
    <tag k="government" v="building_control"/>
    <tag k="name" v="Powiatowy Inspektorat Nadzoru Budowlanego"/>
    <tag k="office" v="government"/>
    <tag k="official_name" v="Powiatowy Inspektorat Nadzoru Budowlanego w Janowie Lubelskim"/>
    <tag k="phone" v="+48 15 872 34 80"/>
    <tag k="short_name" v="PINB w Janowie Lubelskim"/>
    <tag k="source:office" v="Baza teleadresowa administracji zespolonej według stanu na 16.08.2021"/>
    <tag k="website" v="www.pinb.powiatjanowski.pl"/>
  </node>
  <node id="10314088219" lat="51.6245517" lon="21.9273157" version="3" timestamp="2023-01-25T19:10:48Z" changeset="131707838" uid="1479852" user="kubahahaha">
    <tag k="email" v="pinbryki@wp.pl"/>
    <tag k="fax" v="+48 81 865 32 11"/>
    <tag k="government" v="building_control"/>
    <tag k="name" v="Powiatowy Inspektorat Nadzoru Budowlanego"/>
    <tag k="office" v="government"/>
    <tag k="official_name" v="Powiatowy Inspektorat Nadzoru Budowlanego w Rykach"/>
    <tag k="phone" v="+48 81 865 32 11"/>
    <tag k="short_name" v="PINB w Rykach"/>
    <tag k="source:office" v="Baza teleadresowa administracji zespolonej według stanu na 16.08.2021"/>
    <tag k="website" v="pinbryki.wordpress.com"/>
  </node>
  <node id="10314091827" lat="54.7198840" lon="18.4143698" version="2" timestamp="2023-01-25T18:58:56Z" changeset="131707476" uid="1479852" user="kubahahaha">
    <tag k="email" v="pinb.puck@gda.winb.gov.pl"/>
    <tag k="fax" v="+48 58 673 42 12"/>
    <tag k="full_name" v="Powiatowy Inspektorat Nadzoru Budowlanego w Pucku"/>
    <tag k="government" v="building_control"/>
    <tag k="name" v="Powiatowy Inspektorat Nadzoru Budowlanego"/>
    <tag k="office" v="government"/>
    <tag k="phone" v="+48 58 673 42 12"/>
    <tag k="short_name" v="PINB w Pucku"/>
    <tag k="source:office" v="Baza teleadresowa administracji zespolonej według stanu na 16.08.2021"/>
    <tag k="website" v="http://bip.puck.gda.winb.gov.pl/"/>
  </node>
  <node id="10314097084" lat="51.4138017" lon="21.9631597" version="3" timestamp="2023-01-25T19:10:57Z" changeset="131707841" uid="1479852" user="kubahahaha">
    <tag k="email" v="pinbpulawy@interia.eu"/>
    <tag k="fax" v="+48 81 886 11 10"/>
    <tag k="government" v="building_control"/>
    <tag k="name" v="Powiatowy Inspektorat Nadzoru Budowlanego"/>
    <tag k="office" v="government"/>
    <tag k="official_name" v="Powiatowy Inspektorat Nadzoru Budowlanego w Puławach"/>
    <tag k="phone" v="+48 81 886 11 10"/>
    <tag k="short_name" v="PINB w Puławach"/>
    <tag k="source:office" v="Baza teleadresowa administracji zespolonej według stanu na 16.08.2021"/>
    <tag k="website" v="www.pulawy.powiat.pl"/>
  </node>
  <node id="10314098686" lat="50.7155295" lon="23.2604898" version="3" timestamp="2023-01-25T19:13:32Z" changeset="131707928" uid="1479852" user="kubahahaha">
    <tag k="email" v="pinbwzamosciu@op.pl"/>
    <tag k="fax" v="+48 84 627 28 41"/>
    <tag k="government" v="building_control"/>
    <tag k="name" v="Powiatowy Inspektorat Nadzoru Budowlanego"/>
    <tag k="office" v="government"/>
    <tag k="official_name" v="Powiatowy Inspektorat Nadzoru Budowlanego w Zamościu (powiat ziemski)"/>
    <tag k="phone" v="+48 84 627 28 41"/>
    <tag k="short_name" v="PINB w Zamościu (powiat ziemski)"/>
    <tag k="source:office" v="Baza teleadresowa administracji zespolonej według stanu na 16.08.2021"/>
  </node>
  <node id="10314100212" lat="51.1330322" lon="23.4938844" version="3" timestamp="2023-01-25T19:07:01Z" changeset="131707684" uid="1479852" user="kubahahaha">
    <tag k="email" v="pinb@powiatchelmski.pl"/>
    <tag k="fax" v="+48 82 562 75 78"/>
    <tag k="government" v="building_control"/>
    <tag k="name" v="Powiatowy Inspektorat Nadzoru Budowlanego"/>
    <tag k="office" v="government"/>
    <tag k="official_name" v="Powiatowy Inspektorat Nadzoru Budowlanego w Chełmie (powiat ziemski)"/>
    <tag k="phone" v="+48 82 562 75 78"/>
    <tag k="short_name" v="PINB w Chełmie (powiat ziemski)"/>
    <tag k="source:office" v="Baza teleadresowa administracji zespolonej według stanu na 16.08.2021"/>
    <tag k="website" v="www.powiat.chelm.pl"/>
  </node>
  <node id="10314105814" lat="54.6006517" lon="18.2216962" version="2" timestamp="2023-01-25T18:58:56Z" changeset="131707476" uid="1479852" user="kubahahaha">
    <tag k="email" v="pinb@wejherowo.gda.winb.gov.pl"/>
    <tag k="fax" v="+48 58 672 95 68"/>
    <tag k="full_name" v="Powiatowy Inspektorat Nadzoru Budowlanego w Wejherowie"/>
    <tag k="government" v="building_control"/>
    <tag k="name" v="Powiatowy Inspektorat Nadzoru Budowlanego"/>
    <tag k="office" v="government"/>
    <tag k="phone" v="+48 58 672 21 70"/>
    <tag k="short_name" v="PINB w Wejherowie"/>
    <tag k="source:office" v="Baza teleadresowa administracji zespolonej według stanu na 16.08.2021"/>
    <tag k="website" v="http://wejherowo.gda.winb.gov.pl"/>
  </node>
  <node id="10541939102" lat="49.6923282" lon="22.0088737" version="3" timestamp="2023-01-25T19:06:42Z" changeset="131707675" uid="1479852" user="kubahahaha">
    <tag k="email" v="pinb.brzozow@op.pl"/>
    <tag k="fax" v="+48 13 434 22 83"/>
    <tag k="government" v="building_control"/>
    <tag k="name" v="Powiatowy Inspektorat Nadzoru Budowlanego"/>
    <tag k="office" v="government"/>
    <tag k="official_name" v="Powiatowy Inspektorat Nadzoru Budowlanego w Brzozowie"/>
    <tag k="phone" v="+48 13 434 22 83"/>
    <tag k="short_name" v="PINB w Brzozowie"/>
    <tag k="source:office" v="Baza teleadresowa administracji zespolonej według stanu na 16.08.2021"/>
    <tag k="website" v="http://www.pinb-brzozow.internetdsl.pl/"/>
  </node>
  <node id="10541969059" lat="49.4330809" lon="22.5861265" version="4" timestamp="2023-01-25T19:07:38Z" changeset="131707712" uid="1479852" user="kubahahaha">
    <tag k="email" v="ustrzykidolne@pinb.info.pl"/>
    <tag k="fax" v="+48 13 471 16 75"/>
    <tag k="government" v="building_control"/>
    <tag k="name" v="Powiatowy Inspektorat Nadzoru Budowlanego"/>
    <tag k="office" v="government"/>
    <tag k="official_name" v="Powiatowy Inspektorat Nadzoru Budowlanego w Ustrzykach Dolnych"/>
    <tag k="phone" v="+48 13 471 16 76"/>
    <tag k="short_name" v="PINB w Ustrzykach Dolnych"/>
    <tag k="source:office" v="Baza teleadresowa administracji zespolonej według stanu na 16.08.2021"/>
    <tag k="website" v="https://ustrzykidolne.pinb.pl/"/>
  </node>
  <node id="10541972514" lat="49.4709501" lon="22.3295236" version="3" timestamp="2023-01-25T19:13:16Z" changeset="131707920" uid="1479852" user="kubahahaha">
    <tag k="email" v="pinblesko@op.pl"/>
    <tag k="fax" v="+48 13 492 72 77"/>
    <tag k="government" v="building_control"/>
    <tag k="name" v="Powiatowy Inspektorat Nadzoru Budowlanego"/>
    <tag k="office" v="government"/>
    <tag k="official_name" v="Powiatowy Inspektorat Nadzoru Budowlanego w Lesku"/>
    <tag k="phone" v="+48 13 469 71 48"/>
    <tag k="short_name" v="PINB w Lesku"/>
    <tag k="source:office" v="Baza teleadresowa administracji zespolonej według stanu na 16.08.2021"/>
    <tag k="website" v="pinb@powiat-leski.pl"/>
  </node>
  <node id="10541977442" lat="49.8695634" lon="21.7886219" version="3" timestamp="2023-01-25T19:12:23Z" changeset="131707889" uid="1479852" user="kubahahaha">
    <tag k="email" v="pinbstrzyzow@op.pl"/>
    <tag k="fax" v="+48 17 276 03 80"/>
    <tag k="government" v="building_control"/>
    <tag k="name" v="Powiatowy Inspektorat Nadzoru Budowlanego"/>
    <tag k="office" v="government"/>
    <tag k="official_name" v="Powiatowy Inspektorat Nadzoru Budowlanego w Strzyżowie"/>
    <tag k="phone" v="+48 17 276 03 80"/>
    <tag k="short_name" v="PINB w Strzyżowie"/>
    <tag k="source:office" v="Baza teleadresowa administracji zespolonej według stanu na 16.08.2021"/>
    <tag k="website" v="http://strzyzow.pinb.pl/"/>
  </node>
  <node id="10541977443" lat="50.2463136" lon="21.7826237" version="3" timestamp="2023-01-25T19:11:27Z" changeset="131707862" uid="1479852" user="kubahahaha">
    <tag k="email" v="pinb.kolbuszowa@interia.pl"/>
    <tag k="fax" v="+48 17 227 57 21"/>
    <tag k="government" v="building_control"/>
    <tag k="name" v="Powiatowy Inspektorat Nadzoru Budowlanego"/>
    <tag k="office" v="government"/>
    <tag k="official_name" v="Powiatowy Inspektorat Nadzoru Budowlanego w Kolbuszowej"/>
    <tag k="phone" v="+48 17 227 58 20"/>
    <tag k="short_name" v="PINB w Kolbuszowej"/>
    <tag k="source:office" v="Baza teleadresowa administracji zespolonej według stanu na 16.08.2021"/>
    <tag k="website" v="http://bip.powiat.kolbuszowa.pl/bip_kolbuszowa/index.jsp?place=Menu02&amp;news_cat_id=21&amp;layout=1&amp;page=0"/>
  </node>
  <node id="10541978241" lat="50.0523793" lon="21.6162271" version="3" timestamp="2023-01-25T19:06:17Z" changeset="131707656" uid="1479852" user="kubahahaha">
    <tag k="email" v="pinb@spropczyce.pl"/>
    <tag k="fax" v="+48 17 222 89 40"/>
    <tag k="government" v="building_control"/>
    <tag k="name" v="Powiatowy Inspektorat Nadzoru Budowlanego"/>
    <tag k="office" v="government"/>
    <tag k="official_name" v="Powiatowy Inspektorat Nadzoru Budowlanego w Ropczycach"/>
    <tag k="phone" v="+48 17 222 89 41"/>
    <tag k="short_name" v="PINB w Ropczycach"/>
    <tag k="source:office" v="Baza teleadresowa administracji zespolonej według stanu na 16.08.2021"/>
    <tag k="website" v="http://bip.spropczyce.pl/"/>
  </node>
  <node id="10541982629" lat="53.2671106" lon="16.4614457" version="2" timestamp="2023-01-25T18:58:56Z" changeset="131707476" uid="1479852" user="kubahahaha">
    <tag k="email" v="pinbwalcz@wp.pl"/>
    <tag k="full_name" v="Powiatowy Inspektorat Nadzoru Budowlanego w Wałczu"/>
    <tag k="government" v="building_control"/>
    <tag k="name" v="Powiatowy Inspektorat Nadzoru Budowlanego"/>
    <tag k="office" v="government"/>
    <tag k="phone" v="+48 67 352 35 16"/>
    <tag k="short_name" v="PINB w Wałczu"/>
    <tag k="source:office" v="Baza teleadresowa administracji zespolonej według stanu na 16.08.2021"/>
    <tag k="website" v="bip.pinb.powiatwalecki.pl"/>
  </node>
  <node id="10541987897" lat="49.6788955" lon="21.7748356" version="4" timestamp="2023-01-25T19:12:35Z" changeset="131707894" uid="1479852" user="kubahahaha">
    <tag k="email" v="pinbkrosno@op.pl"/>
    <tag k="fax" v="+48 13 437 57 82"/>
    <tag k="government" v="building_control"/>
    <tag k="name" v="Powiatowy Inspektorat Nadzoru Budowlanego"/>
    <tag k="office" v="government"/>
    <tag k="official_name" v="Powiatowy Inspektorat Nadzoru Budowlanego w Krośnie"/>
    <tag k="phone" v="+48 13 437 57 82"/>
    <tag k="short_name" v="PINB w Krośnie"/>
    <tag k="source:office" v="Baza teleadresowa administracji zespolonej według stanu na 16.08.2021"/>
    <tag k="website" v="http://bip.zetorzeszow.pl/pinbkrosno/"/>
  </node>
  <node id="10541989744" lat="50.0470362" lon="21.4024646" version="3" timestamp="2023-01-25T19:07:13Z" changeset="131707692" uid="1479852" user="kubahahaha">
    <tag k="email" v="pinbdebica@interia.pl"/>
    <tag k="fax" v="+48 14 683 40 30"/>
    <tag k="government" v="building_control"/>
    <tag k="name" v="Powiatowy Inspektorat Nadzoru Budowlanego"/>
    <tag k="office" v="government"/>
    <tag k="official_name" v="Powiatowy Inspektorat Nadzoru Budowlanego w Dębicy"/>
    <tag k="phone" v="+48 14 683 40 30"/>
    <tag k="short_name" v="PINB w Dębicy"/>
    <tag k="source:office" v="Baza teleadresowa administracji zespolonej według stanu na 16.08.2021"/>
    <tag k="website" v="http://www.pinbdebica.pl/"/>
  </node>
  <node id="10541991711" lat="49.6787863" lon="21.7749164" version="3" timestamp="2023-01-25T19:08:00Z" changeset="131707721" uid="1479852" user="kubahahaha">
    <tag k="addr:city" v="Krosno"/>
    <tag k="addr:housenumber" v="1"/>
    <tag k="addr:postcode" v="38-400"/>
    <tag k="addr:street" v="Bieszczadzka"/>
    <tag k="email" v="pinbkrosno@gmail.com"/>
    <tag k="fax" v="+48 13 420 20 50"/>
    <tag k="government" v="building_control"/>
    <tag k="name" v="Powiatowy Inspektorat Nadzoru Budowlanego"/>
    <tag k="office" v="government"/>
    <tag k="official_name" v="Powiatowy Inspektorat Nadzoru Budowlanego dla miasta Krosno"/>
    <tag k="phone" v="+48 13 420 20 50"/>
    <tag k="short_name" v="PINB dla miasta Krosno"/>
    <tag k="source:office" v="Baza teleadresowa administracji zespolonej według stanu na 16.08.2021"/>
    <tag k="website" v="http://pinb.umkrosno.pl/"/>
  </node>
  <node id="10541994168" lat="50.0412826" lon="22.0098801" version="3" timestamp="2023-01-25T19:11:54Z" changeset="131707874" uid="1479852" user="kubahahaha">
    <tag k="email" v="pinb@powiat.rzeszow.pl"/>
    <tag k="fax" v="+48 17 862 62 17"/>
    <tag k="government" v="building_control"/>
    <tag k="name" v="Powiatowy Inspektorat Nadzoru Budowlanego"/>
    <tag k="office" v="government"/>
    <tag k="official_name" v="Powiatowy Inspektorat Nadzoru Budowlanego w Rzeszowie"/>
    <tag k="phone" v="+48 17 862 62 68"/>
    <tag k="short_name" v="PINB w Rzeszowie"/>
    <tag k="source:office" v="Baza teleadresowa administracji zespolonej według stanu na 16.08.2021"/>
    <tag k="website" v="https://bip.powiat.rzeszow.pl/?c=mdTresc-cmPokaz-1738#POWIATOWY%20INSPEKTORAT%20NADZORU%20BUDOWLANEGO%20W%20RZESZOWIE"/>
  </node>
  <node id="10582455212" lat="51.2506414" lon="22.5524123" version="1" timestamp="2023-01-25T19:16:08Z" changeset="131708022" uid="1479852" user="kubahahaha">
    <tag k="email" v="sekretariat@lublin.winb.gov.pl"/>
    <tag k="fax" v="+48 81 534 71 98"/>
    <tag k="government" v="building_control"/>
    <tag k="name" v="Wojewódzki Inspektorat Nadzoru Budowlanego"/>
    <tag k="office" v="government"/>
    <tag k="official_name" v="Wojewódzki Inspektorat Nadzoru Budowlanego w Lublinie"/>
    <tag k="phone" v="+48 81 534 71 84"/>
    <tag k="source:office" v="Baza teleadresowa administracji zespolonej według stanu na 16.08.2021"/>
    <tag k="website" v="www.lublin.winb.gov.pl"/>
  </node>
  <way id="97974756" version="7" timestamp="2023-01-25T18:58:56Z" changeset="131707476" uid="1479852" user="kubahahaha">
    <nd ref="1133573763"/>
    <nd ref="1133897958"/>
    <nd ref="1133897964"/>
    <nd ref="1133897966"/>
    <nd ref="1133897976"/>
    <nd ref="1133897974"/>
    <nd ref="1133897970"/>
    <nd ref="1133897947"/>
    <nd ref="1133573763"/>
    <tag k="addr:city" v="Siedlce"/>
    <tag k="addr:housenumber" v="45"/>
    <tag k="addr:postcode" v="08-110"/>
    <tag k="addr:street" v="Józefa Piłsudskiego"/>
    <tag k="building" v="office"/>
    <tag k="building:fireproof" v="yes"/>
    <tag k="building:levels" v="4"/>
    <tag k="email" v="kancelaria@pinb.siedlce.pl"/>
    <tag k="fax" v="+48 25 794 39 76"/>
    <tag k="government" v="building_control"/>
    <tag k="name" v="Powiatowy Inspektorat Nadzoru Budowlanego Miasta Siedlce"/>
    <tag k="office" v="government"/>
    <tag k="phone" v="+48 25 794 39 70"/>
    <tag k="source:office" v="Baza teleadresowa administracji zespolonej według stanu na 16.08.2021"/>
    <tag k="website" v="https://pinbmiastasiedlce.bip.gov.pl"/>
  </way>
  <way id="129769865" version="5" timestamp="2023-01-14T12:40:07Z" changeset="131263339" uid="18257637" user="HeIIoWorld">
    <nd ref="1431016874"/>
    <nd ref="1442448181"/>
    <nd ref="2088317437"/>
    <nd ref="1442448329"/>
    <nd ref="1431016885"/>
    <nd ref="1431016874"/>
    <tag k="building" v="yes"/>
    <tag k="heritage" v="2"/>
    <tag k="heritage:operator" v="nid"/>
    <tag k="historic" v="yes"/>
    <tag k="name" v="Powiatowy Inspektorat Nadzoru Budowlanego"/>
    <tag k="office" v="government"/>
    <tag k="opening_hours" v="Mo-Fr 07:30-15:30"/>
    <tag k="ref:nid" v="A-715/95"/>
  </way>
  <way id="132507265" version="12" timestamp="2023-01-25T19:12:11Z" changeset="131707882" uid="1479852" user="kubahahaha">
    <nd ref="1457479919"/>
    <nd ref="3545681065"/>
    <nd ref="566498515"/>
    <nd ref="566498510"/>
    <nd ref="1457479829"/>
    <nd ref="2012100447"/>
    <nd ref="1457479919"/>
    <tag k="addr:city" v="Łańcut"/>
    <tag k="addr:housenumber" v="9"/>
    <tag k="addr:postcode" v="37-100"/>
    <tag k="addr:street" v="Józefa Piłsudskiego"/>
    <tag k="building" v="office"/>
    <tag k="building:levels" v="2"/>
    <tag k="email" v="pinb.lancut@o2.pl"/>
    <tag k="fax" v="+48 17 225 69 67"/>
    <tag k="government" v="building_control"/>
    <tag k="heritage" v="2"/>
    <tag k="name" v="Powiatowy Inspektorat Nadzoru Budowlanego"/>
    <tag k="office" v="government"/>
    <tag k="official_name" v="Powiatowy Inspektorat Nadzoru Budowlanego w Łańcucie"/>
    <tag k="phone" v="+48 17 225 69 67"/>
    <tag k="ref:nid" v="A-1283; A-940"/>
    <tag k="short_name" v="PINB w Łańcucie"/>
    <tag k="source:office" v="Baza teleadresowa administracji zespolonej według stanu na 16.08.2021"/>
    <tag k="start_date" v="1800"/>
    <tag k="website" v="https://pinblancut.bip.gov.pl/"/>
  </way>
  <way id="194427949" version="10" timestamp="2022-10-29T17:09:58Z" changeset="128219979" uid="3199858" user="Mateusz Konieczny - bot account">
    <nd ref="2049300625"/>
    <nd ref="2049300628"/>
    <nd ref="5726946163"/>
    <nd ref="2049300604"/>
    <nd ref="2049300572"/>
    <nd ref="2049300563"/>
    <nd ref="2049300581"/>
    <nd ref="2049300625"/>
    <tag k="addr:city" v="Lwówek Śląski"/>
    <tag k="addr:city:simc" v="0936227"/>
    <tag k="addr:housenumber" v="25D"/>
    <tag k="addr:postcode" v="59-600"/>
    <tag k="addr:street" v="aleja Wojska Polskiego"/>
    <tag k="building" v="yes"/>
    <tag k="building:colour" v="brown"/>
    <tag k="email" v="pinb@powiatlwowecki.pl"/>
    <tag k="fax" v="+48 75 782 36 54"/>
    <tag k="government" v="yes"/>
    <tag k="name" v="Powiatowy Inspektorat Nadzoru Budowlanego"/>
    <tag k="office" v="government"/>
    <tag k="opening_hours" v="Mo-Fr 09:00-17:00"/>
    <tag k="phone" v="+48 75 782 28 23"/>
    <tag k="roof:colour" v="grey"/>
    <tag k="roof:shape" v="gabled"/>
    <tag k="source:addr" v="lwowekslaski.e-mapa.net"/>
    <tag k="source:geometry" v="geoportal.gov.pl:ortofoto"/>
    <tag k="website" v="https://pinb.pl/prezentacje/dolnoslaskie/lwowekslaski/"/>
  </way>
  <way id="199832370" version="9" timestamp="2023-01-25T19:08:17Z" changeset="131707727" uid="1479852" user="kubahahaha">
    <nd ref="2098296807"/>
    <nd ref="2098296808"/>
    <nd ref="2098296806"/>
    <nd ref="2098296846"/>
    <nd ref="2098343349"/>
    <nd ref="2098343365"/>
    <nd ref="2098296947"/>
    <nd ref="2098296910"/>
    <nd ref="2098296920"/>
    <nd ref="2098296913"/>
    <nd ref="2098296894"/>
    <nd ref="2098296869"/>
    <nd ref="2098296862"/>
    <nd ref="2098296860"/>
    <nd ref="2098296807"/>
    <tag k="addr:city" v="Rzeszów"/>
    <tag k="addr:housenumber" v="5"/>
    <tag k="addr:postcode" v="35-065"/>
    <tag k="addr:street" v="8 Marca"/>
    <tag k="building" v="apartments"/>
    <tag k="building:levels" v="2"/>
    <tag k="email" v="biuro@winb.rzeszow.pl"/>
    <tag k="fax" v="+48 17 862 33 22"/>
    <tag k="government" v="building_control"/>
    <tag k="heritage" v="2"/>
    <tag k="name" v="Wojewódzki Inspektorat Nadzoru Budowlanego"/>
    <tag k="office" v="government"/>
    <tag k="official_name" v="Wojewódzki Inspektorat Nadzoru Budowlanego w Rzeszowie"/>
    <tag k="phone" v="+48 17 852 78 29"/>
    <tag k="ref:nid" v="A-1097; A-1002"/>
    <tag k="source:office" v="Baza teleadresowa administracji zespolonej według stanu na 16.08.2021"/>
    <tag k="start_date" v="before 1900"/>
    <tag k="website" v="http://www.winb.rzeszow.pl/"/>
  </way>
  <way id="209412521" version="5" timestamp="2023-01-25T18:58:56Z" changeset="131707476" uid="1479852" user="kubahahaha">
    <nd ref="2196300129"/>
    <nd ref="2196300125"/>
    <nd ref="2196300127"/>
    <nd ref="2196300132"/>
    <nd ref="2196300129"/>
    <tag k="addr:city" v="Otwock"/>
    <tag k="addr:housenumber" v="52"/>
    <tag k="addr:postcode" v="05-400"/>
    <tag k="addr:street" v="Sołecka"/>
    <tag k="building" v="public"/>
    <tag k="email" v="sekretariat@pinbotwock.pl"/>
    <tag k="fax" v="+48 22 788 90 13"/>
    <tag k="full_name" v="Powiatowy Inspektorat Nadzoru Budowlanego w Otwocku"/>
    <tag k="government" v="building_control"/>
    <tag k="name" v="Powiatowy Inspektorat Nadzoru Budowlanego"/>
    <tag k="office" v="government"/>
    <tag k="phone" v="+48 22 788 90 13"/>
    <tag k="short_name" v="PINB w Otwocku"/>
    <tag k="source:addr" v="UM Otwock"/>
    <tag k="source:office" v="Baza teleadresowa administracji zespolonej według stanu na 16.08.2021"/>
    <tag k="website" v="www.pinbotwock.pl"/>
  </way>
  <way id="220402788" version="6" timestamp="2020-07-02T20:42:27Z" changeset="87470354" uid="594456" user="Michoo">
    <nd ref="4219940739"/>
    <nd ref="4219940740"/>
    <nd ref="4219940742"/>
    <nd ref="4219940741"/>
    <nd ref="4219940743"/>
    <nd ref="4219940733"/>
    <nd ref="4219940728"/>
    <nd ref="4219940736"/>
    <nd ref="4219940739"/>
    <tag k="addr:city" v="Białystok"/>
    <tag k="addr:housenumber" v="6"/>
    <tag k="addr:street" v="Handlowa"/>
    <tag k="building" v="yes"/>
    <tag k="name" v="Wojewódzki Inspektorat Nadzoru Budowlanego"/>
    <tag k="office" v="government"/>
    <tag k="phone" v="+48857481270"/>
    <tag k="website" v="https://www.winb.bialystok.pl/"/>
  </way>
  <way id="237111271" version="7" timestamp="2023-01-25T18:58:56Z" changeset="131707476" uid="1479852" user="kubahahaha">
    <nd ref="4023984011"/>
    <nd ref="4023983984"/>
    <nd ref="4023983998"/>
    <nd ref="4023984012"/>
    <nd ref="4023984014"/>
    <nd ref="4023984033"/>
    <nd ref="4023984026"/>
    <nd ref="4023984011"/>
    <tag k="addr:city" v="Przemyśl"/>
    <tag k="addr:housenumber" v="5"/>
    <tag k="addr:postcode" v="37-700"/>
    <tag k="addr:street" v="Henryka Siemiradzkiego"/>
    <tag k="building" v="yes"/>
    <tag k="building:levels" v="2"/>
    <tag k="email" v="pinb@mprzemysl.pl"/>
    <tag k="fax" v="+48 16 678 91 61"/>
    <tag k="full_name" v="Inspektorat Nadzoru Budowlanego dla miasta Przemyśl"/>
    <tag k="government" v="building_control"/>
    <tag k="name" v="Inspektorat Nadzoru Budowlanego dla miasta Przemyśl"/>
    <tag k="office" v="government"/>
    <tag k="phone" v="+48 16 678 91 61"/>
    <tag k="source:office" v="Baza teleadresowa administracji zespolonej według stanu na 16.08.2021"/>
    <tag k="website" v="http://www.pinb.mprzemysl.pl/"/>
  </way>
  <way id="237978691" version="4" timestamp="2022-02-15T08:34:55Z" changeset="117424818" uid="2044927" user="Mariusz Staniszewski">
    <nd ref="2458354011"/>
    <nd ref="2458354009"/>
    <nd ref="2458354005"/>
    <nd ref="2458354027"/>
    <nd ref="2458354032"/>
    <nd ref="2458354029"/>
    <nd ref="2458354021"/>
    <nd ref="2458354011"/>
    <tag k="addr:city" v="Płock"/>
    <tag k="addr:housenumber" v="4"/>
    <tag k="addr:street" v="Plac generała Jarosława Dąbrowskiego"/>
    <tag k="building" v="office"/>
    <tag k="name" v="Powiatowy Inspektorat Nadzoru Budowlanego"/>
    <tag k="office" v="government"/>
  </way>
  <way id="276842205" version="5" timestamp="2023-01-25T19:12:53Z" changeset="131707909" uid="1479852" user="kubahahaha">
    <nd ref="2814185334"/>
    <nd ref="2814185324"/>
    <nd ref="2814185322"/>
    <nd ref="2814185315"/>
    <nd ref="2814185317"/>
    <nd ref="2814185308"/>
    <nd ref="2814185304"/>
    <nd ref="2814185314"/>
    <nd ref="2814185310"/>
    <nd ref="2814185318"/>
    <nd ref="2814185320"/>
    <nd ref="2814185329"/>
    <nd ref="2814185331"/>
    <nd ref="2814185332"/>
    <nd ref="2814185334"/>
    <tag k="addr:city" v="Sanok"/>
    <tag k="addr:housenumber" v="74"/>
    <tag k="addr:postcode" v="38-500"/>
    <tag k="addr:street" v="Aleja Wojska Polskiego"/>
    <tag k="building" v="yes"/>
    <tag k="email" v="sekretariat@pinb.sanok.pl"/>
    <tag k="fax" v="+48 13 464 19 72"/>
    <tag k="government" v="building_control"/>
    <tag k="name" v="Powiatowy Inspektorat Nadzoru Budowlanego"/>
    <tag k="office" v="government"/>
    <tag k="official_name" v="Powiatowy Inspektorat Nadzoru Budowlanego w Sanoku"/>
    <tag k="phone" v="+48 13 464 19 72"/>
    <tag k="short_name" v="PINB w Sanoku"/>
    <tag k="source:office" v="Baza teleadresowa administracji zespolonej według stanu na 16.08.2021"/>
    <tag k="website" v="http://pinb.sanok.pl/"/>
  </way>
  <way id="358721964" version="4" timestamp="2023-01-25T19:11:05Z" changeset="131707848" uid="1479852" user="kubahahaha">
    <nd ref="3636065310"/>
    <nd ref="3636062969"/>
    <nd ref="3636064994"/>
    <nd ref="3636062972"/>
    <nd ref="3636065310"/>
    <tag k="addr:city" v="Opole Lubelskie"/>
    <tag k="addr:housenumber" v="2"/>
    <tag k="addr:postcode" v="24-300"/>
    <tag k="addr:street" v="Parkowa"/>
    <tag k="building" v="yes"/>
    <tag k="email" v="pinbopole@op.pl"/>
    <tag k="fax" v="+48 81 827 27 32"/>
    <tag k="government" v="building_control"/>
    <tag k="name" v="Powiatowy Inspektorat Nadzoru Budowlanego"/>
    <tag k="office" v="government"/>
    <tag k="official_name" v="Powiatowy Inspektorat Nadzoru Budowlanego w Opolu Lubelskim"/>
    <tag k="phone" v="+48 81 827 27 32"/>
    <tag k="short_name" v="PINB w Opolu Lubelskim"/>
    <tag k="source:addr" v="EMUi@iMPA (opolelubelskie.e-mapa.net)"/>
    <tag k="source:office" v="Baza teleadresowa administracji zespolonej według stanu na 16.08.2021"/>
    <tag k="website" v="www.pinbopolelub.e-bip.org.pl"/>
  </way>
  <way id="359321971" version="4" timestamp="2023-01-25T19:10:04Z" changeset="131707808" uid="1479852" user="kubahahaha">
    <nd ref="3640622046"/>
    <nd ref="3640620948"/>
    <nd ref="3640587672"/>
    <nd ref="3640624973"/>
    <nd ref="3640622999"/>
    <nd ref="3640623102"/>
    <nd ref="3640622399"/>
    <nd ref="3640625636"/>
    <nd ref="3640626137"/>
    <nd ref="3640623104"/>
    <nd ref="3640597942"/>
    <nd ref="3640624066"/>
    <nd ref="3640622046"/>
    <tag k="addr:city" v="Lubartów"/>
    <tag k="addr:housenumber" v="64"/>
    <tag k="addr:postcode" v="21-100"/>
    <tag k="addr:street" v="Klemensa Junoszy Szaniawskiego"/>
    <tag k="building" v="office"/>
    <tag k="email" v="pinb.lubartow@poczta.fm"/>
    <tag k="fax" v="+48 81 855 30 11"/>
    <tag k="government" v="building_control"/>
    <tag k="name" v="Powiatowy Inspektorat Nadzoru Budowlanego"/>
    <tag k="office" v="government"/>
    <tag k="official_name" v="Powiatowy Inspektorat Nadzoru Budowlanego w Lubartowie"/>
    <tag k="phone" v="+48 81 854 54 45"/>
    <tag k="short_name" v="PINB w Lubartowie"/>
    <tag k="source:addr" v="gugik.gov.pl"/>
    <tag k="source:office" v="Baza teleadresowa administracji zespolonej według stanu na 16.08.2021"/>
    <tag k="website" v="http://pinb.powiatlubartowski.pl"/>
  </way>
  <way id="365479845" version="7" timestamp="2023-01-25T19:10:11Z" changeset="131707813" uid="1479852" user="kubahahaha">
    <nd ref="3694880686"/>
    <nd ref="3694880719"/>
    <nd ref="3694880683"/>
    <nd ref="3694880711"/>
    <nd ref="5217096336"/>
    <nd ref="5217096335"/>
    <nd ref="5217096334"/>
    <nd ref="5217096333"/>
    <nd ref="3694894430"/>
    <nd ref="3694894432"/>
    <nd ref="3694880686"/>
    <tag k="addr:city" v="Radzyn Podlaski"/>
    <tag k="addr:housenumber" v="18"/>
    <tag k="addr:postcode" v="21-300"/>
    <tag k="addr:street" v="Ostrowiecka"/>
    <tag k="building" v="office"/>
    <tag k="email" v="pinbradzyn@pra.pl"/>
    <tag k="government" v="building_control"/>
    <tag k="name" v="Powiatowy Inspektorat Nadzoru Budowlanego"/>
    <tag k="office" v="government"/>
    <tag k="official_name" v="Powiatowy Inspektorat Nadzoru Budowlanego w Radzyniu Podlaskim"/>
    <tag k="phone" v="+48 83 352 74 15"/>
    <tag k="short_name" v="PINB w Radzyniu Podlaskim"/>
    <tag k="source:addr" v="emuia.gugik.gov.pl"/>
    <tag k="source:office" v="Baza teleadresowa administracji zespolonej według stanu na 16.08.2021"/>
    <tag k="website" v="www.pinbradzyn.bip.lubelskie.pl"/>
  </way>
  <way id="365739212" version="3" timestamp="2021-01-08T16:17:59Z" changeset="97180297" uid="2248159" user="damianp25">
    <nd ref="3697435240"/>
    <nd ref="3697435246"/>
    <nd ref="3697434585"/>
    <nd ref="3697434577"/>
    <nd ref="3697434592"/>
    <nd ref="3697434595"/>
    <nd ref="3697435240"/>
    <tag k="addr:city" v="Żywiec"/>
    <tag k="addr:housenumber" v="30"/>
    <tag k="addr:postcode" v="34-300"/>
    <tag k="addr:street" v="Bracka"/>
    <tag k="building" v="yes"/>
    <tag k="name" v="Powiatowy Inspektorat Nadzoru Budowlanego"/>
    <tag k="office" v="government"/>
    <tag k="source:addr" v="EMUiA (emuia.gugik.gov.pl)"/>
  </way>
  <way id="367020141" version="5" timestamp="2023-01-25T19:13:52Z" changeset="131707940" uid="1479852" user="kubahahaha">
    <nd ref="3709952726"/>
    <nd ref="3709951070"/>
    <nd ref="3709950260"/>
    <nd ref="3709950119"/>
    <nd ref="3709950278"/>
    <nd ref="3709952433"/>
    <nd ref="3709952331"/>
    <nd ref="3709952726"/>
    <tag k="addr:city" v="Hrubieszów"/>
    <tag k="addr:housenumber" v="8"/>
    <tag k="addr:postcode" v="22-500"/>
    <tag k="addr:street" v="Plac Wolności"/>
    <tag k="building" v="yes"/>
    <tag k="email" v="pinb.hrub@op.pl"/>
    <tag k="fax" v="+48 84 696 29 04"/>
    <tag k="government" v="building_control"/>
    <tag k="name" v="Powiatowy Inspektorat Nadzoru Budowlanego"/>
    <tag k="office" v="government"/>
    <tag k="official_name" v="Powiatowy Inspektorat Nadzoru Budowlanego w Hrubieszowie"/>
    <tag k="phone" v="+48 84 696 29 04"/>
    <tag k="short_name" v="PINB w Hrubieszowie"/>
    <tag k="source:addr" v="EMUiA (emuia.geoportal.gov.pl)"/>
    <tag k="source:office" v="Baza teleadresowa administracji zespolonej według stanu na 16.08.2021"/>
  </way>
  <way id="405609369" version="4" timestamp="2023-01-25T19:12:42Z" changeset="131707899" uid="1479852" user="kubahahaha">
    <nd ref="4077794445"/>
    <nd ref="4077794431"/>
    <nd ref="4077794432"/>
    <nd ref="4077794421"/>
    <nd ref="4077794420"/>
    <nd ref="4077794387"/>
    <nd ref="4077794392"/>
    <nd ref="4077794434"/>
    <nd ref="4077794433"/>
    <nd ref="4077794447"/>
    <nd ref="4077794445"/>
    <tag k="addr:city" v="Jasło"/>
    <tag k="addr:housenumber" v="3"/>
    <tag k="addr:postcode" v="38-200"/>
    <tag k="addr:street" v="Kochanowskiego"/>
    <tag k="building" v="yes"/>
    <tag k="email" v="jaslopinb@wp.pl"/>
    <tag k="fax" v="+48 13 448 20 76"/>
    <tag k="government" v="building_control"/>
    <tag k="name" v="Powiatowy Inspektorat Nadzoru Budowlanego"/>
    <tag k="office" v="government"/>
    <tag k="official_name" v="Powiatowy Inspektorat Nadzoru Budowlanego w Jaśle"/>
    <tag k="phone" v="+48 13 448 20 76"/>
    <tag k="short_name" v="PINB w Jaśle"/>
    <tag k="source:office" v="Baza teleadresowa administracji zespolonej według stanu na 16.08.2021"/>
    <tag k="website" v="http://pinb-jaslo.bip.gov.pl/"/>
  </way>
  <way id="700727246" version="5" timestamp="2023-01-25T18:58:56Z" changeset="131707476" uid="1479852" user="kubahahaha">
    <nd ref="6580437144"/>
    <nd ref="6580437132"/>
    <nd ref="6580437129"/>
    <nd ref="6580437143"/>
    <nd ref="6580437142"/>
    <nd ref="6580437141"/>
    <nd ref="6580437140"/>
    <nd ref="6580437139"/>
    <nd ref="6580437138"/>
    <nd ref="6580437137"/>
    <nd ref="6580437133"/>
    <nd ref="6580437144"/>
    <tag k="addr:city" v="Mława"/>
    <tag k="addr:housenumber" v="4"/>
    <tag k="addr:postcode" v="06-500"/>
    <tag k="addr:street" v="Władysława Stanisława Reymonta"/>
    <tag k="building" v="yes"/>
    <tag k="email" v="pinb.mlawa@op.pl"/>
    <tag k="fax" v="+48 23 655 29 11"/>
    <tag k="full_name" v="Powiatowy Inspektorat Nadzoru Budowlanego w Mławie"/>
    <tag k="government" v="building_control"/>
    <tag k="name" v="Powiatowy Inspektorat Nadzoru Budowlanego"/>
    <tag k="office" v="government"/>
    <tag k="phone" v="+48 23 655 29 11"/>
    <tag k="short_name" v="PINB w Mławie"/>
    <tag k="source:office" v="Baza teleadresowa administracji zespolonej według stanu na 16.08.2021"/>
    <tag k="website" v="www.pinbmlawa.pl"/>
  </way>
  <way id="771416524" version="2" timestamp="2020-02-10T23:22:00Z" changeset="80818370" uid="4033548" user="Night_Raven">
    <nd ref="7201445283"/>
    <nd ref="7201445284"/>
    <nd ref="7201445285"/>
    <nd ref="7201445290"/>
    <nd ref="7201445291"/>
    <nd ref="7201445292"/>
    <nd ref="7201445289"/>
    <nd ref="7201445286"/>
    <nd ref="7201445287"/>
    <nd ref="4306069143"/>
    <nd ref="7201445283"/>
    <tag k="building" v="yes"/>
    <tag k="name" v="Powiatowy Inspektorat Nadzoru Budowlanego"/>
    <tag k="office" v="government"/>
  </way>

</osm>