<?xml version="1.0" encoding="UTF-8"?>
<osm version="0.6" generator="Overpass API 0.7.61.5 4133829e">
<note>The data included in this document is from www.openstreetmap.org. The data is made available under ODbL.</note>
<meta osm_base="2023-09-17T22:40:59Z" areas="2023-09-17T19:49:48Z"/>

  <node id="2296689085" lat="50.0923713" lon="18.2180367" version="1" timestamp="2013-05-09T07:04:16Z" changeset="16042556" uid="838827" user="gregorisan">
    <tag k="amenity" v="social_facility"/>
    <tag k="name" v="Ośrodek Pomocy Społecznej Warsztaty Terapii Zajęciowej"/>
    <tag k="phone" v="+ 4832 415 05 60"/>
  </node>
  <node id="3057641865" lat="51.5757698" lon="17.6782766" version="2" timestamp="2014-12-05T10:28:29Z" changeset="27258893" uid="2274433" user="sorbovit">
    <tag k="amenity" v="community_centre"/>
    <tag k="name" v="Warsztaty Terapii Zajęciowej"/>
  </node>
  <node id="3222756548" lat="49.7295399" lon="19.3320495" version="4" timestamp="2023-08-30T16:29:26Z" changeset="140597562" uid="408964" user="Lesnydzban">
    <tag k="addr:city" v="Gilowice"/>
    <tag k="addr:city:simc" v="0051747"/>
    <tag k="addr:housenumber" v="71"/>
    <tag k="addr:postcode" v="34-322"/>
    <tag k="addr:street" v="Zakopiańska"/>
    <tag k="addr:street:sym_ul" v="25458"/>
    <tag k="healthcare" v="rehabilitation"/>
    <tag k="name" v="Warsztaty Terapii Zajęciowej"/>
    <tag k="source:addr" v="gilowice.e-mapa.net"/>
  </node>
  <node id="3294298098" lat="54.1678562" lon="15.5602748" version="3" timestamp="2021-08-18T08:01:31Z" changeset="109856319" uid="657596" user="taxi301">
    <tag k="addr:city" v="Kołobrzeg"/>
    <tag k="addr:housenumber" v="29"/>
    <tag k="addr:postcode" v="78-100"/>
    <tag k="addr:street" v="Mazowiecka"/>
    <tag k="amenity" v="community_centre"/>
    <tag k="community_centre:for" v="disabled"/>
    <tag k="contact:facebook" v="https://www.facebook.com/Warsztat-Terapii-Zaj%C4%99ciowej-w-Ko%C5%82obrzegu-389512561127463/"/>
    <tag k="email" v="zk.kolobrzeg@psouu.org.pl"/>
    <tag k="entrance" v="main"/>
    <tag k="mobile" v="+48 533 995 792"/>
    <tag k="name" v="Warsztaty Terapii Zajęciowej"/>
    <tag k="phone" v="+48 94 352 53 88"/>
    <tag k="website" v="https://psoni.kolobrzeg.eu/"/>
  </node>
  <node id="3373563916" lat="50.2964391" lon="18.7935116" version="1" timestamp="2015-02-26T18:07:26Z" changeset="29119715" uid="278187" user="dzamper">
    <tag k="addr:city" v="Zabrze"/>
    <tag k="addr:housenumber" v="30"/>
    <tag k="addr:postcode" v="41-800"/>
    <tag k="addr:street" v="Henryka Sienkiewicza"/>
    <tag k="amenity" v="social_facility"/>
    <tag k="name" v="Warsztaty terapii zajęciowej Caritas Diecezji Gliwickiej"/>
    <tag k="social_facility" v="workshop"/>
  </node>
  <node id="4297683833" lat="51.2245127" lon="23.1240780" version="2" timestamp="2018-01-19T12:16:20Z" changeset="55576435" uid="175746" user="RafalR">
    <tag k="addr:housenumber" v="1"/>
    <tag k="addr:place" v="Majdan Zahorodyński"/>
    <tag k="addr:postcode" v="22-130"/>
    <tag k="amenity" v="social_facility"/>
    <tag k="name" v="Warsztat Terapii Zajęciowej w Majdanie Zahorodyńskim"/>
    <tag k="social_facility" v="group_home"/>
    <tag k="social_facility:for" v="mental_health"/>
  </node>
  <node id="4362773794" lat="51.1395518" lon="23.4521592" version="1" timestamp="2016-08-23T13:28:47Z" changeset="41638270" uid="4307191" user="AdrianXQ">
    <tag k="addr:housenumber" v="135E"/>
    <tag k="addr:street" v="Lubelska"/>
    <tag k="amenity" v="school"/>
    <tag k="name" v="Warsztat Terapii Zajęciowej"/>
  </node>
  <node id="4703183765" lat="52.2447117" lon="20.9470035" version="1" timestamp="2017-02-24T09:24:54Z" changeset="46361900" uid="2540707" user="lemacik">
    <tag k="name" v="Warsztat Terapii Zajęciowej"/>
    <tag k="office" v="ngo"/>
  </node>
  <node id="4744435293" lat="53.0524185" lon="16.7330997" version="3" timestamp="2022-02-28T11:24:00Z" changeset="117940280" uid="15186991" user="name_translation_proxy_ukraine_refugee_crisis">
    <tag k="addr:city" v="Ujście"/>
    <tag k="addr:housenumber" v="3"/>
    <tag k="addr:postcode" v="64-850"/>
    <tag k="addr:street" v="Plac Wiosny Ludów"/>
    <tag k="amenity" v="social_facility"/>
    <tag k="name" v="Warsztat Terapii Zajęciowej"/>
    <tag k="name:uk" v="Майстерня трудотерапії"/>
    <tag k="operator" v="Urząd Miejski w Ujściu"/>
    <tag k="phone" v="+48 67 2830638"/>
    <tag k="social_facility" v="outreach"/>
    <tag k="website" v="http://www.wtzujscie.pl/"/>
  </node>
  <node id="4790279182" lat="50.9730643" lon="18.2229842" version="1" timestamp="2017-04-12T16:39:24Z" changeset="47700678" uid="2319082" user="jacek_zwik">
    <tag k="amenity" v="social_facility"/>
    <tag k="name" v="Warsztaty terapii zajęciowej"/>
    <tag k="operator" v="Caritas diecezji opolskiej"/>
    <tag k="social_facility" v="workshop"/>
  </node>
  <node id="4898439115" lat="54.5518642" lon="18.5032087" version="1" timestamp="2017-06-05T23:52:20Z" changeset="49290678" uid="604437" user="RicoElectrico">
    <tag k="amenity" v="social_facility"/>
    <tag k="name" v="Warsztat Terapii Zajęciowej przy Stowarzyszeniu Osób z Wadami Słuchu &quot;Cisza&quot;"/>
    <tag k="phone" v="+48586253323"/>
    <tag k="social_facility" v="workshop"/>
    <tag k="social_facility:for" v="disabled"/>
    <tag k="source" v="survey"/>
    <tag k="website" v="http://www.cisza.org.pl/"/>
  </node>
  <node id="6342605520" lat="53.1378780" lon="23.1410488" version="2" timestamp="2022-02-28T11:24:22Z" changeset="117940280" uid="15186991" user="name_translation_proxy_ukraine_refugee_crisis">
    <tag k="amenity" v="social_facility"/>
    <tag k="name" v="Warsztaty Terapii Zajęciowej"/>
    <tag k="name:uk" v="Майстерня трудотерапії"/>
    <tag k="opening_hours" v="Mo-Fr 07:00-14:00"/>
    <tag k="social_facility" v="outreach"/>
  </node>
  <node id="7283356901" lat="51.9787758" lon="21.2170448" version="4" timestamp="2023-03-21T17:24:11Z" changeset="133950071" uid="14165189" user="pomocnysztab">
    <tag k="amenity" v="social_facility"/>
    <tag k="name" v="Warsztaty Terapii Zajęciowej"/>
    <tag k="name:uk" v="Майстерня трудотерапії"/>
    <tag k="social_facility" v="outreach"/>
  </node>
  <node id="7856320861" lat="51.1033050" lon="17.1533792" version="3" timestamp="2022-02-28T11:25:17Z" changeset="117940280" uid="15186991" user="name_translation_proxy_ukraine_refugee_crisis">
    <tag k="amenity" v="social_facility"/>
    <tag k="email" v="biuro@fundacja-wro.id.pl"/>
    <tag k="name" v="Warsztat Terapii Zajęciowej &quot;Wspólnota&quot;"/>
    <tag k="name:uk" v="Майстерня трудотерапії «Громада»"/>
    <tag k="operator" v="Fundacja Imienia Brata Alberta"/>
    <tag k="phone" v="+48 501 899 938"/>
    <tag k="social_facility" v="outreach"/>
    <tag k="social_facility:for" v="disabled"/>
    <tag k="website" v="https://albert.krakow.pl/pl/58/Wspolnota_we_Wroclawiu"/>
  </node>
  <node id="8140275052" lat="53.1562550" lon="18.8925423" version="1" timestamp="2020-11-18T23:37:42Z" changeset="94400238" uid="1946262" user="Mirosław Żylewicz">
    <tag k="addr:city" v="Kowalewo Pomorskie"/>
    <tag k="addr:housenumber" v="2"/>
    <tag k="addr:postcode" v="87-410"/>
    <tag k="addr:street" v="Odrodzenia"/>
    <tag k="email" v="wtzkowalewo@onet.pl"/>
    <tag k="healthcare" v="occupational_therapist"/>
    <tag k="name" v="Warsztaty Terapii Zajęciowej"/>
    <tag k="opening_hours" v="Mo-Fr 08:00-15:00"/>
    <tag k="operator" v="Towarzystwo Przyjaciół Dzieci - Oddział Okręgowy Toruń"/>
    <tag k="phone" v="+48 56 684 12 37"/>
    <tag k="phone:mobile" v="+48 606 948 293"/>
  </node>
  <node id="8758105259" lat="50.4437008" lon="23.2134871" version="1" timestamp="2021-05-23T15:37:22Z" changeset="105173086" uid="1703910" user="Grzegorz_Kujawa">
    <tag k="amenity" v="social_facility"/>
    <tag k="email" v="wtzgrabowica@wp.pl"/>
    <tag k="mobile" v="+48 781502600"/>
    <tag k="name" v="Warsztaty Terapii Zajęciowej w Grabowicy"/>
    <tag k="operator" v="Urząd Gminy Susiec"/>
    <tag k="phone" v="+48 846662078"/>
    <tag k="social_facility" v="workshop"/>
    <tag k="website" v="http://wtzgrabowica.naszbip.pl/"/>
  </node>
  <node id="8765404117" lat="50.0388723" lon="19.9553952" version="1" timestamp="2021-05-25T16:05:33Z" changeset="105303235" uid="13410637" user="Szymon Babecki">
    <tag k="addr:city" v="Kraków"/>
    <tag k="addr:street" v="Za Torem"/>
    <tag k="name" v="Warsztat Terapii Zajęciowej"/>
    <tag k="office" v="therapist"/>
  </node>
  <node id="9490826077" lat="52.4501048" lon="16.4010209" version="1" timestamp="2022-02-08T20:47:14Z" changeset="117176690" uid="4493657" user="Aim311">
    <tag k="amenity" v="social_facility"/>
    <tag k="name" v="Warsztat terapii zajęciowej w Dusznikach"/>
    <tag k="website" v="https://opsduszniki.pl/cms/692/warsztat-terapii-zajeciowej"/>
  </node>
  <node id="10098072465" lat="49.8660340" lon="20.2926280" version="1" timestamp="2022-10-13T13:10:40Z" changeset="127470137" uid="4873389" user="Iga | Yanosik">
    <tag k="amenity" v="community_centre"/>
    <tag k="email" v="wtzlapanow@gmail.com"/>
    <tag k="name" v="Warsztat Terapii Zajęciowej"/>
    <tag k="website" v="http://www.wtzlapanow.pl/"/>
  </node>
  <node id="10116803193" lat="53.0117751" lon="18.5818138" version="1" timestamp="2022-10-20T15:18:06Z" changeset="127844498" uid="16972410" user="Barroszt">
    <tag k="name" v="WARSZTATY TERAPII ZAJĘCIOWEJ"/>
    <tag k="office" v="advertising_agency"/>
  </node>
  <node id="10120311639" lat="50.2481847" lon="21.7785426" version="2" timestamp="2022-11-06T10:09:19Z" changeset="128548704" uid="12914377" user="Patryk2710">
    <tag k="amenity" v="social_facility"/>
    <tag k="description" v="Caritas Diecezji Rzeszowskiej Warsztaty Terapii Zajęciowej"/>
    <tag k="name" v="Warsztaty Terapii Zajęciowej"/>
    <tag k="opening_hours" v="Mo-Fr 07:30-15:30"/>
  </node>
  <node id="10242225685" lat="51.2698437" lon="23.4332638" version="1" timestamp="2022-12-06T12:01:02Z" changeset="129780504" uid="17902517" user="djsako">
    <tag k="addr:city" v="Sawin"/>
    <tag k="addr:housenumber" v="5"/>
    <tag k="addr:postcode" v="22-107"/>
    <tag k="addr:street" v="Chełmska"/>
    <tag k="name" v="Warsztaty terapii zajęciowej"/>
    <tag k="office" v="therapist"/>
  </node>
  <node id="10276580841" lat="49.6831847" lon="21.7673401" version="1" timestamp="2022-12-20T19:39:30Z" changeset="130303771" uid="6203794" user="k2101">
    <tag k="healthcare" v="occupational_therapist"/>
    <tag k="name" v="Warsztat Terapii Zajęciowej"/>
  </node>
  <node id="10583043285" lat="52.4095078" lon="16.8718963" version="1" timestamp="2023-01-26T03:13:18Z" changeset="131716910" uid="10213768" user="moje_konto">
    <tag k="name" v="Warsztat terapii zajęciowej &quot;Koniczynka&quot;"/>
    <tag k="office" v="association"/>
    <tag k="official_name" v="Stowarzyszenie ludzi z epilepsją, niepełnosprawnych i ich przyjaciół &quot;Koniczynka&quot;"/>
  </node>
  <node id="10597166454" lat="52.4074823" lon="16.8700837" version="1" timestamp="2023-01-31T20:43:00Z" changeset="131937309" uid="10213768" user="moje_konto">
    <tag k="level" v="1"/>
    <tag k="name" v="krzemień: warsztat terapii zajęciowej"/>
    <tag k="office" v="association"/>
    <tag k="operator" v="stowarzyszenie na tak"/>
  </node>
  <node id="10932361041" lat="50.2956462" lon="21.7394195" version="1" timestamp="2023-05-27T21:49:53Z" changeset="136639173" uid="12914377" user="Patryk2710">
    <tag k="amenity" v="social_facility"/>
    <tag k="name" v="Warsztaty Terapii Zajęciowej"/>
    <tag k="opening_hours" v="Mo-Fr 07:30-15:30"/>
    <tag k="operator" v="Caritas Diecezji Rzeszowskiej"/>
    <tag k="social_facility" v="group_home"/>
  </node>
  <way id="75062769" version="7" timestamp="2021-11-16T14:23:39Z" changeset="113854469" uid="973600" user="eBin">
    <nd ref="1949155100"/>
    <nd ref="8721059575"/>
    <nd ref="885994242"/>
    <nd ref="8721059574"/>
    <nd ref="8721059573"/>
    <nd ref="1755290262"/>
    <nd ref="885993952"/>
    <nd ref="1755290263"/>
    <nd ref="885994386"/>
    <nd ref="1949155100"/>
    <tag k="amenity" v="social_facility"/>
    <tag k="landuse" v="commercial"/>
    <tag k="name" v="Warsztat Terapii Zajęciowej"/>
    <tag k="social_facility" v="outreach"/>
    <tag k="website" v="http://wtzpuck.pl/"/>
    <tag k="wheelchair" v="yes"/>
  </way>
  <way id="177330579" version="5" timestamp="2022-11-20T16:05:35Z" changeset="129161548" uid="16345719" user="blxght">
    <nd ref="1877826061"/>
    <nd ref="1877826066"/>
    <nd ref="9921350722"/>
    <nd ref="9921350724"/>
    <nd ref="9921350726"/>
    <nd ref="9921350727"/>
    <nd ref="9921350729"/>
    <nd ref="9921350728"/>
    <nd ref="9921350725"/>
    <nd ref="9921350723"/>
    <nd ref="10204120304"/>
    <nd ref="1877826081"/>
    <nd ref="1877826076"/>
    <nd ref="1877826071"/>
    <nd ref="1877826061"/>
    <tag k="amenity" v="social_facility"/>
    <tag k="building" v="yes"/>
    <tag k="name" v="Warsztat Terapii Zajęciowej"/>
    <tag k="social_facility" v="workshop"/>
    <tag k="social_facility:for" v="disabled"/>
  </way>
  <way id="206240196" version="5" timestamp="2020-07-17T20:18:47Z" changeset="88160231" uid="3214275" user="pio2_122">
    <nd ref="2162429687"/>
    <nd ref="2162429689"/>
    <nd ref="2162429684"/>
    <nd ref="2162429678"/>
    <nd ref="2162429687"/>
    <tag k="amenity" v="social_facility"/>
    <tag k="building" v="yes"/>
    <tag k="description" v="Pierwotnie budynek należał do warsztatów szkolnych ZSZ nr 1"/>
    <tag k="name" v="Środowiskowe Ognisko Wychowawcze TPD - Warsztaty Terapii Zajęciowej"/>
    <tag k="social_facility" v="outreach"/>
  </way>
  <way id="254061053" version="8" timestamp="2023-08-30T14:33:11Z" changeset="140592316" uid="3953053" user="Artur5">
    <nd ref="3916924371"/>
    <nd ref="3916923200"/>
    <nd ref="3916917231"/>
    <nd ref="3916917044"/>
    <nd ref="3916923066"/>
    <nd ref="3916917041"/>
    <nd ref="9894829609"/>
    <nd ref="3916918076"/>
    <nd ref="3916917045"/>
    <nd ref="3916917051"/>
    <nd ref="3916923205"/>
    <nd ref="3916924374"/>
    <nd ref="3916918086"/>
    <nd ref="3916924371"/>
    <tag k="addr:city" v="Andrychów"/>
    <tag k="addr:housenumber" v="35"/>
    <tag k="addr:postcode" v="34-120"/>
    <tag k="addr:street" v="Krakowska"/>
    <tag k="amenity" v="social_facility"/>
    <tag k="building" v="yes"/>
    <tag k="description" v="Produkty oferowane przez Warsztat Terapii Zajęciowej &quot;Promyczek&quot; to: obrazy wykonywane techniką string-art, wyroby z makramy, ręcznie wykonywane aniołki z drewna, kolczyki i breloki z glinki polimerowej, magnesy na lodówkę z drewna."/>
    <tag k="email" v="wtz@fundacjapromyczek.pl"/>
    <tag k="name" v="Warsztat Terapii Zajęciowej Promyczek"/>
    <tag k="opening_date" v="2020-12-30"/>
    <tag k="opening_hours" v="Mo-Fr 07:00-15:00"/>
    <tag k="phone" v="+48 730 332 012"/>
    <tag k="social_facility" v="workshop"/>
    <tag k="social_facility:for" v="disabled"/>
    <tag k="source:addr" v="andrychow.e-mapa.net"/>
    <tag k="surveillance" v="yes"/>
    <tag k="website" v="https://www.facebook.com/WTZandrychow/"/>
  </way>
  <way id="283595817" version="9" timestamp="2022-10-29T18:23:44Z" changeset="128222386" uid="3199858" user="Mateusz Konieczny - bot account">
    <nd ref="2874392212"/>
    <nd ref="3039825536"/>
    <nd ref="6177196370"/>
    <nd ref="6177196365"/>
    <nd ref="3039825533"/>
    <nd ref="2874389089"/>
    <nd ref="6177196357"/>
    <nd ref="5726946138"/>
    <nd ref="5726946137"/>
    <nd ref="2874389088"/>
    <nd ref="2874392209"/>
    <nd ref="3039825537"/>
    <nd ref="4265485360"/>
    <nd ref="3039825538"/>
    <nd ref="2874392210"/>
    <nd ref="2874392212"/>
    <tag k="addr:city" v="Lwówek Śląski"/>
    <tag k="addr:housenumber" v="2"/>
    <tag k="addr:postcode" v="59-600"/>
    <tag k="addr:street" v="Szpitalna"/>
    <tag k="building" v="yes"/>
    <tag k="building:colour" v="#D8D4B0"/>
    <tag k="building:levels" v="2"/>
    <tag k="name" v="Warsztat Terapii Zajęciowej Caritas imienia świętego Krzysztofa"/>
    <tag k="office" v="charity"/>
    <tag k="phone" v="+48 75 734 77 19"/>
    <tag k="roof:colour" v="grey"/>
    <tag k="source:geometry" v="geoportal.gov.pl:ortofoto"/>
  </way>
  <way id="301398921" version="3" timestamp="2015-03-04T23:12:18Z" changeset="29255997" uid="1911765" user="lks1">
    <nd ref="3383741774"/>
    <nd ref="3383741775"/>
    <nd ref="3383741772"/>
    <nd ref="3383741768"/>
    <nd ref="3383741777"/>
    <nd ref="3383741779"/>
    <nd ref="3383741778"/>
    <nd ref="3383741776"/>
    <nd ref="3383741774"/>
    <tag k="addr:housenumber" v="49"/>
    <tag k="addr:place" v="Nowolipsk"/>
    <tag k="amenity" v="social_facility"/>
    <tag k="building" v="yes"/>
    <tag k="name" v="Warsztaty Terapii Zajęciowej w Nowolipsku"/>
    <tag k="source:addr" v="EMUiA (chocz.e-mapa.net)"/>
  </way>
  <way id="310236333" version="3" timestamp="2021-07-20T10:42:15Z" changeset="108311014" uid="12462881" user="tryhp3">
    <nd ref="3156304994"/>
    <nd ref="3156304993"/>
    <nd ref="3156304986"/>
    <nd ref="3156304985"/>
    <nd ref="3156304979"/>
    <nd ref="3156304980"/>
    <nd ref="3156304971"/>
    <nd ref="3156304972"/>
    <nd ref="3156304981"/>
    <nd ref="3156304982"/>
    <nd ref="3156304988"/>
    <nd ref="3156304987"/>
    <nd ref="3156304994"/>
    <tag k="addr:city" v="Brzostek"/>
    <tag k="addr:city:simc" v="0814493"/>
    <tag k="addr:housenumber" v="23"/>
    <tag k="addr:postcode" v="39-230"/>
    <tag k="addr:street" v="Szkolna"/>
    <tag k="addr:street:sym_ul" v="21970"/>
    <tag k="amenity" v="social_facility"/>
    <tag k="building" v="yes"/>
    <tag k="name" v="Warsztat Terapii Zajęciowej w Brzostku"/>
    <tag k="social_facility" v="nursing_home"/>
    <tag k="social_facility:for" v="senior"/>
    <tag k="source:addr" v="emuia1.gugik.gov.pl"/>
    <tag k="website" v="https://wtzbrzostek.pl/"/>
  </way>
  <way id="347949792" version="4" timestamp="2022-09-09T21:20:20Z" changeset="125996614" uid="3214275" user="pio2_122">
    <nd ref="3541680047"/>
    <nd ref="3541680000"/>
    <nd ref="3541679998"/>
    <nd ref="3541680025"/>
    <nd ref="3541680009"/>
    <nd ref="3541680039"/>
    <nd ref="3541680021"/>
    <nd ref="3541680008"/>
    <nd ref="3541679993"/>
    <nd ref="3541679996"/>
    <nd ref="3541680047"/>
    <tag k="addr:city:simc" v="0645330"/>
    <tag k="addr:housenumber" v="69"/>
    <tag k="addr:place" v="Zgłobień"/>
    <tag k="addr:postcode" v="36-046"/>
    <tag k="amenity" v="social_facility"/>
    <tag k="building" v="public"/>
    <tag k="building:levels" v="1"/>
    <tag k="building:usage:pl" v="budynek oświaty, nauki i kultury oraz budynek sportowy"/>
    <tag k="data_zmiany" v="2012-01-10 12:10:02"/>
    <tag k="email" v="biuro@wtz-zglobien.pl"/>
    <tag k="heritage" v="2"/>
    <tag k="heritage:operator" v="nid"/>
    <tag k="heritage:website" v="https://zabytek.pl/pl/obiekty/zabytek?inspire_id=PL.1.9.ZIPOZ.NID_N_18_BK.22271&amp;rejestr=rejestr-zabytkow"/>
    <tag k="historic" v="manor"/>
    <tag k="image" v="http://www.dioblina.eu/files/dioblina/styles/medium/public/ugl/0/0/1/Dwor_w_Zglobieniu-120140.jpg"/>
    <tag k="name" v="Warsztat Terapii Zajęciowej w Zgłobniu"/>
    <tag k="nid:inscription_date" v="1975-05-31;2012-09-18"/>
    <tag k="operator" v="Polskie Stowarzyszenie Młodzież Sprawna Inaczej"/>
    <tag k="phone" v="+48 17 871 61 62"/>
    <tag k="ref:nid" v="A-905;A-896"/>
    <tag k="short_name" v="WTZ Zgłobień"/>
    <tag k="social_facility" v="workshop"/>
    <tag k="source" v="Starostwo Powiatowe w Rzeszowie"/>
    <tag k="source:addr" v="boguchwala.e-mapa.net"/>
    <tag k="start_date" v="early C19"/>
    <tag k="website" v="http://www.wtz-zglobien.pl/index.php/home.html"/>
    <tag k="wikidata" v="Q30558369"/>
  </way>
  <way id="458917651" version="3" timestamp="2022-01-26T09:44:35Z" changeset="116615486" uid="2098272" user="maraf24">
    <nd ref="4548449100"/>
    <nd ref="2989941778"/>
    <nd ref="4548449099"/>
    <nd ref="4548449098"/>
    <nd ref="4543073534"/>
    <nd ref="4543073533"/>
    <nd ref="4543073532"/>
    <nd ref="4543073496"/>
    <nd ref="4548449101"/>
    <nd ref="9449464260"/>
    <nd ref="4548449100"/>
    <tag k="amenity" v="social_facility"/>
    <tag k="landuse" v="residential"/>
    <tag k="name" v="Warsztat Terapii Zajęciowej w Muratynie"/>
    <tag k="operator" v="Gmina Łaszczów"/>
    <tag k="website" v="http://wtz-muratyn.laszczow.pl/"/>
  </way>
  <way id="550429991" version="2" timestamp="2021-12-23T09:35:55Z" changeset="115289124" uid="14647623" user="polac098">
    <nd ref="5316424635"/>
    <nd ref="9360299553"/>
    <nd ref="9360299552"/>
    <nd ref="5316424638"/>
    <nd ref="5316424637"/>
    <nd ref="5316424642"/>
    <nd ref="5316424635"/>
    <tag k="amenity" v="social_facility"/>
    <tag k="name" v="Warsztaty Terapii Zajęciowej przy MOPS w Stalowej Woli"/>
    <tag k="social_facility" v="workshop"/>
  </way>
  <way id="674252405" version="1" timestamp="2019-03-03T15:36:14Z" changeset="67739923" uid="657596" user="taxi301">
    <nd ref="6314455109"/>
    <nd ref="6314455108"/>
    <nd ref="6314455126"/>
    <nd ref="6314455119"/>
    <nd ref="6314455120"/>
    <nd ref="6314455117"/>
    <nd ref="6314455116"/>
    <nd ref="6314455109"/>
    <tag k="amenity" v="community_centre"/>
    <tag k="contact:facebook" v="https://www.facebook.com/WarsztatTerapiiZajeciowejKarlino/"/>
    <tag k="email" v="warterzaj1@wp.pl"/>
    <tag k="fax" v="+48 94 311 68 11"/>
    <tag k="landuse" v="residential"/>
    <tag k="name" v="Warsztat Terapii Zajęciowej &quot;Iskierka&quot;"/>
    <tag k="opening_hours" v="Mo-Fr 08:00-15:00; PH off"/>
    <tag k="phone" v="+48 94 311 68 11"/>
  </way>
  <way id="700913159" version="1" timestamp="2019-07-01T18:34:04Z" changeset="71795743" uid="3214275" user="pio2_122">
    <nd ref="6582390888"/>
    <nd ref="6582390892"/>
    <nd ref="6582390891"/>
    <nd ref="6582390890"/>
    <nd ref="6582390889"/>
    <nd ref="6582390888"/>
    <tag k="amenity" v="social_facility"/>
    <tag k="name" v="Warsztat Terapii Zajęciowej &quot;Jutrzenka”"/>
    <tag k="social_facility" v="outreach"/>
  </way>
  <way id="888820790" version="2" timestamp="2021-04-18T14:11:54Z" changeset="103139631" uid="3907752" user="rezerwa">
    <nd ref="8263483620"/>
    <nd ref="8263483619"/>
    <nd ref="8263483618"/>
    <nd ref="8263483617"/>
    <nd ref="8263483616"/>
    <nd ref="8263483615"/>
    <nd ref="8263483614"/>
    <nd ref="8263483613"/>
    <nd ref="8263483612"/>
    <nd ref="8263483611"/>
    <nd ref="8263483620"/>
    <tag k="addr:housenumber" v="27"/>
    <tag k="addr:place" v="Janowica"/>
    <tag k="addr:postcode" v="21-070"/>
    <tag k="amenity" v="social_facility"/>
    <tag k="building" v="yes"/>
    <tag k="description" v="PSONI Koło w Łęcznej, Warsztaty w Janowicy. Polskie Stowarzyszenie na rzecz Osób z Niepełnosprawnością Intelektualną."/>
    <tag k="name" v="Warsztaty Terapii Zajęciowej w Janowicy PSONI"/>
    <tag k="phone" v="+48 82 567 70 64"/>
    <tag k="source" v="www.geoportal.gov.pl"/>
    <tag k="website" v="http://wtzjanowica.blogspot.com;http://www.facebook.com/PSONI-Ko%C5%82o-w-%C5%81%C4%99cznej-WTZ-Janowica-532790227100252/"/>
  </way>
  <way id="966254803" version="1" timestamp="2021-07-21T18:17:08Z" changeset="108380882" uid="2605901" user="azalizh">
    <nd ref="6123085004"/>
    <nd ref="6123085003"/>
    <nd ref="6123085000"/>
    <nd ref="3765479099"/>
    <nd ref="3765479102"/>
    <nd ref="3765479108"/>
    <nd ref="8939493045"/>
    <nd ref="8939493046"/>
    <nd ref="6123085004"/>
    <tag k="amenity" v="social_facility"/>
    <tag k="name" v="Warsztat Terapii Zajęciowej"/>
    <tag k="official_name" v="Warsztat Terapii Zajęciowej w Trzebiatowie"/>
    <tag k="operator" v="Polskie Stowarzyszenie na Rzecz Osób z Niepełnosprawnością Intelektualną – Koło w Trzebiatowie"/>
    <tag k="phone" v="+48 913872080"/>
    <tag k="social_facility" v="group_home"/>
    <tag k="social_facility:for" v="disabled"/>
    <tag k="website" v="http://psonitrzebiatow.pl"/>
  </way>
  <way id="1076579035" version="2" timestamp="2022-07-10T10:28:25Z" changeset="123426701" uid="8194660" user="Eye1024">
    <nd ref="9872354423"/>
    <nd ref="9872354425"/>
    <nd ref="9872354424"/>
    <nd ref="9872354422"/>
    <nd ref="9878599966"/>
    <nd ref="9872354423"/>
    <tag k="amenity" v="social_facility"/>
    <tag k="barrier" v="fence"/>
    <tag k="name" v="Warsztaty Terapii Zajęciowej"/>
    <tag k="social_facility:for" v="disabled"/>
    <tag k="website" v="http://wtz-deblin.pl/"/>
  </way>
  <way id="1099363294" version="4" timestamp="2023-06-15T21:52:15Z" changeset="137391022" uid="19556303" user="demonq">
    <nd ref="10064455279"/>
    <nd ref="10977789612"/>
    <nd ref="10064455278"/>
    <nd ref="10064455277"/>
    <nd ref="10064455276"/>
    <nd ref="10064455270"/>
    <nd ref="10064455275"/>
    <nd ref="3650315424"/>
    <nd ref="10064455273"/>
    <nd ref="10064455272"/>
    <nd ref="10064455271"/>
    <nd ref="10064455279"/>
    <tag k="addr:city" v="Ostrowiec Świętokrzyski"/>
    <tag k="addr:country" v="PL"/>
    <tag k="addr:housenumber" v="10"/>
    <tag k="addr:place" v="Osiedle Pułanki"/>
    <tag k="addr:postcode" v="27-400"/>
    <tag k="contact:facebook" v="https://www.facebook.com/Warsztat-Terapii-Zaj%c4%99ciowej-ul-Rzeczki-18-w-Ostrowcu-%c5%9awi%c4%99tokrzyskim-173878479639553/"/>
    <tag k="email" v="razem55@interia.pl; wtzrzeczki@gmail.com"/>
    <tag k="name" v="Warsztat Terapii Zajęciowej"/>
    <tag k="office" v="association"/>
    <tag k="phone" v="+48 41 263 03 00"/>
    <tag k="website" v="https://wtzpulanki.ostrowiec.pl/index.php"/>
  </way>
  <node id="885993952" lat="54.7171826" lon="18.4020639" version="3" timestamp="2021-05-11T09:07:08Z" changeset="104500049" uid="6765127" user="Cristoffs"/>
  <node id="885994242" lat="54.7166815" lon="18.4015069" version="2" timestamp="2021-05-11T09:07:08Z" changeset="104500049" uid="6765127" user="Cristoffs"/>
  <node id="885994386" lat="54.7167944" lon="18.4030916" version="3" timestamp="2021-05-11T09:07:08Z" changeset="104500049" uid="6765127" user="Cristoffs"/>
  <node id="1755290262" lat="54.7171174" lon="18.4012775" version="2" timestamp="2021-05-11T09:07:08Z" changeset="104500049" uid="6765127" user="Cristoffs"/>
  <node id="1755290263" lat="54.7170402" lon="18.4025918" version="2" timestamp="2021-05-11T09:07:08Z" changeset="104500049" uid="6765127" user="Cristoffs"/>
  <node id="1877826061" lat="52.2019660" lon="18.6348530" version="4" timestamp="2022-07-30T18:41:42Z" changeset="124279159" uid="16345719" user="blxght"/>
  <node id="1877826066" lat="52.2020666" lon="18.6347923" version="4" timestamp="2022-07-30T18:41:42Z" changeset="124279159" uid="16345719" user="blxght"/>
  <node id="1877826071" lat="52.2021078" lon="18.6354798" version="4" timestamp="2022-07-30T18:41:42Z" changeset="124279159" uid="16345719" user="blxght"/>
  <node id="1877826076" lat="52.2021783" lon="18.6354369" version="4" timestamp="2022-07-30T18:41:42Z" changeset="124279159" uid="16345719" user="blxght"/>
  <node id="1877826081" lat="52.2022111" lon="18.6354189" version="4" timestamp="2022-07-30T18:41:42Z" changeset="124279159" uid="16345719" user="blxght"/>
  <node id="1949155100" lat="54.7162746" lon="18.4023527" version="2" timestamp="2021-05-11T09:07:08Z" changeset="104500049" uid="6765127" user="Cristoffs"/>
  <node id="2162429678" lat="52.4295455" lon="20.7187088" version="1" timestamp="2013-02-19T10:33:29Z" changeset="15087566" uid="564141" user="Madmaks"/>
  <node id="2162429684" lat="52.4296166" lon="20.7188593" version="1" timestamp="2013-02-19T10:33:29Z" changeset="15087566" uid="564141" user="Madmaks"/>
  <node id="2162429687" lat="52.4297847" lon="20.7184049" version="1" timestamp="2013-02-19T10:33:30Z" changeset="15087566" uid="564141" user="Madmaks"/>
  <node id="2162429689" lat="52.4298558" lon="20.7185554" version="1" timestamp="2013-02-19T10:33:30Z" changeset="15087566" uid="564141" user="Madmaks"/>
  <node id="2874389088" lat="51.1114794" lon="15.5830123" version="4" timestamp="2018-06-29T01:03:31Z" changeset="60263102" uid="6844910" user="adabada"/>
  <node id="2874389089" lat="51.1114860" lon="15.5831766" version="4" timestamp="2018-06-29T01:03:31Z" changeset="60263102" uid="6844910" user="adabada"/>
  <node id="2874392209" lat="51.1116765" lon="15.5829535" version="4" timestamp="2018-06-29T01:03:31Z" changeset="60263102" uid="6844910" user="adabada"/>
  <node id="2874392210" lat="51.1116843" lon="15.5830210" version="4" timestamp="2018-06-29T01:03:31Z" changeset="60263102" uid="6844910" user="adabada"/>
  <node id="2874392212" lat="51.1116952" lon="15.5831113" version="4" timestamp="2018-06-29T01:03:31Z" changeset="60263102" uid="6844910" user="adabada"/>
  <node id="2989941778" lat="50.5638650" lon="23.6923396" version="3" timestamp="2016-12-10T20:41:23Z" changeset="44311374" uid="2098272" user="maraf24"/>
  <node id="3039825533" lat="51.1114986" lon="15.5832797" version="2" timestamp="2018-06-29T01:03:31Z" changeset="60263102" uid="6844910" user="adabada"/>
  <node id="3039825536" lat="51.1117075" lon="15.5832145" version="2" timestamp="2018-06-29T01:03:31Z" changeset="60263102" uid="6844910" user="adabada"/>
  <node id="3039825537" lat="51.1117675" lon="15.5829249" version="2" timestamp="2018-06-29T01:03:31Z" changeset="60263102" uid="6844910" user="adabada"/>
  <node id="3039825538" lat="51.1117727" lon="15.5829938" version="2" timestamp="2018-06-29T01:03:31Z" changeset="60263102" uid="6844910" user="adabada"/>
  <node id="3156304971" lat="49.8789918" lon="21.4166250" version="1" timestamp="2014-10-29T15:23:03Z" changeset="26414698" uid="2359495" user="ozyrys88"/>
  <node id="3156304972" lat="49.8790003" lon="21.4164513" version="1" timestamp="2014-10-29T15:23:03Z" changeset="26414698" uid="2359495" user="ozyrys88"/>
  <node id="3156304979" lat="49.8790573" lon="21.4166691" version="1" timestamp="2014-10-29T15:23:03Z" changeset="26414698" uid="2359495" user="ozyrys88"/>
  <node id="3156304980" lat="49.8790590" lon="21.4166328" version="1" timestamp="2014-10-29T15:23:03Z" changeset="26414698" uid="2359495" user="ozyrys88"/>
  <node id="3156304981" lat="49.8790783" lon="21.4164605" version="1" timestamp="2014-10-29T15:23:03Z" changeset="26414698" uid="2359495" user="ozyrys88"/>
  <node id="3156304982" lat="49.8790793" lon="21.4164383" version="1" timestamp="2014-10-29T15:23:03Z" changeset="26414698" uid="2359495" user="ozyrys88"/>
  <node id="3156304985" lat="49.8791109" lon="21.4166754" version="1" timestamp="2014-10-29T15:23:03Z" changeset="26414698" uid="2359495" user="ozyrys88"/>
  <node id="3156304986" lat="49.8791127" lon="21.4166389" version="1" timestamp="2014-10-29T15:23:03Z" changeset="26414698" uid="2359495" user="ozyrys88"/>
  <node id="3156304987" lat="49.8791149" lon="21.4164719" version="1" timestamp="2014-10-29T15:23:03Z" changeset="26414698" uid="2359495" user="ozyrys88"/>
  <node id="3156304988" lat="49.8791163" lon="21.4164426" version="1" timestamp="2014-10-29T15:23:03Z" changeset="26414698" uid="2359495" user="ozyrys88"/>
  <node id="3156304993" lat="49.8792801" lon="21.4166585" version="1" timestamp="2014-10-29T15:23:03Z" changeset="26414698" uid="2359495" user="ozyrys88"/>
  <node id="3156304994" lat="49.8792882" lon="21.4164922" version="1" timestamp="2014-10-29T15:23:03Z" changeset="26414698" uid="2359495" user="ozyrys88"/>
  <node id="3383741768" lat="51.9566658" lon="17.9443700" version="1" timestamp="2015-03-04T23:11:46Z" changeset="29255997" uid="1911765" user="lks1"/>
  <node id="3383741772" lat="51.9567643" lon="17.9441681" version="1" timestamp="2015-03-04T23:11:47Z" changeset="29255997" uid="1911765" user="lks1"/>
  <node id="3383741774" lat="51.9567881" lon="17.9443338" version="1" timestamp="2015-03-04T23:11:47Z" changeset="29255997" uid="1911765" user="lks1"/>
  <node id="3383741775" lat="51.9568286" lon="17.9442507" version="1" timestamp="2015-03-04T23:11:47Z" changeset="29255997" uid="1911765" user="lks1"/>
  <node id="3383741776" lat="51.9568723" lon="17.9444420" version="1" timestamp="2015-03-04T23:11:47Z" changeset="29255997" uid="1911765" user="lks1"/>
  <node id="3383741777" lat="51.9568790" lon="17.9446438" version="1" timestamp="2015-03-04T23:11:47Z" changeset="29255997" uid="1911765" user="lks1"/>
  <node id="3383741778" lat="51.9569129" lon="17.9443586" version="1" timestamp="2015-03-04T23:11:47Z" changeset="29255997" uid="1911765" user="lks1"/>
  <node id="3383741779" lat="51.9569776" lon="17.9444416" version="1" timestamp="2015-03-04T23:11:47Z" changeset="29255997" uid="1911765" user="lks1"/>
  <node id="3541679993" lat="50.0129536" lon="21.8586329" version="2" timestamp="2022-09-09T21:20:20Z" changeset="125996614" uid="3214275" user="pio2_122"/>
  <node id="3541679996" lat="50.0129849" lon="21.8587999" version="2" timestamp="2022-09-09T21:20:20Z" changeset="125996614" uid="3214275" user="pio2_122"/>
  <node id="3541679998" lat="50.0132913" lon="21.8585655" version="2" timestamp="2022-09-09T21:20:20Z" changeset="125996614" uid="3214275" user="pio2_122"/>
  <node id="3541680000" lat="50.0132714" lon="21.8585745" version="2" timestamp="2022-09-09T21:20:20Z" changeset="125996614" uid="3214275" user="pio2_122"/>
  <node id="3541680008" lat="50.0131907" lon="21.8585257" version="2" timestamp="2022-09-09T21:20:20Z" changeset="125996614" uid="3214275" user="pio2_122"/>
  <node id="3541680009" lat="50.0132650" lon="21.8585403" version="2" timestamp="2022-09-09T21:20:20Z" changeset="125996614" uid="3214275" user="pio2_122"/>
  <node id="3541680021" lat="50.0131822" lon="21.8584807" version="2" timestamp="2022-09-09T21:20:20Z" changeset="125996614" uid="3214275" user="pio2_122"/>
  <node id="3541680025" lat="50.0132849" lon="21.8585313" version="2" timestamp="2022-09-09T21:20:20Z" changeset="125996614" uid="3214275" user="pio2_122"/>
  <node id="3541680039" lat="50.0132482" lon="21.8584509" version="2" timestamp="2022-09-09T21:20:20Z" changeset="125996614" uid="3214275" user="pio2_122"/>
  <node id="3541680047" lat="50.0132880" lon="21.8586629" version="2" timestamp="2022-09-09T21:20:20Z" changeset="125996614" uid="3214275" user="pio2_122"/>
  <node id="3650315424" lat="50.9508314" lon="21.3856316" version="3" timestamp="2023-07-25T21:38:23Z" changeset="139009547" uid="19556303" user="demonq">
    <tag k="barrier" v="gate"/>
  </node>
  <node id="3765479099" lat="54.0578153" lon="15.2593530" version="2" timestamp="2021-07-21T18:17:08Z" changeset="108380882" uid="2605901" user="azalizh"/>
  <node id="3765479102" lat="54.0578323" lon="15.2591618" version="2" timestamp="2021-07-21T18:17:08Z" changeset="108380882" uid="2605901" user="azalizh"/>
  <node id="3765479108" lat="54.0578709" lon="15.2590129" version="2" timestamp="2021-07-21T18:17:08Z" changeset="108380882" uid="2605901" user="azalizh"/>
  <node id="3916917041" lat="49.8553893" lon="19.3477135" version="1" timestamp="2015-12-29T18:02:02Z" changeset="36246759" uid="693154" user="Władysław Komorek"/>
  <node id="3916917044" lat="49.8553990" lon="19.3475974" version="1" timestamp="2015-12-29T18:02:03Z" changeset="36246759" uid="693154" user="Władysław Komorek"/>
  <node id="3916917045" lat="49.8554130" lon="19.3477542" version="1" timestamp="2015-12-29T18:02:05Z" changeset="36246759" uid="693154" user="Władysław Komorek"/>
  <node id="3916917051" lat="49.8554211" lon="19.3478455" version="1" timestamp="2015-12-29T18:02:06Z" changeset="36246759" uid="693154" user="Władysław Komorek"/>
  <node id="3916917231" lat="49.8554965" lon="19.3475768" version="1" timestamp="2015-12-29T18:02:14Z" changeset="36246759" uid="693154" user="Władysław Komorek"/>
  <node id="3916918076" lat="49.8553934" lon="19.3477583" version="1" timestamp="2015-12-29T18:02:03Z" changeset="36246759" uid="693154" user="Władysław Komorek"/>
  <node id="3916918086" lat="49.8555126" lon="19.3477360" version="1" timestamp="2015-12-29T18:02:17Z" changeset="36246759" uid="693154" user="Władysław Komorek"/>
  <node id="3916923066" lat="49.8554090" lon="19.3477092" version="1" timestamp="2015-12-29T18:02:04Z" changeset="36246759" uid="693154" user="Władysław Komorek"/>
  <node id="3916923200" lat="49.8555044" lon="19.3476690" version="1" timestamp="2015-12-29T18:02:16Z" changeset="36246759" uid="693154" user="Władysław Komorek"/>
  <node id="3916923205" lat="49.8555177" lon="19.3478248" version="1" timestamp="2015-12-29T18:02:18Z" changeset="36246759" uid="693154" user="Władysław Komorek"/>
  <node id="3916924371" lat="49.8555068" lon="19.3476683" version="1" timestamp="2015-12-29T18:02:16Z" changeset="36246759" uid="693154" user="Władysław Komorek"/>
  <node id="3916924374" lat="49.8555101" lon="19.3477367" version="1" timestamp="2015-12-29T18:02:16Z" changeset="36246759" uid="693154" user="Władysław Komorek"/>
  <node id="4265485360" lat="51.1117685" lon="15.5829399" version="2" timestamp="2018-06-29T01:03:31Z" changeset="60263102" uid="6844910" user="adabada"/>
  <node id="4543073496" lat="50.5630313" lon="23.6913922" version="2" timestamp="2016-12-10T20:41:23Z" changeset="44311374" uid="2098272" user="maraf24"/>
  <node id="4543073532" lat="50.5637821" lon="23.6913088" version="1" timestamp="2016-12-07T12:36:42Z" changeset="44234054" uid="2098272" user="maraf24"/>
  <node id="4543073533" lat="50.5641492" lon="23.6912809" version="1" timestamp="2016-12-07T12:36:42Z" changeset="44234054" uid="2098272" user="maraf24"/>
  <node id="4543073534" lat="50.5642788" lon="23.6923882" version="2" timestamp="2016-12-10T20:41:23Z" changeset="44311374" uid="2098272" user="maraf24"/>
  <node id="4548449098" lat="50.5640430" lon="23.6924324" version="1" timestamp="2016-12-10T20:41:23Z" changeset="44311374" uid="2098272" user="maraf24"/>
  <node id="4548449099" lat="50.5640313" lon="23.6923237" version="1" timestamp="2016-12-10T20:41:23Z" changeset="44311374" uid="2098272" user="maraf24"/>
  <node id="4548449100" lat="50.5638290" lon="23.6919882" version="1" timestamp="2016-12-10T20:41:23Z" changeset="44311374" uid="2098272" user="maraf24"/>
  <node id="4548449101" lat="50.5630458" lon="23.6920678" version="1" timestamp="2016-12-10T20:41:23Z" changeset="44311374" uid="2098272" user="maraf24"/>
  <node id="5316424635" lat="50.5706148" lon="22.0526625" version="1" timestamp="2018-01-02T13:30:15Z" changeset="55100810" uid="4749992" user="KrzysztZ"/>
  <node id="5316424637" lat="50.5709091" lon="22.0517223" version="2" timestamp="2021-11-20T17:19:33Z" changeset="114034760" uid="6549455" user="conradoos"/>
  <node id="5316424638" lat="50.5710970" lon="22.0523238" version="2" timestamp="2021-11-20T17:19:33Z" changeset="114034760" uid="6549455" user="conradoos"/>
  <node id="5316424642" lat="50.5704256" lon="22.0520837" version="2" timestamp="2021-11-20T17:19:33Z" changeset="114034760" uid="6549455" user="conradoos"/>
  <node id="5726946137" lat="51.1114668" lon="15.5830140" version="1" timestamp="2018-06-29T01:03:23Z" changeset="60263102" uid="6844910" user="adabada"/>
  <node id="5726946138" lat="51.1114672" lon="15.5830293" version="1" timestamp="2018-06-29T01:03:23Z" changeset="60263102" uid="6844910" user="adabada"/>
  <node id="6123085000" lat="54.0580721" lon="15.2597194" version="2" timestamp="2021-07-21T18:17:08Z" changeset="108380882" uid="2605901" user="azalizh"/>
  <node id="6123085003" lat="54.0582728" lon="15.2600564" version="2" timestamp="2021-07-21T18:17:08Z" changeset="108380882" uid="2605901" user="azalizh"/>
  <node id="6123085004" lat="54.0582824" lon="15.2600054" version="2" timestamp="2021-07-21T18:17:08Z" changeset="108380882" uid="2605901" user="azalizh"/>
  <node id="6177196357" lat="51.1114691" lon="15.5830294" version="1" timestamp="2019-01-01T20:46:58Z" changeset="65942412" uid="6844910" user="adabada"/>
  <node id="6177196365" lat="51.1115812" lon="15.5832539" version="1" timestamp="2019-01-01T20:46:58Z" changeset="65942412" uid="6844910" user="adabada">
    <tag k="access" v="yes"/>
    <tag k="entrance" v="main"/>
  </node>
  <node id="6177196370" lat="51.1116522" lon="15.5832317" version="1" timestamp="2019-01-01T20:46:58Z" changeset="65942412" uid="6844910" user="adabada"/>
  <node id="6314455108" lat="54.0410573" lon="15.8749849" version="1" timestamp="2019-03-03T15:36:14Z" changeset="67739923" uid="657596" user="taxi301"/>
  <node id="6314455109" lat="54.0410548" lon="15.8749421" version="1" timestamp="2019-03-03T15:36:14Z" changeset="67739923" uid="657596" user="taxi301"/>
  <node id="6314455116" lat="54.0415646" lon="15.8736313" version="1" timestamp="2019-03-03T15:36:14Z" changeset="67739923" uid="657596" user="taxi301"/>
  <node id="6314455117" lat="54.0418075" lon="15.8735878" version="1" timestamp="2019-03-03T15:36:14Z" changeset="67739923" uid="657596" user="taxi301"/>
  <node id="6314455119" lat="54.0418755" lon="15.8742463" version="1" timestamp="2019-03-03T15:36:14Z" changeset="67739923" uid="657596" user="taxi301"/>
  <node id="6314455120" lat="54.0418155" lon="15.8736652" version="1" timestamp="2019-03-03T15:36:14Z" changeset="67739923" uid="657596" user="taxi301"/>
  <node id="6314455126" lat="54.0419254" lon="15.8747211" version="1" timestamp="2019-03-03T15:36:14Z" changeset="67739923" uid="657596" user="taxi301"/>
  <node id="6582390888" lat="52.2579810" lon="20.2727558" version="1" timestamp="2019-07-01T18:34:04Z" changeset="71795743" uid="3214275" user="pio2_122"/>
  <node id="6582390889" lat="52.2579824" lon="20.2733233" version="1" timestamp="2019-07-01T18:34:04Z" changeset="71795743" uid="3214275" user="pio2_122"/>
  <node id="6582390890" lat="52.2579948" lon="20.2733233" version="1" timestamp="2019-07-01T18:34:04Z" changeset="71795743" uid="3214275" user="pio2_122"/>
  <node id="6582390891" lat="52.2582222" lon="20.2733254" version="1" timestamp="2019-07-01T18:34:04Z" changeset="71795743" uid="3214275" user="pio2_122"/>
  <node id="6582390892" lat="52.2582221" lon="20.2726124" version="1" timestamp="2019-07-01T18:34:04Z" changeset="71795743" uid="3214275" user="pio2_122"/>
  <node id="8263483611" lat="51.3219646" lon="23.0677717" version="1" timestamp="2020-12-27T09:26:36Z" changeset="96476511" uid="8019013" user="charl3s"/>
  <node id="8263483612" lat="51.3220870" lon="23.0678051" version="1" timestamp="2020-12-27T09:26:36Z" changeset="96476511" uid="8019013" user="charl3s"/>
  <node id="8263483613" lat="51.3220971" lon="23.0677103" version="1" timestamp="2020-12-27T09:26:36Z" changeset="96476511" uid="8019013" user="charl3s"/>
  <node id="8263483614" lat="51.3220741" lon="23.0677041" version="1" timestamp="2020-12-27T09:26:36Z" changeset="96476511" uid="8019013" user="charl3s"/>
  <node id="8263483615" lat="51.3221015" lon="23.0674488" version="1" timestamp="2020-12-27T09:26:36Z" changeset="96476511" uid="8019013" user="charl3s"/>
  <node id="8263483616" lat="51.3221121" lon="23.0674516" version="1" timestamp="2020-12-27T09:26:36Z" changeset="96476511" uid="8019013" user="charl3s"/>
  <node id="8263483617" lat="51.3221169" lon="23.0674078" version="1" timestamp="2020-12-27T09:26:36Z" changeset="96476511" uid="8019013" user="charl3s"/>
  <node id="8263483618" lat="51.3221070" lon="23.0674051" version="1" timestamp="2020-12-27T09:26:36Z" changeset="96476511" uid="8019013" user="charl3s"/>
  <node id="8263483619" lat="51.3221166" lon="23.0673170" version="1" timestamp="2020-12-27T09:26:36Z" changeset="96476511" uid="8019013" user="charl3s"/>
  <node id="8263483620" lat="51.3220165" lon="23.0672896" version="1" timestamp="2020-12-27T09:26:36Z" changeset="96476511" uid="8019013" user="charl3s"/>
  <node id="8721059573" lat="54.7169765" lon="18.4013334" version="1" timestamp="2021-05-11T09:07:08Z" changeset="104500049" uid="6765127" user="Cristoffs"/>
  <node id="8721059574" lat="54.7168044" lon="18.4014191" version="1" timestamp="2021-05-11T09:07:08Z" changeset="104500049" uid="6765127" user="Cristoffs"/>
  <node id="8721059575" lat="54.7164615" lon="18.4019254" version="1" timestamp="2021-05-11T09:07:08Z" changeset="104500049" uid="6765127" user="Cristoffs"/>
  <node id="8939493045" lat="54.0581569" lon="15.2592983" version="1" timestamp="2021-07-21T18:17:08Z" changeset="108380882" uid="2605901" user="azalizh"/>
  <node id="8939493046" lat="54.0584329" lon="15.2596006" version="1" timestamp="2021-07-21T18:17:08Z" changeset="108380882" uid="2605901" user="azalizh"/>
  <node id="9360299552" lat="50.5709712" lon="22.0524122" version="1" timestamp="2021-12-23T09:35:55Z" changeset="115289124" uid="14647623" user="polac098"/>
  <node id="9360299553" lat="50.5706410" lon="22.0526441" version="1" timestamp="2021-12-23T09:35:55Z" changeset="115289124" uid="14647623" user="polac098"/>
  <node id="9449464260" lat="50.5630780" lon="23.6920645" version="1" timestamp="2022-01-26T09:44:35Z" changeset="116615486" uid="2098272" user="maraf24"/>
  <node id="9872354422" lat="51.5630347" lon="21.8305957" version="1" timestamp="2022-07-07T12:40:30Z" changeset="123318866" uid="8194660" user="Eye1024"/>
  <node id="9872354423" lat="51.5626720" lon="21.8314728" version="1" timestamp="2022-07-07T12:40:30Z" changeset="123318866" uid="8194660" user="Eye1024"/>
  <node id="9872354424" lat="51.5627737" lon="21.8302658" version="1" timestamp="2022-07-07T12:40:30Z" changeset="123318866" uid="8194660" user="Eye1024"/>
  <node id="9872354425" lat="51.5623777" lon="21.8311563" version="1" timestamp="2022-07-07T12:40:30Z" changeset="123318866" uid="8194660" user="Eye1024"/>
  <node id="9878599966" lat="51.5628786" lon="21.8309732" version="1" timestamp="2022-07-10T10:28:25Z" changeset="123426701" uid="8194660" user="Eye1024">
    <tag k="barrier" v="gate"/>
  </node>
  <node id="9894829609" lat="49.8553916" lon="19.3477383" version="1" timestamp="2022-07-18T09:14:31Z" changeset="123753020" uid="1479852" user="kubahahaha">
    <tag k="entrance" v="main"/>
  </node>
  <node id="9921350722" lat="52.2021276" lon="18.6350619" version="1" timestamp="2022-07-30T18:41:42Z" changeset="124279159" uid="16345719" user="blxght"/>
  <node id="9921350723" lat="52.2021540" lon="18.6351669" version="1" timestamp="2022-07-30T18:41:42Z" changeset="124279159" uid="16345719" user="blxght"/>
  <node id="9921350724" lat="52.2021589" lon="18.6350431" version="1" timestamp="2022-07-30T18:41:42Z" changeset="124279159" uid="16345719" user="blxght"/>
  <node id="9921350725" lat="52.2021839" lon="18.6351489" version="1" timestamp="2022-07-30T18:41:42Z" changeset="124279159" uid="16345719" user="blxght"/>
  <node id="9921350726" lat="52.2021615" lon="18.6350544" version="1" timestamp="2022-07-30T18:41:42Z" changeset="124279159" uid="16345719" user="blxght"/>
  <node id="9921350727" lat="52.2022114" lon="18.6350244" version="1" timestamp="2022-07-30T18:41:42Z" changeset="124279159" uid="16345719" user="blxght"/>
  <node id="9921350728" lat="52.2021816" lon="18.6351388" version="1" timestamp="2022-07-30T18:41:42Z" changeset="124279159" uid="16345719" user="blxght"/>
  <node id="9921350729" lat="52.2022306" lon="18.6351092" version="1" timestamp="2022-07-30T18:41:42Z" changeset="124279159" uid="16345719" user="blxght"/>
  <node id="10064455270" lat="50.9507631" lon="21.3850400" version="3" timestamp="2023-07-25T21:38:23Z" changeset="139009547" uid="19556303" user="demonq">
    <tag k="access" v="permissive"/>
    <tag k="barrier" v="gate"/>
    <tag k="bicycle" v="no"/>
    <tag k="foot" v="yes"/>
    <tag k="material" v="metal"/>
    <tag k="motor_vehicle" v="no"/>
    <tag k="motorcar" v="no"/>
    <tag k="wheelchair" v="yes"/>
  </node>
  <node id="10064455271" lat="50.9502856" lon="21.3848966" version="1" timestamp="2022-09-30T14:42:01Z" changeset="126826480" uid="1682993" user="szedar">
    <tag k="access" v="permissive"/>
    <tag k="barrier" v="gate"/>
    <tag k="bicycle" v="yes"/>
    <tag k="foot" v="yes"/>
    <tag k="material" v="metal"/>
    <tag k="motor_vehicle" v="permissive"/>
    <tag k="motorcar" v="yes"/>
  </node>
  <node id="10064455272" lat="50.9503179" lon="21.3856305" version="1" timestamp="2022-09-30T14:42:01Z" changeset="126826480" uid="1682993" user="szedar"/>
  <node id="10064455273" lat="50.9507871" lon="21.3856608" version="3" timestamp="2023-07-25T21:38:23Z" changeset="139009547" uid="19556303" user="demonq"/>
  <node id="10064455275" lat="50.9508971" lon="21.3855883" version="3" timestamp="2023-07-25T21:38:23Z" changeset="139009547" uid="19556303" user="demonq"/>
  <node id="10064455276" lat="50.9507402" lon="21.3849466" version="1" timestamp="2022-09-30T14:42:01Z" changeset="126826480" uid="1682993" user="szedar"/>
  <node id="10064455277" lat="50.9507113" lon="21.3849642" version="1" timestamp="2022-09-30T14:42:01Z" changeset="126826480" uid="1682993" user="szedar"/>
  <node id="10064455278" lat="50.9506125" lon="21.3845993" version="1" timestamp="2022-09-30T14:42:01Z" changeset="126826480" uid="1682993" user="szedar"/>
  <node id="10064455279" lat="50.9502830" lon="21.3847966" version="1" timestamp="2022-09-30T14:42:01Z" changeset="126826480" uid="1682993" user="szedar"/>
  <node id="10204120304" lat="52.2022044" lon="18.6353894" version="1" timestamp="2022-11-20T16:05:35Z" changeset="129161548" uid="16345719" user="blxght"/>
  <node id="10977789612" lat="50.9503549" lon="21.3847535" version="1" timestamp="2023-06-14T21:45:33Z" changeset="137346248" uid="19556303" user="demonq"/>

</osm>