<?xml version="1.0" encoding="UTF-8"?>
<osm version="0.6" generator="Overpass API 0.7.59 e21c39fe">
<note>The data included in this document is from www.openstreetmap.org. The data is made available under ODbL.</note>
<meta osm_base="2023-01-27T07:32:09Z" areas="2023-01-27T02:44:46Z"/>
  <node id="2434287107" lat="50.0410761" lon="22.0092240" action="modify" version="5" timestamp="2023-01-25T19:11:44Z" changeset="131707869" uid="1479852" user="kubahahaha">
    <tag k="official_name" v="Powiatowy Inspektorat Nadzoru Budowlanego dla miasta Rzeszów" />
    <tag k="phone" v="+48 17 748 43 50" />
    <tag k="fax" v="+48 17 748 43 50" />
    <tag k="email" v="pinb@pinb.erzeszow.pl" />
    <tag k="website" v="https://bip.erzeszow.pl/pl/309-powiatowy-inspektorat-nadzoru-budowlanego.html" />
    <tag k="source:office" v="Baza teleadresowa administracji zespolonej według stanu na 16.08.2021" />
    <tag k="office" v="government" />
    <tag k="government" v="building_control" />
    <tag k="short_name" v="PINB dla miasta Rzeszów" />
    <tag k="name" v="Powiatowy Inspektorat Nadzoru Budowlanego" />
  </node>
  <node id="4737624094" lat="51.9602693" lon="20.1446655" action="modify" version="4" timestamp="2020-09-30T12:32:44Z" changeset="91768981" uid="3183432" user="Think of Home">
    <tag k="official_name" v="Powiatowy Inspektorat Nadzoru Budowlanego w Skierniewicach" />
    <tag k="phone" v="+48 46 834 59 63" />
    <tag k="fax" v="+48 46 834 59 63" />
    <tag k="email" v="skierniewice@pinb.pl" />
    <tag k="website" v="skierniewice.pinb.pl" />
    <tag k="source:office" v="Baza teleadresowa administracji zespolonej według stanu na 16.08.2021" />
    <tag k="office" v="government" />
    <tag k="government" v="building_control" />
    <tag k="short_name" v="PINB w Skierniewicach" />
    <tag k="name" v="Powiatowy Inspektorat Nadzoru Budowlanego" />
    <tag k="opening_hours" v="Mo-Fr 08:00-16:00"/>
    <tag k="opening_hours:covid19" v="same"/>
  </node>
  <node id="6140156956" lat="54.1802232" lon="15.5705111" action="modify" version="3" timestamp="2022-02-17T13:50:16Z" changeset="117522682" uid="1983103" user="Jorisbo">
    <tag k="official_name" v="Powiatowy Inspektorat Nadzoru Budowlanego w Kołobrzegu" />
    <tag k="phone" v="+48 94 352 78 89" />
    <tag k="fax" v="+48 94 352 78 89" />
    <tag k="email" v="pinb@kolobrzeg.powiat.pl" />
    <tag k="website" v="www.pinbkolobrzeg.finn.pl" />
    <tag k="source:office" v="Baza teleadresowa administracji zespolonej według stanu na 16.08.2021" />
    <tag k="office" v="government" />
    <tag k="government" v="building_control" />
    <tag k="short_name" v="PINB w Kołobrzegu" />
    <tag k="name" v="Powiatowy Inspektorat Nadzoru Budowlanego" />
    <tag k="opening_hours" v="Mo-Fr 07:30-15:30"/>
    <tag k="operator" v="Starostwo Powiatowe"/>
  </node>
  <node id="6168908822" lat="50.4601181" lon="20.7220894" action="modify" version="3" timestamp="2023-01-25T18:58:56Z" changeset="131707476" uid="1479852" user="kubahahaha">
    <tag k="official_name" v="Powiatowy Inspektorat Nadzoru Budowlanego w w Busku-Zdroju" />
    <tag k="phone" v="+48 41 370 16 27" />
    <tag k="fax" v="+48 41 370 16 27" />
    <tag k="email" v="pinb@pinb.busko.pl" />
    <tag k="website" v="www.pinb.busko.pl" />
    <tag k="source:office" v="Baza teleadresowa administracji zespolonej według stanu na 16.08.2021" />
    <tag k="office" v="government" />
    <tag k="government" v="building_control" />
    <tag k="short_name" v="PINB w Busku-Zdroju" />
    <tag k="name" v="Powiatowy Inspektorat Nadzoru Budowlanego w" />
  </node>
  <node id="6564426968" lat="52.0715412" lon="21.0249669" action="modify" version="2" timestamp="2019-10-04T09:05:53Z" changeset="75266197" uid="1970880" user="pancernik">
    <tag k="official_name" v="Powiatowy Inspektorat Nadzoru Budowlanego w Piasecznie" />
    <tag k="phone" v="+48 22 777 40 07" />
    <tag k="email" v="sekretariat@pinbpiaseczno.pl" />
    <tag k="website" v="www.pinb.nbip.pl" />
    <tag k="source:office" v="Baza teleadresowa administracji zespolonej według stanu na 16.08.2021" />
    <tag k="office" v="government" />
    <tag k="government" v="building_control" />
    <tag k="short_name" v="PINB w Piasecznie" />
    <tag k="name" v="Powiatowy Inspektorat Nadzoru Budowlanego" />
    <tag k="opening_hours" v="Mo 09:00-17:00; Tu-Fr 07:30-15:30"/>
  </node>
  <node id="6610749194" lat="54.2509657" lon="20.8154300" action="modify" version="2" timestamp="2021-06-29T09:32:07Z" changeset="107136686" uid="5060085" user="Piotr Strębski">
    <tag k="official_name" v="Powiatowy Inspektorat Nadzoru Budowlanego w Bartoszycach" />
    <tag k="phone" v="+48 89 762 93 90" />
    <tag k="fax" v="+48 89 762 93 90" />
    <tag k="email" v="pinb@pinb-bartoszyce.gov.pl" />
    <tag k="website" v="www.pinb-bartoszyce.gov.pl" />
    <tag k="source:office" v="Baza teleadresowa administracji zespolonej według stanu na 16.08.2021" />
    <tag k="office" v="government" />
    <tag k="government" v="building_control" />
    <tag k="short_name" v="PINB w Bartoszycach" />
    <tag k="name" v="Powiatowy Inspektorat Nadzoru Budowlanego" />
    <tag k="opening_hours" v="Mo-Fr 07:00-15:00"/>
  </node>
  <node id="7313019071" lat="49.6686926" lon="21.1720455" action="modify" version="5" timestamp="2023-01-25T18:58:56Z" changeset="131707476" uid="1479852" user="kubahahaha">
    <tag k="official_name" v="Powiatowy Inspektorat Nadzoru Budowlanego w Gorlicach" />
    <tag k="phone" v="+48 18 354 00 65" />
    <tag k="fax" v="+48 18 353 02 34" />
    <tag k="email" v="biuro@gorlice.pinb.gov.pl" />
    <tag k="website" v="http://bip.malopolska.pl/pinbgorlice/" />
    <tag k="source:office" v="Baza teleadresowa administracji zespolonej według stanu na 16.08.2021" />
    <tag k="office" v="government" />
    <tag k="government" v="building_control" />
    <tag k="short_name" v="PINB w Gorlicach" />
    <tag k="name" v="Powiatowy Inspektorat Nadzoru Budowlanego" />
  </node>
  <node id="7594296302" lat="50.9649332" lon="22.1722290" action="modify" version="3" timestamp="2023-01-25T18:58:56Z" changeset="131707476" uid="1479852" user="kubahahaha">
    <tag k="official_name" v="Powiatowy Inspektorat Nadzoru Budowlanego w Kraśniku" />
    <tag k="phone" v="+48 81 825 31 07" />
    <tag k="fax" v="+48 81 825 31 07" />
    <tag k="email" v="biuro@pinbkrasnik.pl" />
    <tag k="website" v="https://pinbkrasnik.bip.gov.pl/" />
    <tag k="source:office" v="Baza teleadresowa administracji zespolonej według stanu na 16.08.2021" />
    <tag k="office" v="government" />
    <tag k="government" v="building_control" />
    <tag k="short_name" v="PINB w Kraśniku" />
    <tag k="name" v="Powiatowy Inspektorat Nadzoru Budowlanego" />
  </node>
  <node id="7653046048" lat="53.2601859" lon="14.4898652" action="modify" version="1" timestamp="2020-06-25T15:12:16Z" changeset="87147670" uid="3214275" user="pio2_122">
    <tag k="official_name" v="Powiatowy Inspektorat Nadzoru Budowlanego w Gryfinie" />
    <tag k="phone" v="+48 91 415 03 13" />
    <tag k="fax" v="+48 91 415 02 13" />
    <tag k="email" v="nadzor.bud@pinbgryfino.pl" />
    <tag k="website" v="pinbgryfino.pl" />
    <tag k="source:office" v="Baza teleadresowa administracji zespolonej według stanu na 16.08.2021" />
    <tag k="office" v="government" />
    <tag k="government" v="building_control" />
    <tag k="short_name" v="PINB w Gryfinie" />
    <tag k="name" v="Powiatowy Inspektorat Nadzoru Budowlanego" />
    <tag k="description" v="Powiatowy Inspektor Nadzoru Budowlanego w Gryfinie oraz inspektorzy przyjmują osobiście interesantów po uprzednim umówieniu się w następujących dniach i godzinach: Środa 10.00-15.00, Piątek 11.00-14.00."/>
    <tag k="opening_hours" v="Mo-Fr 08:00-15:00; Sa,Su off; PH off"/>
  </node>
  <node id="8442457307" lat="50.5003692" lon="19.4259629" action="modify" version="1" timestamp="2021-02-21T11:02:21Z" changeset="99675434" uid="9548812" user="Ronczka">
    <tag k="official_name" v="Powiatowy Inspektorat Nadzoru Budowlanego w Zawierciu" />
    <tag k="phone" v="+48 32 670 20 74" />
    <tag k="fax" v="+48 32 670 20 74" />
    <tag k="email" v="pinbzawiercie@onet.eu" />
    <tag k="website" v="nd" />
    <tag k="source:office" v="Baza teleadresowa administracji zespolonej według stanu na 16.08.2021" />
    <tag k="office" v="government" />
    <tag k="government" v="building_control" />
    <tag k="short_name" v="PINB w Zawierciu" />
    <tag k="name" v="Powiatowy Inspektorat Nadzoru Budowlanego" />
    <tag k="building" v="yes"/>
  </node>
  <node id="8826112992" lat="52.1642705" lon="20.7903676" action="modify" version="5" timestamp="2023-01-25T18:58:56Z" changeset="131707476" uid="1479852" user="kubahahaha">
    <tag k="official_name" v="Powiatowy Inspektorat Nadzoru Budowlanego w Pruszkowie" />
    <tag k="phone" v="+48 22 490 99 07" />
    <tag k="email" v="kancelaria@pinbpruszkow.pl" />
    <tag k="website" v="pinbpruszkow.pl" />
    <tag k="source:office" v="Baza teleadresowa administracji zespolonej według stanu na 16.08.2021" />
    <tag k="office" v="government" />
    <tag k="government" v="building_control" />
    <tag k="short_name" v="PINB w Pruszkowie" />
    <tag k="name" v="Powiatowy Inspektorat Nadzoru Budowlanego" />
  </node>
  <node id="10075403602" lat="54.1890927" lon="16.1932113" action="modify" version="2" timestamp="2022-10-04T16:43:32Z" changeset="127005301" uid="3214275" user="pio2_122">
    <tag k="official_name" v="Powiatowy Inspektorat Nadzoru Budowlanego dla miasta na prawach powiatu w Koszalinie" />
    <tag k="phone" v="+48 94 342 85 00" />
    <tag k="fax" v="+48 94 348 85 00" />
    <tag k="email" v="pinb-koszalin@szczecin.uw.gov.pl" />
    <tag k="website" v="www.pinb.koszalin.pl" />
    <tag k="source:office" v="Baza teleadresowa administracji zespolonej według stanu na 16.08.2021" />
    <tag k="office" v="government" />
    <tag k="government" v="building_control" />
    <tag k="short_name" v="PINB w Koszalinie" />
    <tag k="name" v="Powiatowy Inspektorat Nadzoru Budowlanego dla miasta na prawach powiatu" />
    <tag k="opening_hours" v="Mo-Fr 07:30-15:30; Sa,Su off; PH off"/>
  </node>
  <node id="10172575057" lat="51.5574384" lon="23.5535198" action="modify" version="3" timestamp="2023-01-25T18:58:56Z" changeset="131707476" uid="1479852" user="kubahahaha">
    <tag k="official_name" v="Powiatowy Inspektorat Nadzoru Budowlanego we Włodawie" />
    <tag k="phone" v="+48 82 572 58 98" />
    <tag k="fax" v="+48 82 545 10 19" />
    <tag k="email" v="pinb_w@op.pl" />
    <tag k="website" v="pinbwlodawa.pl" />
    <tag k="source:office" v="Baza teleadresowa administracji zespolonej według stanu na 16.08.2021" />
    <tag k="office" v="government" />
    <tag k="government" v="building_control" />
    <tag k="short_name" v="PINB we Włodawie" />
    <tag k="name" v="Powiatowy Inspektorat Nadzoru Budowlanego" />
  </node>
  <node id="10313998251" lat="51.3029682" lon="17.0695128" action="modify" version="3" timestamp="2023-01-25T19:06:31Z" changeset="131707669" uid="1479852" user="kubahahaha">
    <tag k="official_name" v="Powiatowy Inspektorat Nadzoru Budowlanego w Trzebnicy" />
    <tag k="phone" v="+48 71 387 95 70" />
    <tag k="email" v="pinb@powiat.trzebnica.pl" />
    <tag k="website" v="http://www.pinb.trzebnica.pl/" />
    <tag k="source:office" v="Baza teleadresowa administracji zespolonej według stanu na 16.08.2021" />
    <tag k="office" v="government" />
    <tag k="government" v="building_control" />
    <tag k="short_name" v="PINB w Trzebnicy" />
    <tag k="name" v="Powiatowy Inspektorat Nadzoru Budowlanego" />
  </node>
  <node id="10314036598" lat="51.1135093" lon="20.8582898" action="modify" version="3" timestamp="2023-01-25T19:14:18Z" changeset="131707957" uid="1479852" user="kubahahaha">
    <tag k="official_name" v="Powiatowy Inspektorat Nadzoru Budowlanego w Skarżysku-Kamiennej" />
    <tag k="phone" v="+48 41 252 31 65" />
    <tag k="fax" v="+48 41 252 31 65" />
    <tag k="email" v="pinb.skarzysko@neostrada.pl" />
    <tag k="website" v="www.powiat.skarzyski.lo.pl" />
    <tag k="source:office" v="Baza teleadresowa administracji zespolonej według stanu na 16.08.2021" />
    <tag k="office" v="government" />
    <tag k="government" v="building_control" />
    <tag k="short_name" v="PINB w Skarżysku-Kamiennej" />
    <tag k="name" v="Powiatowy Inspektorat Nadzoru Budowlanego" />
  </node>
  <node id="10314062291" lat="51.2984388" lon="22.8867542" action="modify" version="3" timestamp="2023-01-25T19:09:54Z" changeset="131707802" uid="1479852" user="kubahahaha">
    <tag k="official_name" v="Powiatowy Inspektorat Nadzoru Budowlanego w Łęcznej" />
    <tag k="phone" v="+48 81 752 32 33" />
    <tag k="fax" v="+48 81 752 32 33" />
    <tag k="email" v="pinb.leczna@neostrada.pl" />
    <tag k="website" v="https://pinbleczna.bip.gov.pl" />
    <tag k="source:office" v="Baza teleadresowa administracji zespolonej według stanu na 16.08.2021" />
    <tag k="office" v="government" />
    <tag k="government" v="building_control" />
    <tag k="short_name" v="PINB w Łęcznej" />
    <tag k="name" v="Powiatowy Inspektorat Nadzoru Budowlanego" />
  </node>
  <node id="10314071491" lat="51.2272143" lon="22.6990191" action="modify" version="3" timestamp="2023-01-25T19:09:45Z" changeset="131707800" uid="1479852" user="kubahahaha">
    <tag k="official_name" v="Powiatowy Inspektorat Nadzoru Budowlanego w Świdniku" />
    <tag k="phone" v="+48 81 468 70 78" />
    <tag k="fax" v="+48 81 468 70 78" />
    <tag k="email" v="pinb10@o2.pl" />
    <tag k="website" v="www.swidnik.pinb.pl" />
    <tag k="source:office" v="Baza teleadresowa administracji zespolonej według stanu na 16.08.2021" />
    <tag k="office" v="government" />
    <tag k="government" v="building_control" />
    <tag k="short_name" v="PINB w Świdniku" />
    <tag k="name" v="Powiatowy Inspektorat Nadzoru Budowlanego" />
  </node>
  <node id="10314072108" lat="50.4471390" lon="23.4151439" action="modify" version="3" timestamp="2023-01-25T19:13:23Z" changeset="131707924" uid="1479852" user="kubahahaha">
    <tag k="official_name" v="Powiatowy Inspektorat Nadzoru Budowlanego w Tomaszowie Lubelskim" />
    <tag k="phone" v="+48 84 664 31 90" />
    <tag k="fax" v="+48 84 664 31 90" />
    <tag k="email" v="pinb.tomaszow@wp.pl" />
    <tag k="website" v="www.pinb-tomaszow-lubelski.pl" />
    <tag k="source:office" v="Baza teleadresowa administracji zespolonej według stanu na 16.08.2021" />
    <tag k="office" v="government" />
    <tag k="government" v="building_control" />
    <tag k="short_name" v="PINB w Tomaszowie Lubelskim" />
    <tag k="name" v="Powiatowy Inspektorat Nadzoru Budowlanego" />
  </node>
  <node id="10314073466" lat="50.5284150" lon="22.7164484" action="modify" version="3" timestamp="2023-01-25T19:09:10Z" changeset="131707771" uid="1479852" user="kubahahaha">
    <tag k="official_name" v="Powiatowy Inspektorat Nadzoru Budowlanego w Biłgoraju" />
    <tag k="phone" v="+48 84 686 70 93" />
    <tag k="fax" v="+48 84 686 70 93" />
    <tag k="email" v="pinbbilgoraj@op.pl" />
    <tag k="website" v="http://pinbbilgoraj.nbip.pl" />
    <tag k="source:office" v="Baza teleadresowa administracji zespolonej według stanu na 16.08.2021" />
    <tag k="office" v="government" />
    <tag k="government" v="building_control" />
    <tag k="short_name" v="PINB w Biłgoraju" />
    <tag k="name" v="Powiatowy Inspektorat Nadzoru Budowlanego" />
  </node>
  <node id="10314073946" lat="51.2469304" lon="22.5538954" action="modify" version="3" timestamp="2023-01-25T19:07:23Z" changeset="131707696" uid="1479852" user="kubahahaha">
    <tag k="official_name" v="Powiatowy Inspektorat Nadzoru Budowlanego w Lublinie (powiat grodzki)" />
    <tag k="phone" v="+48 81 534 47 72" />
    <tag k="fax" v="+48 81 534 47 73" />
    <tag k="email" v="sekretariat@pinb.lublin.pl" />
    <tag k="website" v="www.pinb.lublin.pl" />
    <tag k="source:office" v="Baza teleadresowa administracji zespolonej według stanu na 16.08.2021" />
    <tag k="office" v="government" />
    <tag k="government" v="building_control" />
    <tag k="short_name" v="PINB w Lublinie (powiat grodzki)" />
    <tag k="name" v="Powiatowy Inspektorat Nadzoru Budowlanego" />
  </node>
  <node id="10314074302" lat="50.7168817" lon="23.2512312" action="modify" version="3" timestamp="2023-01-25T19:13:41Z" changeset="131707935" uid="1479852" user="kubahahaha">
    <tag k="official_name" v="Powiatowy Inspektorat Nadzoru Budowlanego w Zamościu (powiat grodzki)" />
    <tag k="phone" v="+48 84 639 28 22" />
    <tag k="fax" v="+48 84 639 28 22" />
    <tag k="email" v="pinb@pinb.zamosc.pl" />
    <tag k="website" v="https://bip.pinb.zamosc.pl" />
    <tag k="source:office" v="Baza teleadresowa administracji zespolonej według stanu na 16.08.2021" />
    <tag k="office" v="government" />
    <tag k="government" v="building_control" />
    <tag k="short_name" v="PINB w Zamościu (powiat grodzki)" />
    <tag k="name" v="Powiatowy Inspektorat Nadzoru Budowlanego" />
  </node>
  <node id="10314081095" lat="51.2470929" lon="22.5535534" action="modify" version="3" timestamp="2023-01-25T19:09:36Z" changeset="131707793" uid="1479852" user="kubahahaha">
    <tag k="official_name" v="Powiatowy Inspektorat Nadzoru Budowlanego w Lublinie (powiat ziemski)" />
    <tag k="phone" v="+48 81 532 29 49" />
    <tag k="email" v="biuro@pinbpowiat.lublin.pl" />
    <tag k="website" v="http://www.pinbpowiat.lublin.pl" />
    <tag k="source:office" v="Baza teleadresowa administracji zespolonej według stanu na 16.08.2021" />
    <tag k="office" v="government" />
    <tag k="government" v="building_control" />
    <tag k="short_name" v="PINB w Lublinie (powiat ziemski)" />
    <tag k="name" v="Powiatowy Inspektorat Nadzoru Budowlanego" />
    <tag k="addr:door" v="10"/>
    <tag k="addr:housenumber" v="3"/>
  </node>
  <node id="10314081965" lat="50.9823741" lon="23.1617723" action="modify" version="3" timestamp="2023-01-25T19:08:57Z" changeset="131707746" uid="1479852" user="kubahahaha">
    <tag k="official_name" v="Powiatowy Inspektorat Nadzoru Budowlanego w Krasnymstawie" />
    <tag k="phone" v="+48 82 576 66 43" />
    <tag k="fax" v="+48 17 0  " />
    <tag k="email" v="82 576 66 43" />
    <tag k="website" v="pinbkrasnystaw@onet.pl" />
    <tag k="source:office" v="Baza teleadresowa administracji zespolonej według stanu na 16.08.2021" />
    <tag k="office" v="government" />
    <tag k="government" v="building_control" />
    <tag k="short_name" v="PINB w Krasnymstawie" />
    <tag k="name" v="Powiatowy Inspektorat Nadzoru Budowlanego" />
  </node>
  <node id="10314082194" lat="51.9305959" lon="22.3787096" action="modify" version="3" timestamp="2023-01-25T19:10:19Z" changeset="131707821" uid="1479852" user="kubahahaha">
    <tag k="official_name" v="Powiatowy Inspektorat Nadzoru Budowlanego w Łukowie" />
    <tag k="phone" v="+48 25 798 97 41" />
    <tag k="fax" v="+48 25 798 97 41" />
    <tag k="email" v="pinblukow@wp.pl" />
    <tag k="website" v="www.pinb.lukow.pl" />
    <tag k="source:office" v="Baza teleadresowa administracji zespolonej według stanu na 16.08.2021" />
    <tag k="office" v="government" />
    <tag k="government" v="building_control" />
    <tag k="short_name" v="PINB w Łukowie" />
    <tag k="name" v="Powiatowy Inspektorat Nadzoru Budowlanego" />
  </node>
  <node id="10314082196" lat="52.1685982" lon="22.2763056" action="modify" version="3" timestamp="2023-01-25T19:10:30Z" changeset="131707828" uid="1479852" user="kubahahaha">
    <tag k="official_name" v="Powiatowy Inspektorat Nadzoru Budowlanego w Siedlcach" />
    <tag k="phone" v="+48 25 633 93 16" />
    <tag k="email" v="pinb@powiatsiedlecki.pl" />
    <tag k="website" v="https://pinbsiedlce.bip.gov.pl/" />
    <tag k="source:office" v="Baza teleadresowa administracji zespolonej według stanu na 16.08.2021" />
    <tag k="office" v="government" />
    <tag k="government" v="building_control" />
    <tag k="short_name" v="PINB w Siedlcach" />
    <tag k="name" v="Powiatowy Inspektorat Nadzoru Budowlanego" />
  </node>
  <node id="10314084534" lat="52.0352165" lon="23.1272356" action="modify" version="4" timestamp="2023-01-25T19:08:31Z" changeset="131707738" uid="1479852" user="kubahahaha">
    <tag k="official_name" v="Powiatowy Inspektorat Nadzoru Budowlanego w Białej Podlaskiej (powiat ziemski)" />
    <tag k="phone" v="+48 83 351 13 39" />
    <tag k="fax" v="+48 83 351 13 29" />
    <tag k="email" v="pinb_bp@poczta.onet.pl" />
    <tag k="website" v="pinbbialapodlaska.bip.lubelskie.pl" />
    <tag k="source:office" v="Baza teleadresowa administracji zespolonej według stanu na 16.08.2021" />
    <tag k="office" v="government" />
    <tag k="government" v="building_control" />
    <tag k="short_name" v="PINB w Białej Podlaskiej (powiat ziemski)" />
    <tag k="name" v="Powiatowy Inspektorat Nadzoru Budowlanego" />
  </node>
  <node id="10314087172" lat="50.7026546" lon="22.4187216" action="modify" version="3" timestamp="2023-01-25T19:09:28Z" changeset="131707788" uid="1479852" user="kubahahaha">
    <tag k="official_name" v="Powiatowy Inspektorat Nadzoru Budowlanego w Janowie Lubelskim" />
    <tag k="phone" v="+48 15 872 34 80" />
    <tag k="fax" v="+48 15 872 34 80" />
    <tag k="email" v="pinb_janow@wp.pl" />
    <tag k="website" v="www.pinb.powiatjanowski.pl" />
    <tag k="source:office" v="Baza teleadresowa administracji zespolonej według stanu na 16.08.2021" />
    <tag k="office" v="government" />
    <tag k="government" v="building_control" />
    <tag k="short_name" v="PINB w Janowie Lubelskim" />
    <tag k="name" v="Powiatowy Inspektorat Nadzoru Budowlanego" />
  </node>
  <node id="10314088219" lat="51.6245517" lon="21.9273157" action="modify" version="3" timestamp="2023-01-25T19:10:48Z" changeset="131707838" uid="1479852" user="kubahahaha">
    <tag k="official_name" v="Powiatowy Inspektorat Nadzoru Budowlanego w Rykach" />
    <tag k="phone" v="+48 81 865 32 11" />
    <tag k="fax" v="+48 81 865 32 11" />
    <tag k="email" v="pinbryki@wp.pl" />
    <tag k="website" v="pinbryki.wordpress.com" />
    <tag k="source:office" v="Baza teleadresowa administracji zespolonej według stanu na 16.08.2021" />
    <tag k="office" v="government" />
    <tag k="government" v="building_control" />
    <tag k="short_name" v="PINB w Rykach" />
    <tag k="name" v="Powiatowy Inspektorat Nadzoru Budowlanego" />
  </node>
  <node id="10314091827" lat="54.7198840" lon="18.4143698" action="modify" version="2" timestamp="2023-01-25T18:58:56Z" changeset="131707476" uid="1479852" user="kubahahaha">
    <tag k="official_name" v="Powiatowy Inspektorat Nadzoru Budowlanego w Pucku" />
    <tag k="phone" v="+48 58 673 42 12" />
    <tag k="fax" v="+48 58 673 42 12" />
    <tag k="email" v="pinb.puck@gda.winb.gov.pl" />
    <tag k="website" v="http://bip.puck.gda.winb.gov.pl/" />
    <tag k="source:office" v="Baza teleadresowa administracji zespolonej według stanu na 16.08.2021" />
    <tag k="office" v="government" />
    <tag k="government" v="building_control" />
    <tag k="short_name" v="PINB w Pucku" />
    <tag k="name" v="Powiatowy Inspektorat Nadzoru Budowlanego" />
  </node>
  <node id="10314097084" lat="51.4138017" lon="21.9631597" action="modify" version="3" timestamp="2023-01-25T19:10:57Z" changeset="131707841" uid="1479852" user="kubahahaha">
    <tag k="official_name" v="Powiatowy Inspektorat Nadzoru Budowlanego w Puławach" />
    <tag k="phone" v="+48 81 886 11 10" />
    <tag k="fax" v="+48 81 886 11 10" />
    <tag k="email" v="pinbpulawy@interia.eu" />
    <tag k="website" v="www.pulawy.powiat.pl" />
    <tag k="source:office" v="Baza teleadresowa administracji zespolonej według stanu na 16.08.2021" />
    <tag k="office" v="government" />
    <tag k="government" v="building_control" />
    <tag k="short_name" v="PINB w Puławach" />
    <tag k="name" v="Powiatowy Inspektorat Nadzoru Budowlanego" />
  </node>
  <node id="10314098686" lat="50.7155295" lon="23.2604898" action="modify" version="3" timestamp="2023-01-25T19:13:32Z" changeset="131707928" uid="1479852" user="kubahahaha">
    <tag k="official_name" v="Powiatowy Inspektorat Nadzoru Budowlanego w Zamościu (powiat ziemski)" />
    <tag k="phone" v="+48 84 627 28 41" />
    <tag k="fax" v="+48 84 627 28 41" />
    <tag k="email" v="pinbwzamosciu@op.pl" />
    <tag k="website" v="-" />
    <tag k="source:office" v="Baza teleadresowa administracji zespolonej według stanu na 16.08.2021" />
    <tag k="office" v="government" />
    <tag k="government" v="building_control" />
    <tag k="short_name" v="PINB w Zamościu (powiat ziemski)" />
    <tag k="name" v="Powiatowy Inspektorat Nadzoru Budowlanego" />
  </node>
  <node id="10314100212" lat="51.1330322" lon="23.4938844" action="modify" version="3" timestamp="2023-01-25T19:07:01Z" changeset="131707684" uid="1479852" user="kubahahaha">
    <tag k="official_name" v="Powiatowy Inspektorat Nadzoru Budowlanego w Chełmie (powiat grodzki)" />
    <tag k="phone" v="+48 82 562 75 81" />
    <tag k="fax" v="+48 82 562 75 81" />
    <tag k="email" v="pinb.miasta.chelma@poczta.fm" />
    <tag k="website" v="pinbmchelma.bip.gov.pl" />
    <tag k="source:office" v="Baza teleadresowa administracji zespolonej według stanu na 16.08.2021" />
    <tag k="office" v="government" />
    <tag k="government" v="building_control" />
    <tag k="short_name" v="PINB w Chełmie (powiat grodzki)" />
    <tag k="name" v="Powiatowy Inspektorat Nadzoru Budowlanego" />
  </node>
  <node id="10314105814" lat="54.6006517" lon="18.2216962" action="modify" version="2" timestamp="2023-01-25T18:58:56Z" changeset="131707476" uid="1479852" user="kubahahaha">
    <tag k="official_name" v="Powiatowy Inspektorat Nadzoru Budowlanego w Wejherowie" />
    <tag k="phone" v="+48 58 672 21 70" />
    <tag k="fax" v="+48 58 672 95 68" />
    <tag k="email" v="pinb@wejherowo.gda.winb.gov.pl" />
    <tag k="website" v="http://wejherowo.gda.winb.gov.pl" />
    <tag k="source:office" v="Baza teleadresowa administracji zespolonej według stanu na 16.08.2021" />
    <tag k="office" v="government" />
    <tag k="government" v="building_control" />
    <tag k="short_name" v="PINB w Wejherowie" />
    <tag k="name" v="Powiatowy Inspektorat Nadzoru Budowlanego" />
  </node>
  <node id="10541939102" lat="49.6923282" lon="22.0088737" action="modify" version="3" timestamp="2023-01-25T19:06:42Z" changeset="131707675" uid="1479852" user="kubahahaha">
    <tag k="official_name" v="Powiatowy Inspektorat Nadzoru Budowlanego w Brzozowie" />
    <tag k="phone" v="+48 13 434 22 83" />
    <tag k="fax" v="+48 13 434 22 83" />
    <tag k="email" v="pinb.brzozow@op.pl" />
    <tag k="website" v="http://www.pinb-brzozow.internetdsl.pl/" />
    <tag k="source:office" v="Baza teleadresowa administracji zespolonej według stanu na 16.08.2021" />
    <tag k="office" v="government" />
    <tag k="government" v="building_control" />
    <tag k="short_name" v="PINB w Brzozowie" />
    <tag k="name" v="Powiatowy Inspektorat Nadzoru Budowlanego" />
  </node>
  <node id="10541969059" lat="49.4330809" lon="22.5861265" action="modify" version="4" timestamp="2023-01-25T19:07:38Z" changeset="131707712" uid="1479852" user="kubahahaha">
    <tag k="official_name" v="Powiatowy Inspektorat Nadzoru Budowlanego w Ustrzykach Dolnych" />
    <tag k="phone" v="+48 13 471 16 76" />
    <tag k="fax" v="+48 13 471 16 75" />
    <tag k="email" v="ustrzykidolne@pinb.info.pl" />
    <tag k="website" v="http://ustrzykidolne.pinb.pl/" />
    <tag k="source:office" v="Baza teleadresowa administracji zespolonej według stanu na 16.08.2021" />
    <tag k="office" v="government" />
    <tag k="government" v="building_control" />
    <tag k="short_name" v="PINB w Ustrzykach Dolnych" />
    <tag k="name" v="Powiatowy Inspektorat Nadzoru Budowlanego" />
  </node>
  <node id="10541972514" lat="49.4709501" lon="22.3295236" action="modify" version="3" timestamp="2023-01-25T19:13:16Z" changeset="131707920" uid="1479852" user="kubahahaha">
    <tag k="official_name" v="Powiatowy Inspektorat Nadzoru Budowlanego w Lesku" />
    <tag k="phone" v="+48 13 469 71 48" />
    <tag k="fax" v="+48 13 492 72 77" />
    <tag k="email" v="pinblesko@op.pl" />
    <tag k="website" v="pinb@powiat-leski.pl" />
    <tag k="source:office" v="Baza teleadresowa administracji zespolonej według stanu na 16.08.2021" />
    <tag k="office" v="government" />
    <tag k="government" v="building_control" />
    <tag k="short_name" v="PINB w Lesku" />
    <tag k="name" v="Powiatowy Inspektorat Nadzoru Budowlanego" />
  </node>
  <node id="10541977442" lat="49.8695634" lon="21.7886219" action="modify" version="3" timestamp="2023-01-25T19:12:23Z" changeset="131707889" uid="1479852" user="kubahahaha">
    <tag k="official_name" v="Powiatowy Inspektorat Nadzoru Budowlanego w Strzyżowie" />
    <tag k="phone" v="+48 17 276 03 80" />
    <tag k="fax" v="+48 17 276 03 80" />
    <tag k="email" v="pinbstrzyzow@op.pl" />
    <tag k="website" v="http://strzyzow.pinb.pl/" />
    <tag k="source:office" v="Baza teleadresowa administracji zespolonej według stanu na 16.08.2021" />
    <tag k="office" v="government" />
    <tag k="government" v="building_control" />
    <tag k="short_name" v="PINB w Strzyżowie" />
    <tag k="name" v="Powiatowy Inspektorat Nadzoru Budowlanego" />
  </node>
  <node id="10541977443" lat="50.2463136" lon="21.7826237" action="modify" version="3" timestamp="2023-01-25T19:11:27Z" changeset="131707862" uid="1479852" user="kubahahaha">
    <tag k="official_name" v="Powiatowy Inspektorat Nadzoru Budowlanego w Kolbuszowej" />
    <tag k="phone" v="+48 17 227 58 20" />
    <tag k="fax" v="+48 17 227 57 21" />
    <tag k="email" v="pinb.kolbuszowa@interia.pl" />
    <tag k="website" v="http://bip.powiat.kolbuszowa.pl/bip_kolbuszowa/index.jsp?place=menu02&amp;news_cat_id=21&amp;layout=1&amp;page=0" />
    <tag k="source:office" v="Baza teleadresowa administracji zespolonej według stanu na 16.08.2021" />
    <tag k="office" v="government" />
    <tag k="government" v="building_control" />
    <tag k="short_name" v="PINB w Kolbuszowej" />
    <tag k="name" v="Powiatowy Inspektorat Nadzoru Budowlanego" />
  </node>
  <node id="10541978241" lat="50.0523793" lon="21.6162271" action="modify" version="3" timestamp="2023-01-25T19:06:17Z" changeset="131707656" uid="1479852" user="kubahahaha">
    <tag k="official_name" v="Powiatowy Inspektorat Nadzoru Budowlanego w Ropczycach" />
    <tag k="phone" v="+48 17 222 89 41" />
    <tag k="fax" v="+48 17 222 89 40" />
    <tag k="email" v="pinb@spropczyce.pl" />
    <tag k="website" v="http://bip.spropczyce.pl/" />
    <tag k="source:office" v="Baza teleadresowa administracji zespolonej według stanu na 16.08.2021" />
    <tag k="office" v="government" />
    <tag k="government" v="building_control" />
    <tag k="short_name" v="PINB w Ropczycach" />
    <tag k="name" v="Powiatowy Inspektorat Nadzoru Budowlanego" />
  </node>
  <node id="10541982629" lat="53.2671106" lon="16.4614457" action="modify" version="2" timestamp="2023-01-25T18:58:56Z" changeset="131707476" uid="1479852" user="kubahahaha">
    <tag k="official_name" v="Powiatowy Inspektorat Nadzoru Budowlanego w Wałczu" />
    <tag k="phone" v="+48 67 352 35 16" />
    <tag k="email" v="pinbwalcz@wp.pl" />
    <tag k="website" v="bip.pinb.powiatwalecki.pl" />
    <tag k="source:office" v="Baza teleadresowa administracji zespolonej według stanu na 16.08.2021" />
    <tag k="office" v="government" />
    <tag k="government" v="building_control" />
    <tag k="short_name" v="PINB w Wałczu" />
    <tag k="name" v="Powiatowy Inspektorat Nadzoru Budowlanego" />
  </node>
  <node id="10541987897" lat="49.6788955" lon="21.7748356" action="modify" version="4" timestamp="2023-01-25T19:12:35Z" changeset="131707894" uid="1479852" user="kubahahaha">
    <tag k="official_name" v="Powiatowy Inspektorat Nadzoru Budowlanego w Krośnie" />
    <tag k="phone" v="+48 13 437 57 82" />
    <tag k="fax" v="+48 13 437 57 82" />
    <tag k="email" v="pinbkrosno@op.pl" />
    <tag k="website" v="http://bip.zetorzeszow.pl/pinbkrosno/" />
    <tag k="source:office" v="Baza teleadresowa administracji zespolonej według stanu na 16.08.2021" />
    <tag k="office" v="government" />
    <tag k="government" v="building_control" />
    <tag k="short_name" v="PINB w Krośnie" />
    <tag k="name" v="Powiatowy Inspektorat Nadzoru Budowlanego" />
  </node>
  <node id="10541989744" lat="50.0470362" lon="21.4024646" action="modify" version="3" timestamp="2023-01-25T19:07:13Z" changeset="131707692" uid="1479852" user="kubahahaha">
    <tag k="official_name" v="Powiatowy Inspektorat Nadzoru Budowlanego w Dębicy" />
    <tag k="phone" v="+48 14 683 40 30" />
    <tag k="fax" v="+48 14 683 40 30" />
    <tag k="email" v="pinbdebica@interia.pl" />
    <tag k="website" v="http://www.pinbdebica.pl/" />
    <tag k="source:office" v="Baza teleadresowa administracji zespolonej według stanu na 16.08.2021" />
    <tag k="office" v="government" />
    <tag k="government" v="building_control" />
    <tag k="short_name" v="PINB w Dębicy" />
    <tag k="name" v="Powiatowy Inspektorat Nadzoru Budowlanego" />
  </node>
  <node id="10541991711" lat="49.6787863" lon="21.7749164" action="modify" version="3" timestamp="2023-01-25T19:08:00Z" changeset="131707721" uid="1479852" user="kubahahaha">
    <tag k="official_name" v="Powiatowy Inspektorat Nadzoru Budowlanego dla miasta Krosno" />
    <tag k="phone" v="+48 13 420 20 50" />
    <tag k="fax" v="+48 13 420 20 50" />
    <tag k="email" v="pinbkrosno@gmail.com" />
    <tag k="website" v="http://pinb.umkrosno.pl/" />
    <tag k="source:office" v="Baza teleadresowa administracji zespolonej według stanu na 16.08.2021" />
    <tag k="office" v="government" />
    <tag k="government" v="building_control" />
    <tag k="short_name" v="PINB dla miasta Krosno" />
    <tag k="name" v="Powiatowy Inspektorat Nadzoru Budowlanego" />
  </node>
  <node id="10541994168" lat="50.0412826" lon="22.0098801" action="modify" version="3" timestamp="2023-01-25T19:11:54Z" changeset="131707874" uid="1479852" user="kubahahaha">
    <tag k="official_name" v="Powiatowy Inspektorat Nadzoru Budowlanego w Rzeszowie" />
    <tag k="phone" v="+48 17 862 62 68" />
    <tag k="fax" v="+48 17 862 62 17" />
    <tag k="email" v="pinb@powiat.rzeszow.pl" />
    <tag k="website" v="https://bip.powiat.rzeszow.pl/?c=mdtresc-cmpokaz-1738#powiatowy%20inspektorat%20nadzoru%20budowlanego%20w%20rzeszowie" />
    <tag k="source:office" v="Baza teleadresowa administracji zespolonej według stanu na 16.08.2021" />
    <tag k="office" v="government" />
    <tag k="government" v="building_control" />
    <tag k="short_name" v="PINB w Rzeszowie" />
    <tag k="name" v="Powiatowy Inspektorat Nadzoru Budowlanego" />
  </node>
  <node id="10582455212" lat="51.2506414" lon="22.5524123" action="modify" version="1" timestamp="2023-01-25T19:16:08Z" changeset="131708022" uid="1479852" user="kubahahaha">
    <tag k="official_name" v="Wojewódzki Inspektorat Nadzoru Budowlanego w Lublinie" />
    <tag k="phone" v="+48 81 534 71 84" />
    <tag k="fax" v="+48 81 534 71 98" />
    <tag k="email" v="sekretariat@lublin.winb.gov.pl" />
    <tag k="website" v="www.lublin.winb.gov.pl" />
    <tag k="source:office" v="Baza teleadresowa administracji zespolonej według stanu na 16.08.2021" />
    <tag k="office" v="government" />
    <tag k="government" v="building_control" />
    <tag k="name" v="Wojewódzki Inspektorat Nadzoru Budowlanego" />
  </node>
  <way id="97974756" action="modify" version="7" timestamp="2023-01-25T18:58:56Z" changeset="131707476" uid="1479852" user="kubahahaha">
    <tag k="phone" v="+48 25 794 39 70" />
    <tag k="fax" v="+48 25 794 39 76" />
    <tag k="email" v="kancelaria@pinb.siedlce.pl" />
    <tag k="website" v="https://pinbmiastasiedlce.bip.gov.pl" />
    <tag k="source:office" v="Baza teleadresowa administracji zespolonej według stanu na 16.08.2021" />
    <tag k="office" v="government" />
    <tag k="government" v="building_control" />
    <tag k="name" v="Powiatowy Inspektorat Nadzoru Budowlanego Miasta Siedlce" />
    <nd ref="1133573763"/>
    <nd ref="1133897958"/>
    <nd ref="1133897964"/>
    <nd ref="1133897966"/>
    <nd ref="1133897976"/>
    <nd ref="1133897974"/>
    <nd ref="1133897970"/>
    <nd ref="1133897947"/>
    <nd ref="1133573763"/>
    <tag k="building" v="office"/>
    <tag k="building:fireproof" v="yes"/>
    <tag k="building:levels" v="4"/>
  </way>
  <way id="132507265" action="modify" version="12" timestamp="2023-01-25T19:12:11Z" changeset="131707882" uid="1479852" user="kubahahaha">
    <tag k="official_name" v="Powiatowy Inspektorat Nadzoru Budowlanego w Łańcucie" />
    <tag k="phone" v="+48 17 225 69 67" />
    <tag k="fax" v="+48 17 225 69 67" />
    <tag k="email" v="pinb lancut@o2.pl" />
    <tag k="website" v="https://pinblancut.bip.gov.pl/" />
    <tag k="source:office" v="Baza teleadresowa administracji zespolonej według stanu na 16.08.2021" />
    <tag k="office" v="government" />
    <tag k="government" v="building_control" />
    <tag k="short_name" v="PINB w Łańcucie" />
    <tag k="name" v="Powiatowy Inspektorat Nadzoru Budowlanego" />
    <nd ref="1457479919"/>
    <nd ref="3545681065"/>
    <nd ref="566498515"/>
    <nd ref="566498510"/>
    <nd ref="1457479829"/>
    <nd ref="2012100447"/>
    <nd ref="1457479919"/>
    <tag k="building" v="office"/>
    <tag k="building:levels" v="2"/>
    <tag k="heritage" v="2"/>
    <tag k="ref:nid" v="A-1283; A-940"/>
    <tag k="start_date" v="1800"/>
  </way>
  <way id="194427949" action="modify" version="10" timestamp="2022-10-29T17:09:58Z" changeset="128219979" uid="3199858" user="Mateusz Konieczny - bot account">
    <tag k="official_name" v="Powiatowy Inspektorat Nadzoru Budowlanego w Lwówku Śląskim" />
    <tag k="phone" v="+48 75 782 28 23" />
    <tag k="fax" v="+48 75 782 28 23" />
    <tag k="email" v="lwowekslaski@winb.wroc.pl" />
    <tag k="website" v="www.pinb.powiatlwowecki.pl" />
    <tag k="source:office" v="Baza teleadresowa administracji zespolonej według stanu na 16.08.2021" />
    <tag k="office" v="government" />
    <tag k="government" v="building_control" />
    <tag k="short_name" v="PINB w Lwówku Śląskim" />
    <tag k="name" v="Powiatowy Inspektorat Nadzoru Budowlanego" />
    <nd ref="2049300625"/>
    <nd ref="2049300628"/>
    <nd ref="5726946163"/>
    <nd ref="2049300604"/>
    <nd ref="2049300572"/>
    <nd ref="2049300563"/>
    <nd ref="2049300581"/>
    <nd ref="2049300625"/>
    <tag k="building" v="yes"/>
    <tag k="building:colour" v="brown"/>
    <tag k="opening_hours" v="Mo-Fr 09:00-17:00"/>
    <tag k="roof:colour" v="grey"/>
    <tag k="roof:shape" v="gabled"/>
    <tag k="source:addr" v="lwowekslaski.e-mapa.net"/>
    <tag k="source:geometry" v="geoportal.gov.pl:ortofoto"/>
  </way>
  <way id="199832370" action="modify" version="9" timestamp="2023-01-25T19:08:17Z" changeset="131707727" uid="1479852" user="kubahahaha">
    <tag k="official_name" v="Wojewódzki Inspektorat Nadzoru Budowlanego w Rzeszowie" />
    <tag k="phone" v="+48 17 852 78 29" />
    <tag k="fax" v="+48 17 862 33 22" />
    <tag k="email" v="biuro@winb.rzeszow.pl" />
    <tag k="website" v="http://www.winb.rzeszow.pl/" />
    <tag k="source:office" v="Baza teleadresowa administracji zespolonej według stanu na 16.08.2021" />
    <tag k="office" v="government" />
    <tag k="government" v="building_control" />
    <tag k="name" v="Wojewódzki Inspektorat Nadzoru Budowlanego" />
    <nd ref="2098296807"/>
    <nd ref="2098296808"/>
    <nd ref="2098296806"/>
    <nd ref="2098296846"/>
    <nd ref="2098343349"/>
    <nd ref="2098343365"/>
    <nd ref="2098296947"/>
    <nd ref="2098296910"/>
    <nd ref="2098296920"/>
    <nd ref="2098296913"/>
    <nd ref="2098296894"/>
    <nd ref="2098296869"/>
    <nd ref="2098296862"/>
    <nd ref="2098296860"/>
    <nd ref="2098296807"/>
    <tag k="building" v="apartments"/>
    <tag k="building:levels" v="2"/>
    <tag k="heritage" v="2"/>
    <tag k="ref:nid" v="A-1097; A-1002"/>
    <tag k="start_date" v="before 1900"/>
  </way>
  <way id="209412521" action="modify" version="5" timestamp="2023-01-25T18:58:56Z" changeset="131707476" uid="1479852" user="kubahahaha">
    <tag k="official_name" v="Powiatowy Inspektorat Nadzoru Budowlanego w Otwocku" />
    <tag k="phone" v="+48 22 788 90 13" />
    <tag k="fax" v="+48 22 788 90 13" />
    <tag k="email" v="sekretariat@pinbotwock.pl" />
    <tag k="website" v="www.pinbotwock.pl" />
    <tag k="source:office" v="Baza teleadresowa administracji zespolonej według stanu na 16.08.2021" />
    <tag k="office" v="government" />
    <tag k="government" v="building_control" />
    <tag k="short_name" v="PINB w Otwocku" />
    <tag k="name" v="Powiatowy Inspektorat Nadzoru Budowlanego" />
    <nd ref="2196300129"/>
    <nd ref="2196300125"/>
    <nd ref="2196300127"/>
    <nd ref="2196300132"/>
    <nd ref="2196300129"/>
    <tag k="building" v="public"/>
    <tag k="source:addr" v="UM Otwock"/>
  </way>
  <way id="220402788" action="modify" version="6" timestamp="2020-07-02T20:42:27Z" changeset="87470354" uid="594456" user="Michoo">
    <tag k="official_name" v="Wojewódzki Inspektorat Nadzoru Budowlanego w Białymstoku" />
    <tag k="phone" v="+48 85 748 12 70" />
    <tag k="email" v="sekretariat@winb.bialystok.pl" />
    <tag k="website" v="http://www.winb.bialystok.pl/" />
    <tag k="source:office" v="Baza teleadresowa administracji zespolonej według stanu na 16.08.2021" />
    <tag k="office" v="government" />
    <tag k="government" v="building_control" />
    <tag k="name" v="Wojewódzki Inspektorat Nadzoru Budowlanego" />
    <nd ref="4219940739"/>
    <nd ref="4219940740"/>
    <nd ref="4219940742"/>
    <nd ref="4219940741"/>
    <nd ref="4219940743"/>
    <nd ref="4219940733"/>
    <nd ref="4219940728"/>
    <nd ref="4219940736"/>
    <nd ref="4219940739"/>
    <tag k="building" v="yes"/>
  </way>
  <way id="237111271" action="modify" version="7" timestamp="2023-01-25T18:58:56Z" changeset="131707476" uid="1479852" user="kubahahaha">
    <tag k="official_name" v="Powiatowy Inspektorat Nadzoru Budowlanego dla miasta Przemyśl" />
    <tag k="phone" v="+48 16 678 91 61" />
    <tag k="fax" v="+48 16 678 91 61" />
    <tag k="email" v="pinb@mprzemysl.pl" />
    <tag k="website" v="http://www.pinb.mprzemysl.pl/" />
    <tag k="source:office" v="Baza teleadresowa administracji zespolonej według stanu na 16.08.2021" />
    <tag k="office" v="government" />
    <tag k="government" v="building_control" />
    <tag k="short_name" v="PINB dla miasta Przemyśl" />
    <tag k="name" v="Powiatowy Inspektorat Nadzoru Budowlanego" />
    <nd ref="4023984011"/>
    <nd ref="4023983984"/>
    <nd ref="4023983998"/>
    <nd ref="4023984012"/>
    <nd ref="4023984014"/>
    <nd ref="4023984033"/>
    <nd ref="4023984026"/>
    <nd ref="4023984011"/>
    <tag k="building" v="yes"/>
    <tag k="building:levels" v="2"/>
  </way>
  <way id="276842205" action="modify" version="5" timestamp="2023-01-25T19:12:53Z" changeset="131707909" uid="1479852" user="kubahahaha">
    <tag k="official_name" v="Powiatowy Inspektorat Nadzoru Budowlanego w Sanoku" />
    <tag k="phone" v="+48 13 464 19 72" />
    <tag k="fax" v="+48 13 464 19 72" />
    <tag k="email" v="sekretariat@pinb.sanok.pl" />
    <tag k="website" v="http://pinb.sanok.pl/" />
    <tag k="source:office" v="Baza teleadresowa administracji zespolonej według stanu na 16.08.2021" />
    <tag k="office" v="government" />
    <tag k="government" v="building_control" />
    <tag k="short_name" v="PINB w Sanoku" />
    <tag k="name" v="Powiatowy Inspektorat Nadzoru Budowlanego" />
    <nd ref="2814185334"/>
    <nd ref="2814185324"/>
    <nd ref="2814185322"/>
    <nd ref="2814185315"/>
    <nd ref="2814185317"/>
    <nd ref="2814185308"/>
    <nd ref="2814185304"/>
    <nd ref="2814185314"/>
    <nd ref="2814185310"/>
    <nd ref="2814185318"/>
    <nd ref="2814185320"/>
    <nd ref="2814185329"/>
    <nd ref="2814185331"/>
    <nd ref="2814185332"/>
    <nd ref="2814185334"/>
    <tag k="building" v="yes"/>
  </way>
  <way id="358721964" action="modify" version="4" timestamp="2023-01-25T19:11:05Z" changeset="131707848" uid="1479852" user="kubahahaha">
    <tag k="official_name" v="Powiatowy Inspektorat Nadzoru Budowlanego w Opolu Lubelskim" />
    <tag k="phone" v="+48 81 827 27 32" />
    <tag k="fax" v="+48 81 827 27 32" />
    <tag k="email" v="pinbopole@op.pl" />
    <tag k="website" v="www.pinbopolelub.e-bip.org.pl" />
    <tag k="source:office" v="Baza teleadresowa administracji zespolonej według stanu na 16.08.2021" />
    <tag k="office" v="government" />
    <tag k="government" v="building_control" />
    <tag k="short_name" v="PINB w Opolu Lubelskim" />
    <tag k="name" v="Powiatowy Inspektorat Nadzoru Budowlanego" />
    <nd ref="3636065310"/>
    <nd ref="3636062969"/>
    <nd ref="3636064994"/>
    <nd ref="3636062972"/>
    <nd ref="3636065310"/>
    <tag k="building" v="yes"/>
    <tag k="source:addr" v="EMUi@iMPA (opolelubelskie.e-mapa.net)"/>
  </way>
  <way id="359321971" action="modify" version="4" timestamp="2023-01-25T19:10:04Z" changeset="131707808" uid="1479852" user="kubahahaha">
    <tag k="official_name" v="Powiatowy Inspektorat Nadzoru Budowlanego w Lubartowie" />
    <tag k="phone" v="+48 81 854 54 45" />
    <tag k="fax" v="+48 81 855 30 11" />
    <tag k="email" v="pinb.lubartow@poczta.fm" />
    <tag k="website" v="http://pinb.powiatlubartowski.pl" />
    <tag k="source:office" v="Baza teleadresowa administracji zespolonej według stanu na 16.08.2021" />
    <tag k="office" v="government" />
    <tag k="government" v="building_control" />
    <tag k="short_name" v="PINB w Lubartowie" />
    <tag k="name" v="Powiatowy Inspektorat Nadzoru Budowlanego" />
    <nd ref="3640622046"/>
    <nd ref="3640620948"/>
    <nd ref="3640587672"/>
    <nd ref="3640624973"/>
    <nd ref="3640622999"/>
    <nd ref="3640623102"/>
    <nd ref="3640622399"/>
    <nd ref="3640625636"/>
    <nd ref="3640626137"/>
    <nd ref="3640623104"/>
    <nd ref="3640597942"/>
    <nd ref="3640624066"/>
    <nd ref="3640622046"/>
    <tag k="building" v="office"/>
    <tag k="source:addr" v="gugik.gov.pl"/>
  </way>
  <way id="365479845" action="modify" version="7" timestamp="2023-01-25T19:10:11Z" changeset="131707813" uid="1479852" user="kubahahaha">
    <tag k="official_name" v="Powiatowy Inspektorat Nadzoru Budowlanego w Radzyniu Podlaskim" />
    <tag k="phone" v="+48 83 352 74 15" />
    <tag k="email" v="pinbradzyn@pra.pl" />
    <tag k="website" v="www.pinbradzyn.bip.lubelskie.pl" />
    <tag k="source:office" v="Baza teleadresowa administracji zespolonej według stanu na 16.08.2021" />
    <tag k="office" v="government" />
    <tag k="government" v="building_control" />
    <tag k="short_name" v="PINB w Radzyniu Podlaskim" />
    <tag k="name" v="Powiatowy Inspektorat Nadzoru Budowlanego" />
    <nd ref="3694880686"/>
    <nd ref="3694880719"/>
    <nd ref="3694880683"/>
    <nd ref="3694880711"/>
    <nd ref="5217096336"/>
    <nd ref="5217096335"/>
    <nd ref="5217096334"/>
    <nd ref="5217096333"/>
    <nd ref="3694894430"/>
    <nd ref="3694894432"/>
    <nd ref="3694880686"/>
    <tag k="building" v="office"/>
    <tag k="source:addr" v="emuia.gugik.gov.pl"/>
  </way>
  <way id="367020141" action="modify" version="5" timestamp="2023-01-25T19:13:52Z" changeset="131707940" uid="1479852" user="kubahahaha">
    <tag k="official_name" v="Powiatowy Inspektorat Nadzoru Budowlanego w Hrubieszowie" />
    <tag k="phone" v="+48 84 696 29 04" />
    <tag k="fax" v="+48 84 696 29 04" />
    <tag k="email" v="pinb.hrub@op.pl" />
    <tag k="website" v="-" />
    <tag k="source:office" v="Baza teleadresowa administracji zespolonej według stanu na 16.08.2021" />
    <tag k="office" v="government" />
    <tag k="government" v="building_control" />
    <tag k="short_name" v="PINB w Hrubieszowie" />
    <tag k="name" v="Powiatowy Inspektorat Nadzoru Budowlanego" />
    <nd ref="3709952726"/>
    <nd ref="3709951070"/>
    <nd ref="3709950260"/>
    <nd ref="3709950119"/>
    <nd ref="3709950278"/>
    <nd ref="3709952433"/>
    <nd ref="3709952331"/>
    <nd ref="3709952726"/>
    <tag k="building" v="yes"/>
    <tag k="source:addr" v="EMUiA (emuia.geoportal.gov.pl)"/>
  </way>
  <way id="405609369" action="modify" version="4" timestamp="2023-01-25T19:12:42Z" changeset="131707899" uid="1479852" user="kubahahaha">
    <tag k="official_name" v="Powiatowy Inspektorat Nadzoru Budowlanego w Jaśle" />
    <tag k="phone" v="+48 13 448 20 76" />
    <tag k="fax" v="+48 13 448 20 76" />
    <tag k="email" v="jaslopinb@wp.pl" />
    <tag k="website" v="http://pinb-jaslo.bip.gov.pl/" />
    <tag k="source:office" v="Baza teleadresowa administracji zespolonej według stanu na 16.08.2021" />
    <tag k="office" v="government" />
    <tag k="government" v="building_control" />
    <tag k="short_name" v="PINB w Jaśle" />
    <tag k="name" v="Powiatowy Inspektorat Nadzoru Budowlanego" />
    <nd ref="4077794445"/>
    <nd ref="4077794431"/>
    <nd ref="4077794432"/>
    <nd ref="4077794421"/>
    <nd ref="4077794420"/>
    <nd ref="4077794387"/>
    <nd ref="4077794392"/>
    <nd ref="4077794434"/>
    <nd ref="4077794433"/>
    <nd ref="4077794447"/>
    <nd ref="4077794445"/>
    <tag k="building" v="yes"/>
  </way>
  <way id="700727246" action="modify" version="5" timestamp="2023-01-25T18:58:56Z" changeset="131707476" uid="1479852" user="kubahahaha">
    <tag k="official_name" v="Powiatowy Inspektorat Nadzoru Budowlanego w Mławie" />
    <tag k="phone" v="+48 23 655 29 11" />
    <tag k="fax" v="+48 23 655 29 11" />
    <tag k="email" v="pinb.mlawa@op.pl" />
    <tag k="website" v="www.pinbmlawa.pl" />
    <tag k="source:office" v="Baza teleadresowa administracji zespolonej według stanu na 16.08.2021" />
    <tag k="office" v="government" />
    <tag k="government" v="building_control" />
    <tag k="short_name" v="PINB w Mławie" />
    <tag k="name" v="Powiatowy Inspektorat Nadzoru Budowlanego" />
    <nd ref="6580437144"/>
    <nd ref="6580437132"/>
    <nd ref="6580437129"/>
    <nd ref="6580437143"/>
    <nd ref="6580437142"/>
    <nd ref="6580437141"/>
    <nd ref="6580437140"/>
    <nd ref="6580437139"/>
    <nd ref="6580437138"/>
    <nd ref="6580437137"/>
    <nd ref="6580437133"/>
    <nd ref="6580437144"/>
    <tag k="building" v="yes"/>
  </way>
</osm>