{
  "version": 0.6,
  "generator": "Overpass API 0.7.62.4 2390de5a",
  "osm3s": {
    "timestamp_osm_base": "2024-11-27T18:29:27Z",
    "timestamp_areas_base": "2024-11-27T16:03:35Z",
    "copyright": "The data included in this document is from www.openstreetmap.org. The data is made available under ODbL."
  },
  "elements": [

{
  "type": "node",
  "id": 2779715009,
  "lat": 53.1226463,
  "lon": 18.1288466,
  "timestamp": "2018-05-08T22:02:23Z",
  "version": 2,
  "changeset": 58802241,
  "user": "Marcin Jacewicz",
  "uid": 8212595,
  "tags": {
    "addr:city": "Bydgoszcz",
    "addr:housenumber": "82",
    "addr:postcode": "85-776",
    "addr:street": "Łowicka",
    "government": "public_service",
    "name": "Nadzór Wodny Bydgoszcz RZGW Gdańsk PGW Wody Polskie",
    "office": "government",
    "opening_hours": "Mo-Fr 07:00-15:00",
    "source:addr": "EMUiA (emuia.gugik.gov.pl)"
  }
},
{
  "type": "node",
  "id": 3878974164,
  "lat": 51.1282785,
  "lon": 17.0808915,
  "timestamp": "2015-12-05T21:27:33Z",
  "version": 1,
  "changeset": 35776614,
  "user": "Ancymon",
  "uid": 1593161,
  "tags": {
    "contact:phone": "+48713294177",
    "full_name": "Nadzór Wodny we Wrocławiu",
    "name": "Nadzór Wodny",
    "office": "government"
  }
},
{
  "type": "node",
  "id": 3878974165,
  "lat": 51.1282894,
  "lon": 17.0805659,
  "timestamp": "2015-12-05T21:27:33Z",
  "version": 1,
  "changeset": 35776614,
  "user": "Ancymon",
  "uid": 1593161,
  "tags": {
    "contact:phone": "+48713240963",
    "full_name": "Zarząd Zlewni Środkowej Odry z siedzibą we Wrocławiu",
    "name": "Zarząd Zlewni Środkowej Odry",
    "office": "government"
  }
},
{
  "type": "node",
  "id": 5594643921,
  "lat": 54.3488457,
  "lon": 18.6406519,
  "timestamp": "2018-05-14T16:05:38Z",
  "version": 2,
  "changeset": 58957541,
  "user": "kukułka",
  "uid": 2757838,
  "tags": {
    "addr:city": "Gdańsk",
    "addr:housenumber": "9/19",
    "addr:postcode": "80-804",
    "addr:street": "Księdza Franciszka Rogaczewskiego",
    "government": "administrative",
    "name": "Państwowe Gospodarstwo Wodne Wody Polskie Regionalny Zarząd Gospodarki Wodnej w Gdańsku",
    "office": "government",
    "opening_hours": "Mo-Fr 07:00-15:00",
    "website": "http://www.rzgw.gda.pl/"
  }
},
{
  "type": "node",
  "id": 5605459086,
  "lat": 53.6861825,
  "lon": 17.5713989,
  "timestamp": "2018-05-08T22:58:15Z",
  "version": 3,
  "changeset": 58803007,
  "user": "Jerry_W2k",
  "uid": 4732840,
  "tags": {
    "addr:city": "Chojnice",
    "addr:housenumber": "1",
    "addr:postcode": "89-600",
    "addr:street": "Łużycka",
    "government": "public_service",
    "name": "Zarząd Zlewni Chojnice RZGW Gdańsk PGW Wody Polskie",
    "office": "government"
  }
},
{
  "type": "node",
  "id": 5605494299,
  "lat": 53.4009596,
  "lon": 18.4058739,
  "timestamp": "2022-01-27T12:35:04Z",
  "version": 3,
  "changeset": 116664882,
  "user": "szydzio-imports",
  "uid": 10284193,
  "tags": {
    "addr:city": "Świecie",
    "addr:city:simc": "0929664",
    "addr:housenumber": "2",
    "addr:postcode": "86-105",
    "addr:street": "Fabryczna",
    "description": "Nadzór Wodny Świecie RZGW Gdańsk PGW Wody Polskie",
    "government": "public_service",
    "name": "Nadzór Wodny Świecie RZGW Gdańsk PGW Wody Polskie",
    "office": "government",
    "opening_hours": "Mo-Fr 07:00-15:00"
  }
},
{
  "type": "node",
  "id": 5605578496,
  "lat": 54.3921603,
  "lon": 18.6451243,
  "timestamp": "2019-08-04T17:06:13Z",
  "version": 3,
  "changeset": 72994243,
  "user": "kukułka",
  "uid": 2757838,
  "tags": {
    "addr:city": "Gdańsk",
    "addr:housenumber": "12",
    "addr:postcode": "80-531",
    "addr:street": "Sucha",
    "government": "administrative",
    "name": "Zarząd Zlewni w Gdańsku",
    "office": "government",
    "opening_hours": "Mo-Fr 07:00-15:00",
    "operator": "Państwowe Gospodarstwo Wodne Wody Polskie"
  }
},
{
  "type": "node",
  "id": 6132400882,
  "lat": 53.4388695,
  "lon": 14.5754440,
  "timestamp": "2018-12-12T10:42:02Z",
  "version": 1,
  "changeset": 65404194,
  "user": "JulesGabrielVerne",
  "uid": 4569366,
  "tags": {
    "name": "Wody Polskie",
    "office": "government"
  }
},
{
  "type": "node",
  "id": 6251067283,
  "lat": 51.9598101,
  "lon": 20.1447797,
  "timestamp": "2019-02-01T07:25:53Z",
  "version": 1,
  "changeset": 66824624,
  "user": "Think of Home",
  "uid": 3183432,
  "tags": {
    "government": "public_service",
    "name": "Polska Gospodarka Wodna Wody Polskie Nadzór Wodny w Skierniewicach",
    "office": "government"
  }
},
{
  "type": "node",
  "id": 6355611715,
  "lat": 53.3559670,
  "lon": 17.4855633,
  "timestamp": "2021-05-27T10:52:05Z",
  "version": 4,
  "changeset": 105419646,
  "user": "jslawin",
  "uid": 8477764,
  "tags": {
    "addr:city": "Więcbork",
    "addr:housenumber": "9",
    "addr:postcode": "89-410",
    "addr:street": "Aleja 600-lecia",
    "government": "administrative",
    "name": "Państwowe Gospodarstwo Wody Polskie",
    "office": "government"
  }
},
{
  "type": "node",
  "id": 6355612142,
  "lat": 53.3558494,
  "lon": 17.4854429,
  "timestamp": "2021-04-12T11:23:21Z",
  "version": 4,
  "changeset": 102799350,
  "user": "YacoobPL",
  "uid": 1250896,
  "tags": {
    "addr:city": "Więcbork",
    "addr:housenumber": "9",
    "addr:postcode": "89-410",
    "addr:street": "Aleja 600-lecia",
    "government": "administrative",
    "name": "Nadzór Wodny w Więcborku",
    "office": "government"
  }
},
{
  "type": "node",
  "id": 6373040738,
  "lat": 52.2941655,
  "lon": 21.0036074,
  "timestamp": "2023-05-03T13:04:15Z",
  "version": 3,
  "changeset": 135660059,
  "user": "Rogoyski",
  "uid": 67255,
  "tags": {
    "addr:city": "Warszawa",
    "addr:housenumber": "2",
    "addr:postcode": "03-219",
    "addr:street": "Elektronowa",
    "check_date": "2023-05-03",
    "contact:email": "zz-warszawa@wody.gov.pl",
    "contact:phone": "+48 22 112 38 53",
    "contact:website": "http://www.wody.gov.pl/",
    "government": "administrative",
    "name": "Zarząd Zlewni w Warszawie",
    "office": "government",
    "opening_hours": "Mo-Fr 07:00-16:00",
    "operator": "Państwowe Gospodarstwo Wodne Wody Polskie"
  }
},
{
  "type": "node",
  "id": 6677413937,
  "lat": 54.3923830,
  "lon": 18.6449055,
  "timestamp": "2019-08-02T18:26:06Z",
  "version": 1,
  "changeset": 72952598,
  "user": "kukułka",
  "uid": 2757838,
  "tags": {
    "addr:city": "Gdańsk",
    "addr:housenumber": "12",
    "addr:postcode": "80-531",
    "addr:street": "Sucha",
    "government": "administrative",
    "name": "Nadzór Wodny w Gdańsku",
    "office": "government",
    "opening_hours": "Mo-Fr 07:00-15:00",
    "operator": "Państwowe Gospodarstwo Wodne Wody Polskie"
  }
},
{
  "type": "node",
  "id": 6780949820,
  "lat": 49.8835729,
  "lon": 19.2221863,
  "timestamp": "2019-09-08T15:16:38Z",
  "version": 1,
  "changeset": 74229183,
  "user": "VA00",
  "uid": 1745828,
  "tags": {
    "government": "yes",
    "name": "Nadzór wodny w Kętach",
    "office": "government",
    "operator": "Wody Polskie"
  }
},
{
  "type": "node",
  "id": 6879965468,
  "lat": 51.8073430,
  "lon": 16.3242246,
  "timestamp": "2019-10-14T22:51:09Z",
  "version": 1,
  "changeset": 75690817,
  "user": "km2bp",
  "uid": 3610826,
  "tags": {
    "name": "Nadzór Wodny we Wschowie",
    "office": "government",
    "phone": "+48 65 511 45 15",
    "website": "http://wschowa.info/nadzor-wodny-we-wschowie-slawie/"
  }
},
{
  "type": "node",
  "id": 7129367988,
  "lat": 53.1303865,
  "lon": 16.7583545,
  "timestamp": "2020-01-13T21:14:29Z",
  "version": 1,
  "changeset": 79533493,
  "user": "Ravko29",
  "uid": 9519352,
  "tags": {
    "addr:city": "Piła",
    "addr:housenumber": "7",
    "addr:postcode": "64-920",
    "addr:street": "Motylewska",
    "government": "yes",
    "name": "Państwowe Gospodarstwo Wodne Wody Polskie Zarząd Zlewni w Pile",
    "name:pl": "PGW WP Zarząd Zlewni w Pile",
    "office": "government",
    "opening_hours": "Mo-Fr 07:00-16:00"
  }
},
{
  "type": "node",
  "id": 7996995889,
  "lat": 52.7479844,
  "lon": 15.2561792,
  "timestamp": "2020-10-11T11:58:05Z",
  "version": 1,
  "changeset": 92299537,
  "user": "train_01",
  "uid": 2298842,
  "tags": {
    "name": "PGW \"Wody Polskie\"",
    "office": "government"
  }
},
{
  "type": "node",
  "id": 8761442352,
  "lat": 52.2973298,
  "lon": 20.9883539,
  "timestamp": "2021-05-24T13:57:07Z",
  "version": 1,
  "changeset": 105231788,
  "user": "syntex",
  "uid": 6668641,
  "tags": {
    "addr:city": "Warszawa",
    "addr:housenumber": "13B",
    "addr:postcode": "03-194",
    "addr:street": "Zarzecze",
    "alt_name": "RZGW Warszawa",
    "government": "environment",
    "name": "Regionalny Zarząd Gospodarki Wodnej w Warszawie",
    "office": "government"
  }
},
{
  "type": "node",
  "id": 9173197175,
  "lat": 53.8452640,
  "lon": 22.9941031,
  "timestamp": "2021-10-14T20:15:16Z",
  "version": 1,
  "changeset": 112519190,
  "user": "cytryn",
  "uid": 13889611,
  "tags": {
    "addr:city": "Augustów",
    "addr:housenumber": "12",
    "addr:postcode": "16-300",
    "addr:street": "Portowa",
    "government": "environment",
    "name": "Nadzór Wodny w Augustowie",
    "office": "government",
    "operator": "RZGW ZZ Augustów"
  }
},
{
  "type": "node",
  "id": 9897785454,
  "lat": 52.2339670,
  "lon": 20.9908091,
  "timestamp": "2023-07-07T15:19:10Z",
  "version": 4,
  "changeset": 138233501,
  "user": "Grzgrz",
  "uid": 12621756,
  "tags": {
    "addr:housenumber": "59A",
    "addr:street": "Żelazna",
    "check_date": "2023-01-11",
    "check_date:opening_hours": "2023-07-07",
    "government": "administrative",
    "name": "Wody Polskie",
    "office": "government",
    "official_name": "Państwowe Gospodarstwo Wodne Wody Polskie",
    "opening_hours:signed": "no"
  }
},
{
  "type": "node",
  "id": 9897785455,
  "lat": 52.2338584,
  "lon": 20.9908739,
  "timestamp": "2023-01-11T17:34:29Z",
  "version": 3,
  "changeset": 131155799,
  "user": "Rogoyski",
  "uid": 67255,
  "tags": {
    "addr:housenumber": "59A",
    "addr:street": "Żelazna",
    "check_date": "2023-01-11",
    "government": "administrative",
    "name": "Krajowy Zarząd Gospodarki Wodnej",
    "office": "government"
  }
},
{
  "type": "node",
  "id": 10002944994,
  "lat": 54.3852241,
  "lon": 18.5934390,
  "timestamp": "2024-11-10T15:41:46Z",
  "version": 3,
  "changeset": 158972655,
  "user": "Patryk2710",
  "uid": 12914377,
  "tags": {
    "description": "Państwowe Gospodarstwo Wodne. Wody Polskie",
    "government": "water",
    "name": "Zarząd Zlewni w Gdańsku",
    "office": "government",
    "opening_hours": "Mo-Fr 07:00-16:00"
  }
},
{
  "type": "node",
  "id": 10015234381,
  "lat": 54.3456908,
  "lon": 18.6523966,
  "timestamp": "2022-09-11T07:17:10Z",
  "version": 1,
  "changeset": 126037927,
  "user": "kukułka",
  "uid": 2757838,
  "tags": {
    "description": "siedziba II RZGW w Gdańsku",
    "government": "administrative",
    "name": "Państwowe Gospodarstwo Wodne Wody Polskie Regionalny Zarząd Gospodarki Wodnej w Gdańsku",
    "office": "government",
    "website": "http://www.rzgw.gda.pl/"
  }
},
{
  "type": "node",
  "id": 10249664281,
  "lat": 50.2411698,
  "lon": 21.7846965,
  "timestamp": "2023-04-13T13:09:37Z",
  "version": 4,
  "changeset": 134862292,
  "user": "Patryk2710",
  "uid": 12914377,
  "tags": {
    "name": "Państwowe Gospodarstwo Wodne Wody Polskie Nadzór Wodny w Kolbuszowej",
    "office": "government",
    "opening_hours": "Mo-Fr 07:00-15:00"
  }
},
{
  "type": "node",
  "id": 10884259495,
  "lat": 49.6790356,
  "lon": 21.7761913,
  "timestamp": "2023-05-10T17:31:19Z",
  "version": 1,
  "changeset": 135946014,
  "user": "k2101",
  "uid": 6203794,
  "tags": {
    "name": "Zarząd Zlewni",
    "office": "government"
  }
},
{
  "type": "node",
  "id": 11029870150,
  "lat": 53.5688731,
  "lon": 14.8277566,
  "timestamp": "2023-07-06T11:08:35Z",
  "version": 1,
  "changeset": 138183486,
  "user": "grelus",
  "uid": 813385,
  "tags": {
    "government": "environment",
    "name": "Regionalny Zarząd Gospodarki Wodnej w Szczecinie, Nadzór Wodny w Goleniowie",
    "office": "government"
  }
},
{
  "type": "node",
  "id": 11708596472,
  "lat": 52.0400171,
  "lon": 23.1078114,
  "timestamp": "2024-03-09T14:51:23Z",
  "version": 1,
  "changeset": 148426328,
  "user": "MaciekMma",
  "uid": 14118843,
  "tags": {
    "addr:city": "Biała Podlaska",
    "addr:city:simc": "0922018",
    "addr:housenumber": "71",
    "addr:postcode": "21-500",
    "addr:street": "Sitnicka",
    "addr:street:sym_ul": "19941",
    "email": "nw-bialapodlaska@wody.gov.pl",
    "government": "administrative",
    "name": "Wody Polskie",
    "office": "government",
    "official_name": "Państwowe Gospodarstwo Wodne Wody Polskie Nadzór Wodny w Białej Podlaskiej",
    "phone": "+48833427064",
    "source:addr": "mbialapodlaska.e-mapa.net"
  }
},
{
  "type": "node",
  "id": 11849760118,
  "lat": 50.2691724,
  "lon": 19.0212264,
  "timestamp": "2024-04-26T08:46:29Z",
  "version": 1,
  "changeset": 150527273,
  "user": "Bezi_",
  "uid": 7965463,
  "tags": {
    "addr:housenumber": "8-10",
    "addr:street": "Plac Grunwaldzki",
    "government": "public_service",
    "name": "Państwowe Gospodarstwo Wodne Wody Polskie. Zarząd Zlewni w Katowicac",
    "office": "government"
  }
},
{
  "type": "node",
  "id": 11951768337,
  "lat": 51.3300318,
  "lon": 21.9569251,
  "timestamp": "2024-06-02T12:43:17Z",
  "version": 1,
  "changeset": 152158171,
  "user": "Eye1024",
  "uid": 8194660,
  "tags": {
    "name": "RZGW Nadzór Wodny w Kazimierzu Dolnym",
    "office": "government"
  }
},
{
  "type": "node",
  "id": 11983789189,
  "lat": 53.0079258,
  "lon": 18.5822226,
  "timestamp": "2024-08-31T22:49:56Z",
  "version": 3,
  "changeset": 156034494,
  "user": "carmel4a97",
  "uid": 21812307,
  "tags": {
    "government": "environment",
    "name": "Państwowe Gospodarstwo Wodne Wody Polskie Zarząd Zlewni",
    "office": "government"
  }
},
{
  "type": "node",
  "id": 12277018155,
  "lat": 52.6063906,
  "lon": 16.5826940,
  "timestamp": "2024-10-21T17:45:26Z",
  "version": 1,
  "changeset": 158181175,
  "user": "Aim311_",
  "uid": 17295082,
  "tags": {
    "name": "Państwowe Gospodarstwo Wodne Wody Polskie",
    "office": "government"
  }
},
{
  "type": "node",
  "id": 12321365579,
  "lat": 53.4073054,
  "lon": 14.5072197,
  "timestamp": "2024-11-07T20:49:54Z",
  "version": 1,
  "changeset": 158871582,
  "user": "Patryk2710",
  "uid": 12914377,
  "tags": {
    "government": "yes",
    "name": "Zarząd Zlewni w Szczecinie",
    "office": "government",
    "opening_hours": "Mo-Fr 08:00-16:00"
  }
},
{
  "type": "node",
  "id": 12321488175,
  "lat": 52.3967710,
  "lon": 22.2681974,
  "timestamp": "2024-11-07T22:51:23Z",
  "version": 1,
  "changeset": 158874759,
  "user": "Patryk2710",
  "uid": 12914377,
  "tags": {
    "name": "Zarząd Zlewni w Sokołowie Podlaskim",
    "office": "government",
    "opening_hours": "Mo-Fr 08:00-16:00"
  }
},
{
  "type": "node",
  "id": 12321488177,
  "lat": 50.7051147,
  "lon": 23.2754966,
  "timestamp": "2024-11-07T22:51:23Z",
  "version": 1,
  "changeset": 158874759,
  "user": "Patryk2710",
  "uid": 12914377,
  "tags": {
    "name": "Zarząd Zlewni w Zamościu",
    "office": "government",
    "opening_hours": "Mo-Fr 08:00-16:00"
  }
},
{
  "type": "node",
  "id": 12321528734,
  "lat": 52.4155564,
  "lon": 16.9609979,
  "timestamp": "2024-11-07T22:40:32Z",
  "version": 1,
  "changeset": 158874498,
  "user": "Patryk2710",
  "uid": 12914377,
  "tags": {
    "name": "Państwowe Gospodarstwo Wodne Wody Polskie Regionalny Zarząd Gospodarki Wodnej w Poznaniu",
    "office": "government",
    "opening_hours": "Mo-Fr 07:00-16:00",
    "website": "https://poznan.wody.gov.pl/"
  }
},
{
  "type": "node",
  "id": 12321528737,
  "lat": 51.7733015,
  "lon": 18.1003438,
  "timestamp": "2024-11-07T22:40:32Z",
  "version": 1,
  "changeset": 158874498,
  "user": "Patryk2710",
  "uid": 12914377,
  "tags": {
    "name": "Zarząd Zlewni w Kaliszu",
    "office": "government",
    "opening_hours": "Mo-Fr 07:00-16:00"
  }
},
{
  "type": "node",
  "id": 12321528745,
  "lat": 52.4090156,
  "lon": 16.9361216,
  "timestamp": "2024-11-07T22:40:32Z",
  "version": 1,
  "changeset": 158874498,
  "user": "Patryk2710",
  "uid": 12914377,
  "tags": {
    "name": "Zarząd Zlewni w Poznaniu",
    "office": "government",
    "opening_hours": "Mo-Fr 07:00-16:00"
  }
},
{
  "type": "node",
  "id": 12321528748,
  "lat": 52.6510552,
  "lon": 15.0003393,
  "timestamp": "2024-11-07T22:40:32Z",
  "version": 1,
  "changeset": 158874498,
  "user": "Patryk2710",
  "uid": 12914377,
  "tags": {
    "name": "Nadzór Wodny w Świerkocinie",
    "office": "government",
    "opening_hours": "Mo-Fr 07:00-15:00"
  }
},
{
  "type": "node",
  "id": 12321528750,
  "lat": 51.5939554,
  "lon": 18.7353142,
  "timestamp": "2024-11-07T22:40:32Z",
  "version": 1,
  "changeset": 158874498,
  "user": "Patryk2710",
  "uid": 12914377,
  "tags": {
    "name": "Zarząd Zlewni w Sieradzu",
    "office": "government",
    "opening_hours": "Mo-Fr 07:00-16:00"
  }
},
{
  "type": "node",
  "id": 12324555335,
  "lat": 50.5913125,
  "lon": 22.0439515,
  "timestamp": "2024-11-08T21:30:16Z",
  "version": 1,
  "changeset": 158912347,
  "user": "Patryk2710",
  "uid": 12914377,
  "tags": {
    "name": "Zarząd Zlewni w Stalowej Woli",
    "office": "government"
  }
},
{
  "type": "node",
  "id": 12324666845,
  "lat": 50.6790260,
  "lon": 21.7508333,
  "timestamp": "2024-11-08T22:57:46Z",
  "version": 1,
  "changeset": 158914591,
  "user": "Patryk2710",
  "uid": 12914377,
  "tags": {
    "name": "Zarząd Zlewni w Sandomierzu",
    "office": "government"
  }
},
{
  "type": "node",
  "id": 12324666847,
  "lat": 49.6271057,
  "lon": 20.7050176,
  "timestamp": "2024-11-08T22:57:46Z",
  "version": 1,
  "changeset": 158914591,
  "user": "Patryk2710",
  "uid": 12914377,
  "tags": {
    "name": "Zarząd Zlewni w Nowym Sączu",
    "office": "government"
  }
},
{
  "type": "node",
  "id": 12324666849,
  "lat": 49.6842338,
  "lon": 19.1865888,
  "timestamp": "2024-11-08T22:57:46Z",
  "version": 1,
  "changeset": 158914591,
  "user": "Patryk2710",
  "uid": 12914377,
  "tags": {
    "name": "Zarząd Zlewni w Żywcu",
    "office": "government"
  }
},
{
  "type": "node",
  "id": 12324711254,
  "lat": 52.7964912,
  "lon": 18.2585447,
  "timestamp": "2024-11-08T23:31:26Z",
  "version": 1,
  "changeset": 158915278,
  "user": "Patryk2710",
  "uid": 12914377,
  "tags": {
    "name": "Zarząd Zlewni w Inowrocławiu",
    "office": "government"
  }
},
{
  "type": "node",
  "id": 12324823677,
  "lat": 53.1169084,
  "lon": 23.1160418,
  "timestamp": "2024-11-09T00:59:27Z",
  "version": 1,
  "changeset": 158916749,
  "user": "Patryk2710",
  "uid": 12914377,
  "tags": {
    "name": "Zarząd Zlewni w Białymstoku",
    "office": "government"
  }
},
{
  "type": "node",
  "id": 12328735380,
  "lat": 53.0751852,
  "lon": 21.5702338,
  "timestamp": "2024-11-10T15:01:20Z",
  "version": 1,
  "changeset": 158970983,
  "user": "Patryk2710",
  "uid": 12914377,
  "tags": {
    "name": "Zarząd Zlewni w Ostrołęce",
    "office": "government",
    "opening_hours": "Mo-Fr 07:00-16:00"
  }
},
{
  "type": "node",
  "id": 12328735393,
  "lat": 53.7818090,
  "lon": 20.4815059,
  "timestamp": "2024-11-10T15:01:20Z",
  "version": 1,
  "changeset": 158970983,
  "user": "Patryk2710",
  "uid": 12914377,
  "tags": {
    "name": "Zarząd Zlewni w Olsztynie",
    "office": "government",
    "opening_hours": "Mo-Fr 07:00-16:00"
  }
},
{
  "type": "node",
  "id": 12328766669,
  "lat": 53.8428484,
  "lon": 22.9927039,
  "timestamp": "2024-11-10T14:52:25Z",
  "version": 1,
  "changeset": 158970577,
  "user": "Patryk2710",
  "uid": 12914377,
  "tags": {
    "name": "Zarząd Zlewni w Augustowie",
    "office": "government",
    "opening_hours": "Mo-Fr 07:00-16:00"
  }
},
{
  "type": "node",
  "id": 12328844505,
  "lat": 54.1555476,
  "lon": 19.4003180,
  "timestamp": "2024-11-10T15:41:46Z",
  "version": 1,
  "changeset": 158972655,
  "user": "Patryk2710",
  "uid": 12914377,
  "tags": {
    "name": "Zarząd Zlewni w Elblągu",
    "office": "government"
  }
},
{
  "type": "node",
  "id": 12328844508,
  "lat": 54.0704323,
  "lon": 18.7778275,
  "timestamp": "2024-11-10T15:41:46Z",
  "version": 1,
  "changeset": 158972655,
  "user": "Patryk2710",
  "uid": 12914377,
  "tags": {
    "name": "Zarząd Zlewni w Tczewie",
    "office": "government",
    "opening_hours": "Mo-Fr 07:00-16:00"
  }
},
{
  "type": "node",
  "id": 12328887164,
  "lat": 52.6566477,
  "lon": 19.0600033,
  "timestamp": "2024-11-10T16:19:04Z",
  "version": 1,
  "changeset": 158974210,
  "user": "Patryk2710",
  "uid": 12914377,
  "tags": {
    "name": "Zarząd Zlewni we Włocławku",
    "office": "government",
    "opening_hours": "Mo-Fr 07:00-16:00"
  }
},
{
  "type": "node",
  "id": 12328887166,
  "lat": 51.4127435,
  "lon": 21.1531029,
  "timestamp": "2024-11-10T16:19:04Z",
  "version": 1,
  "changeset": 158974210,
  "user": "Patryk2710",
  "uid": 12914377,
  "tags": {
    "name": "Zarząd Zlewni w Radomiu",
    "office": "government",
    "opening_hours": "Mo-Fr 07:00-16:00"
  }
},
{
  "type": "node",
  "id": 12328887170,
  "lat": 52.4869266,
  "lon": 20.9264698,
  "timestamp": "2024-11-10T16:19:04Z",
  "version": 1,
  "changeset": 158974210,
  "user": "Patryk2710",
  "uid": 12914377,
  "tags": {
    "name": "Zarząd Zlewni w Dębem",
    "office": "government",
    "opening_hours": "Mo-Fr 07:00-16:00"
  }
},
{
  "type": "node",
  "id": 12328887172,
  "lat": 52.8795396,
  "lon": 20.6030335,
  "timestamp": "2024-11-10T16:19:04Z",
  "version": 1,
  "changeset": 158974210,
  "user": "Patryk2710",
  "uid": 12914377,
  "tags": {
    "name": "Zarząd Zlewni w Ciechanowie",
    "office": "government"
  }
},
{
  "type": "node",
  "id": 12328887175,
  "lat": 51.4081485,
  "lon": 19.6898813,
  "timestamp": "2024-11-10T16:19:04Z",
  "version": 1,
  "changeset": 158974210,
  "user": "Patryk2710",
  "uid": 12914377,
  "tags": {
    "name": "Zarząd Zlewni w Piotrkowie Trybunalskim",
    "office": "government",
    "opening_hours": "Mo-Fr 08:00-16:00"
  }
},
{
  "type": "node",
  "id": 12362364423,
  "lat": 52.3193854,
  "lon": 16.1491333,
  "timestamp": "2024-11-21T18:06:01Z",
  "version": 1,
  "changeset": 159427964,
  "user": "Aim311_",
  "uid": 17295082,
  "tags": {
    "name": "Państwowe Gospodarstwo Wodne Wody Polskie",
    "note": "Tabliczka umieszczona na budynku",
    "office": "government"
  }
},
{
  "type": "way",
  "id": 54362940,
  "timestamp": "2024-11-07T22:51:23Z",
  "version": 9,
  "changeset": 158874759,
  "user": "Patryk2710",
  "uid": 12914377,
  "nodes": [
    4659340125,
    4659340126,
    6211817085,
    4659340124,
    4659340122,
    4659340121,
    4659340123,
    6211815869,
    6211817099,
    4659340125
  ],
  "tags": {
    "addr:city": "Lublin",
    "addr:housenumber": "3",
    "addr:postcode": "20-610",
    "addr:street": "Leszka Czarnego",
    "building": "office",
    "name": "Regionalny Zarząd Gospodarki Wodnej w Lublinie",
    "office": "government",
    "source": "MPZP",
    "source:addr": "EMUiA (emuia.geoportal.gov.pl)"
  }
},
{
  "type": "way",
  "id": 143916313,
  "timestamp": "2023-07-06T18:41:23Z",
  "version": 8,
  "changeset": 138198625,
  "user": "uprkos",
  "uid": 11239973,
  "nodes": [
    4146767956,
    4146767928,
    4146767776,
    4146767762,
    4146767753,
    4146767754,
    4146767755,
    4146767927,
    4146767937,
    4146767963,
    4146768133,
    4146767956
  ],
  "tags": {
    "addr:city": "Kraków",
    "addr:country": "PL",
    "addr:housenumber": "22",
    "addr:postcode": "31-109",
    "addr:street": "Marszałka Józefa Piłsudskiego",
    "building": "yes",
    "building:levels": "4",
    "name": "Wody Polskie",
    "office": "government",
    "official_name": "Państwowe Gospodarstwo Wodne Wody Polskie",
    "old_alt_name": "RZGW Kraków",
    "old_name": "Regionalny Zarząd Gospodarki Wodnej w Krakowie",
    "opening_hours": "Mo-Fr 07:30-15:30",
    "source": "bing"
  }
},
{
  "type": "way",
  "id": 153787788,
  "timestamp": "2024-11-08T23:31:26Z",
  "version": 6,
  "changeset": 158915278,
  "user": "Patryk2710",
  "uid": 12914377,
  "nodes": [
    1664268957,
    3976642422,
    3976642446,
    3976642443,
    3976642423,
    3976642421,
    1664269235,
    3976642420,
    1664269270,
    1664268957
  ],
  "tags": {
    "addr:city": "Bydgoszcz",
    "addr:housenumber": "15",
    "addr:street": "Aleja Adama Mickiewicza",
    "building": "yes",
    "name": "Regionalny Zarząd Gospodarki Wodnej w Bydgoszczy",
    "office": "government"
  }
},
{
  "type": "way",
  "id": 194256167,
  "timestamp": "2023-05-24T15:09:53Z",
  "version": 13,
  "changeset": 136505252,
  "user": "Yankowsky",
  "uid": 17366680,
  "nodes": [
    6003214978,
    2047762427,
    2047762419,
    2047762425,
    2047762414,
    2047762417,
    2047762407,
    3128175496,
    2047762401,
    3128175493,
    2047762393,
    3128175488,
    2047762383,
    3128175489,
    2047762389,
    3128175486,
    3128175487,
    2047762378,
    2047762385,
    3128175490,
    3128175491,
    2047762387,
    2047762391,
    3128175492,
    2047762395,
    3128175494,
    2047762399,
    3128175495,
    2047762405,
    2047762412,
    2047762413,
    6003214978
  ],
  "tags": {
    "addr:city": "Lwówek Śląski",
    "addr:housenumber": "24",
    "addr:postcode": "59-600",
    "addr:street": "Jakuba Jaśkiewicza",
    "building": "government",
    "building:colour": "yellowgreen",
    "building:levels": "2",
    "government": "yes",
    "name": "Państwowe Gospodarstwo Wodne Wody Polskie",
    "name:full": "Państwowe Gospodarstwo Wodne Wody Polskie - RZGW Wrocław Zarząd Zlewni w Lwówku Śląskim",
    "office": "government",
    "roof:colour": "red",
    "roof:levels": "1",
    "roof:shape": "mansard",
    "source:geometry": "geoportal.gov.pl:ortofoto"
  }
},
{
  "type": "way",
  "id": 207020181,
  "timestamp": "2024-02-11T20:44:08Z",
  "version": 4,
  "changeset": 147343300,
  "user": "jacek_zwik",
  "uid": 2319082,
  "nodes": [
    2171352425,
    2171352666,
    2171352879,
    2171352947,
    2171353005,
    2171352603,
    2171352599,
    2171351139,
    2171350933,
    2171350806,
    2171350649,
    2171350597,
    2171350604,
    2171350677,
    2171350775,
    2171350709,
    2171351740,
    2171351642,
    2171352418,
    2171352435,
    2171352393,
    2171352425
  ],
  "tags": {
    "addr:city": "Opole",
    "addr:housenumber": "2",
    "addr:postcode": "45-089",
    "addr:street": "Odrowążów",
    "building": "commercial",
    "building:levels": "3",
    "contact:email": "zz-opole@wody.gov.pl",
    "contact:phone": "+48 (77) 407 47 05",
    "government": "administrative",
    "name": "Państwowe Gospodarstwo Wodne Wody Polskie Zarząd Zlewni w Opolu",
    "office": "government",
    "source": "UM Opole"
  }
},
{
  "type": "way",
  "id": 211037619,
  "timestamp": "2023-11-29T15:42:58Z",
  "version": 4,
  "changeset": 144593481,
  "user": "Michoo",
  "uid": 594456,
  "nodes": [
    2210461797,
    2210461852,
    2210461832,
    2210461895,
    2210461797
  ],
  "tags": {
    "addr:city": "Białystok",
    "addr:housenumber": "11",
    "addr:street": "Pułkowa",
    "alt_name": "Wody Polskie",
    "building": "yes",
    "building:levels": "5",
    "government": "environment",
    "name": "Regionalny Zarząd Gospodarki Wodnej w Białymstoku",
    "office": "government",
    "opening_hours": "Mo-Fr 07:00-16:00; PH off",
    "short_name": "RZGW w Białymstoku",
    "website": "https://bialystok.wody.gov.pl/"
  }
},
{
  "type": "way",
  "id": 238653512,
  "timestamp": "2021-10-16T17:58:57Z",
  "version": 9,
  "changeset": 112588718,
  "user": "bdzik",
  "uid": 7666585,
  "nodes": [
    2464562958,
    2464562928,
    9010837959,
    9010837960,
    2464562917,
    2464562915,
    9176823896,
    2464562920,
    2464562958
  ],
  "tags": {
    "addr:city": "Przemyśl",
    "addr:housenumber": "6",
    "addr:postcode": "37-700",
    "addr:street": "Wybrzeże Ojca Świętego Jana Pawła II",
    "building": "yes",
    "building:levels": "3",
    "name": "Regionalny Zarząd Gospodarki Wodnej w Rzeszowie Zarząd Zlewni w Przemyślu",
    "office": "government",
    "roof:levels": "1",
    "roof:shape": "hipped"
  }
},
{
  "type": "way",
  "id": 254298837,
  "timestamp": "2024-11-10T15:01:20Z",
  "version": 5,
  "changeset": 158970983,
  "user": "Patryk2710",
  "uid": 12914377,
  "nodes": [
    2600858560,
    2600858570,
    2600858568,
    2600858556,
    2600858560
  ],
  "tags": {
    "addr:city": "Giżycko",
    "addr:housenumber": "4",
    "addr:postcode": "11-500",
    "addr:street": "Wodna",
    "building": "yes",
    "building:levels": "3",
    "name": "PGW Wody Polskie, Zarząd Zlewni w Giżycku",
    "office": "government"
  }
},
{
  "type": "way",
  "id": 352106484,
  "timestamp": "2020-01-16T14:26:12Z",
  "version": 2,
  "changeset": 79654681,
  "user": "John_Pavulon",
  "uid": 9958347,
  "nodes": [
    3578704570,
    3578704572,
    3578704330,
    3578704327,
    3578704303,
    3578704142,
    3578704146,
    3578704151,
    3578704216,
    3578704210,
    3578704514,
    3578704524,
    3578704555,
    3578704552,
    3578704557,
    3578704584,
    3578704570
  ],
  "tags": {
    "building": "yes",
    "name": "Wody Polskie",
    "office": "government"
  }
},
{
  "type": "way",
  "id": 353773798,
  "timestamp": "2022-11-13T20:42:24Z",
  "version": 5,
  "changeset": 128862277,
  "user": "blxght",
  "uid": 16345719,
  "nodes": [
    3595857585,
    3595857586,
    9991712013,
    9991712012,
    9991712011,
    9991712010,
    3595857587,
    3595857588,
    3595857585
  ],
  "tags": {
    "addr:city": "Koło",
    "addr:city:simc": "0949052",
    "addr:housenumber": "3",
    "addr:postcode": "62-600",
    "addr:street": "Bolesława Prusa",
    "addr:street:sym_ul": "17577",
    "building": "office",
    "building:levels": "2",
    "government": "water",
    "name": "PPW Wody Polskie. Zarząd Zlewni w Kole",
    "office": "government",
    "source": "www.geoportal.gov.pl",
    "source:addr": "mkolo.e-mapa.net"
  }
},
{
  "type": "way",
  "id": 779669687,
  "timestamp": "2023-02-24T12:02:43Z",
  "version": 6,
  "changeset": 132964466,
  "user": "pio2_122",
  "uid": 3214275,
  "nodes": [
    7251614026,
    10690553227,
    10690553228,
    10690553225,
    10690553224,
    10690553223,
    10690553222,
    10690553221,
    10690553220,
    10690553219,
    10690553218,
    10690553217,
    10690553216,
    10690553226,
    7251614026
  ],
  "tags": {
    "email": "nw-szczecin@wody.gov.pl",
    "government": "environment",
    "landuse": "commercial",
    "name": "Nadzór Wodny w Szczecinie",
    "office": "government",
    "operator": "Regionalny Zarząd Gospodarki Wodnej w Szczecinie",
    "phone": "+48 91 4608494",
    "website": "https://szczecin.wody.gov.pl/"
  }
},
{
  "type": "way",
  "id": 972224379,
  "timestamp": "2024-03-16T10:19:57Z",
  "version": 6,
  "changeset": 148724509,
  "user": "qaz789",
  "uid": 4851745,
  "nodes": [
    1168074009,
    1168083346,
    1167998321,
    8998259059,
    10024536117,
    10024536118,
    10024536119,
    11736496763,
    10024536120,
    10024536121,
    10080241137,
    10080241133,
    10024536122,
    10024536123,
    1168258533,
    1168061393,
    1168053560,
    6080805626,
    6080805627,
    6080805628,
    6080805629,
    6080805621,
    6080805620,
    6080805619,
    6080805635,
    1168182080,
    1168159668,
    1168259387,
    1168074009
  ],
  "tags": {
    "alt_name": "RZGW Wrocław",
    "check_date:opening_hours": "2022-09-04",
    "government": "environment",
    "landuse": "commercial",
    "name": "Regionalny Zarząd Gospodarki Wodnej we Wrocławiu",
    "office": "government",
    "opening_hours:signed": "no"
  }
},
{
  "type": "way",
  "id": 1101449698,
  "timestamp": "2022-10-06T10:21:19Z",
  "version": 1,
  "changeset": 127094189,
  "user": "Mordechai23",
  "uid": 8826419,
  "nodes": [
    10079716295,
    1167353545,
    1167453857,
    10079716286,
    10079716298,
    10079716297,
    10079716296,
    10079716287,
    3596250820,
    3596250823,
    3596250822,
    3596250825,
    3596250827,
    3596250826,
    3530245219,
    3596250830,
    3596250832,
    6370957591,
    1167460100,
    1167368625,
    10076683369,
    1167453903,
    10076683397,
    10076786293,
    10076786290,
    10076683398,
    10076786291,
    10076786294,
    1167558638,
    10076655906,
    1167501422,
    10079716295
  ],
  "tags": {
    "landuse": "commercial",
    "name": "Zarząd Zlewni we Wrocławiu",
    "office": "government",
    "operator": "Regionalny Zarząd Gospodarki Wodnej we Wrocławiu"
  }
},
{
  "type": "way",
  "id": 1154520050,
  "timestamp": "2023-03-15T15:04:33Z",
  "version": 2,
  "changeset": 133714056,
  "user": "Piotr Strębski",
  "uid": 5060085,
  "nodes": [
    10737171355,
    10737291577,
    10737171356,
    10737171357,
    10737171358,
    10737171355
  ],
  "tags": {
    "email": "nw-gorakalwaria@wody.gov.pl",
    "government": "environment",
    "landuse": "commercial",
    "name": "Nadzór Wodny w Górze Kalwarii",
    "office": "government",
    "operator": "Wody Polskie",
    "phone": "+48 22 727 35 14"
  }
},
{
  "type": "node",
  "id": 1167353545,
  "lat": 51.1065965,
  "lon": 17.0649776,
  "timestamp": "2015-06-15T12:04:35Z",
  "version": 2,
  "changeset": 31982214,
  "user": "maraf24",
  "uid": 2098272
},
{
  "type": "node",
  "id": 1167368625,
  "lat": 51.1068071,
  "lon": 17.0653337,
  "timestamp": "2022-10-06T10:21:19Z",
  "version": 3,
  "changeset": 127094189,
  "user": "Mordechai23",
  "uid": 8826419
},
{
  "type": "node",
  "id": 1167453857,
  "lat": 51.1065988,
  "lon": 17.0650938,
  "timestamp": "2015-06-15T12:04:35Z",
  "version": 2,
  "changeset": 31982214,
  "user": "maraf24",
  "uid": 2098272
},
{
  "type": "node",
  "id": 1167453903,
  "lat": 51.1067670,
  "lon": 17.0652625,
  "timestamp": "2022-10-05T10:28:17Z",
  "version": 3,
  "changeset": 127040213,
  "user": "Mordechai23",
  "uid": 8826419
},
{
  "type": "node",
  "id": 1167460100,
  "lat": 51.1068064,
  "lon": 17.0654160,
  "timestamp": "2022-10-06T10:21:19Z",
  "version": 3,
  "changeset": 127094189,
  "user": "Mordechai23",
  "uid": 8826419
},
{
  "type": "node",
  "id": 1167501422,
  "lat": 51.1066649,
  "lon": 17.0648715,
  "timestamp": "2022-10-05T10:28:17Z",
  "version": 3,
  "changeset": 127040213,
  "user": "Mordechai23",
  "uid": 8826419
},
{
  "type": "node",
  "id": 1167558638,
  "lat": 51.1067769,
  "lon": 17.0648794,
  "timestamp": "2022-10-05T10:28:17Z",
  "version": 3,
  "changeset": 127040213,
  "user": "Mordechai23",
  "uid": 8826419
},
{
  "type": "node",
  "id": 1167998321,
  "lat": 51.1108369,
  "lon": 17.0629951,
  "timestamp": "2022-09-14T13:39:47Z",
  "version": 3,
  "changeset": 126183425,
  "user": "Mordechai23",
  "uid": 8826419
},
{
  "type": "node",
  "id": 1168053560,
  "lat": 51.1113984,
  "lon": 17.0632441,
  "timestamp": "2018-11-21T21:21:55Z",
  "version": 2,
  "changeset": 64755889,
  "user": "maraf24",
  "uid": 2098272
},
{
  "type": "node",
  "id": 1168061393,
  "lat": 51.1113950,
  "lon": 17.0632533,
  "timestamp": "2018-11-21T21:21:55Z",
  "version": 2,
  "changeset": 64755889,
  "user": "maraf24",
  "uid": 2098272
},
{
  "type": "node",
  "id": 1168074009,
  "lat": 51.1109608,
  "lon": 17.0626099,
  "timestamp": "2018-11-21T21:21:55Z",
  "version": 2,
  "changeset": 64755889,
  "user": "maraf24",
  "uid": 2098272
},
{
  "type": "node",
  "id": 1168083346,
  "lat": 51.1108863,
  "lon": 17.0628422,
  "timestamp": "2018-11-21T21:25:25Z",
  "version": 2,
  "changeset": 64755953,
  "user": "maraf24",
  "uid": 2098272
},
{
  "type": "node",
  "id": 1168159668,
  "lat": 51.1110099,
  "lon": 17.0625407,
  "timestamp": "2018-11-21T21:21:55Z",
  "version": 2,
  "changeset": 64755889,
  "user": "maraf24",
  "uid": 2098272
},
{
  "type": "node",
  "id": 1168182080,
  "lat": 51.1111359,
  "lon": 17.0626450,
  "timestamp": "2018-11-21T21:21:55Z",
  "version": 2,
  "changeset": 64755889,
  "user": "maraf24",
  "uid": 2098272
},
{
  "type": "node",
  "id": 1168258533,
  "lat": 51.1113409,
  "lon": 17.0634182,
  "timestamp": "2018-11-21T21:21:56Z",
  "version": 2,
  "changeset": 64755889,
  "user": "maraf24",
  "uid": 2098272
},
{
  "type": "node",
  "id": 1168259387,
  "lat": 51.1109892,
  "lon": 17.0625237,
  "timestamp": "2018-11-21T21:21:56Z",
  "version": 2,
  "changeset": 64755889,
  "user": "maraf24",
  "uid": 2098272
},
{
  "type": "node",
  "id": 1664268957,
  "lat": 53.1310518,
  "lon": 18.0132640,
  "timestamp": "2016-01-29T19:41:06Z",
  "version": 2,
  "changeset": 36886277,
  "user": "adas",
  "uid": 23168
},
{
  "type": "node",
  "id": 1664269235,
  "lat": 53.1312627,
  "lon": 18.0132474,
  "timestamp": "2016-01-29T19:41:06Z",
  "version": 2,
  "changeset": 36886277,
  "user": "adas",
  "uid": 23168
},
{
  "type": "node",
  "id": 1664269270,
  "lat": 53.1311105,
  "lon": 18.0130957,
  "timestamp": "2016-01-29T19:41:06Z",
  "version": 2,
  "changeset": 36886277,
  "user": "adas",
  "uid": 23168
},
{
  "type": "node",
  "id": 2047762378,
  "lat": 51.1056652,
  "lon": 15.5940569,
  "timestamp": "2014-10-13T17:51:18Z",
  "version": 3,
  "changeset": 26054612,
  "user": "zVID",
  "uid": 328526
},
{
  "type": "node",
  "id": 2047762383,
  "lat": 51.1057048,
  "lon": 15.5941520,
  "timestamp": "2014-10-13T17:51:18Z",
  "version": 3,
  "changeset": 26054612,
  "user": "zVID",
  "uid": 328526
},
{
  "type": "node",
  "id": 2047762385,
  "lat": 51.1057104,
  "lon": 15.5940063,
  "timestamp": "2014-10-13T17:51:18Z",
  "version": 3,
  "changeset": 26054612,
  "user": "zVID",
  "uid": 328526
},
{
  "type": "node",
  "id": 2047762387,
  "lat": 51.1057092,
  "lon": 15.5939469,
  "timestamp": "2014-10-13T17:51:18Z",
  "version": 3,
  "changeset": 26054612,
  "user": "zVID",
  "uid": 328526
},
{
  "type": "node",
  "id": 2047762389,
  "lat": 51.1056842,
  "lon": 15.5941354,
  "timestamp": "2014-10-13T17:51:18Z",
  "version": 3,
  "changeset": 26054612,
  "user": "zVID",
  "uid": 328526
},
{
  "type": "node",
  "id": 2047762391,
  "lat": 51.1057152,
  "lon": 15.5939356,
  "timestamp": "2014-10-13T17:51:18Z",
  "version": 3,
  "changeset": 26054612,
  "user": "zVID",
  "uid": 328526
},
{
  "type": "node",
  "id": 2047762393,
  "lat": 51.1057130,
  "lon": 15.5942472,
  "timestamp": "2014-10-13T17:51:18Z",
  "version": 3,
  "changeset": 26054612,
  "user": "zVID",
  "uid": 328526
},
{
  "type": "node",
  "id": 2047762395,
  "lat": 51.1057354,
  "lon": 15.5939237,
  "timestamp": "2014-10-13T17:51:18Z",
  "version": 3,
  "changeset": 26054612,
  "user": "zVID",
  "uid": 328526
},
{
  "type": "node",
  "id": 2047762399,
  "lat": 51.1057552,
  "lon": 15.5939279,
  "timestamp": "2014-10-13T17:51:18Z",
  "version": 3,
  "changeset": 26054612,
  "user": "zVID",
  "uid": 328526
},
{
  "type": "node",
  "id": 2047762401,
  "lat": 51.1057391,
  "lon": 15.5942269,
  "timestamp": "2014-10-13T17:51:18Z",
  "version": 3,
  "changeset": 26054612,
  "user": "zVID",
  "uid": 328526
},
{
  "type": "node",
  "id": 2047762405,
  "lat": 51.1057649,
  "lon": 15.5939469,
  "timestamp": "2014-10-13T17:51:18Z",
  "version": 3,
  "changeset": 26054612,
  "user": "zVID",
  "uid": 328526
},
{
  "type": "node",
  "id": 2047762407,
  "lat": 51.1057959,
  "lon": 15.5941938,
  "timestamp": "2014-10-13T17:51:18Z",
  "version": 3,
  "changeset": 26054612,
  "user": "zVID",
  "uid": 328526
},
{
  "type": "node",
  "id": 2047762412,
  "lat": 51.1058097,
  "lon": 15.5938999,
  "timestamp": "2014-10-13T17:51:18Z",
  "version": 3,
  "changeset": 26054612,
  "user": "zVID",
  "uid": 328526
},
{
  "type": "node",
  "id": 2047762413,
  "lat": 51.1058186,
  "lon": 15.5939177,
  "timestamp": "2014-10-13T17:51:18Z",
  "version": 3,
  "changeset": 26054612,
  "user": "zVID",
  "uid": 328526
},
{
  "type": "node",
  "id": 2047762414,
  "lat": 51.1058441,
  "lon": 15.5941096,
  "timestamp": "2014-10-13T17:51:18Z",
  "version": 3,
  "changeset": 26054612,
  "user": "zVID",
  "uid": 328526
},
{
  "type": "node",
  "id": 2047762417,
  "lat": 51.1058534,
  "lon": 15.5941292,
  "timestamp": "2014-10-13T17:51:18Z",
  "version": 3,
  "changeset": 26054612,
  "user": "zVID",
  "uid": 328526
},
{
  "type": "node",
  "id": 2047762419,
  "lat": 51.1058574,
  "lon": 15.5940055,
  "timestamp": "2014-10-13T17:51:18Z",
  "version": 3,
  "changeset": 26054612,
  "user": "zVID",
  "uid": 328526
},
{
  "type": "node",
  "id": 2047762425,
  "lat": 51.1058860,
  "lon": 15.5940641,
  "timestamp": "2014-10-13T17:51:18Z",
  "version": 3,
  "changeset": 26054612,
  "user": "zVID",
  "uid": 328526
},
{
  "type": "node",
  "id": 2047762427,
  "lat": 51.1058826,
  "lon": 15.5939768,
  "timestamp": "2014-10-13T17:51:18Z",
  "version": 3,
  "changeset": 26054612,
  "user": "zVID",
  "uid": 328526
},
{
  "type": "node",
  "id": 2171350597,
  "lat": 50.6627978,
  "lon": 17.9162750,
  "timestamp": "2013-02-24T13:58:20Z",
  "version": 1,
  "changeset": 15148374,
  "user": "Yarl (import)",
  "uid": 1228094
},
{
  "type": "node",
  "id": 2171350604,
  "lat": 50.6627991,
  "lon": 17.9162665,
  "timestamp": "2013-02-24T13:58:20Z",
  "version": 1,
  "changeset": 15148374,
  "user": "Yarl (import)",
  "uid": 1228094
},
{
  "type": "node",
  "id": 2171350649,
  "lat": 50.6628065,
  "lon": 17.9162800,
  "timestamp": "2013-02-24T13:58:21Z",
  "version": 1,
  "changeset": 15148374,
  "user": "Yarl (import)",
  "uid": 1228094
},
{
  "type": "node",
  "id": 2171350677,
  "lat": 50.6628076,
  "lon": 17.9162731,
  "timestamp": "2013-02-24T13:58:22Z",
  "version": 1,
  "changeset": 15148374,
  "user": "Yarl (import)",
  "uid": 1228094
},
{
  "type": "node",
  "id": 2171350709,
  "lat": 50.6628114,
  "lon": 17.9162236,
  "timestamp": "2013-02-24T13:58:22Z",
  "version": 1,
  "changeset": 15148374,
  "user": "Yarl (import)",
  "uid": 1228094
},
{
  "type": "node",
  "id": 2171350775,
  "lat": 50.6628228,
  "lon": 17.9162594,
  "timestamp": "2013-02-24T13:58:24Z",
  "version": 1,
  "changeset": 15148374,
  "user": "Yarl (import)",
  "uid": 1228094
},
{
  "type": "node",
  "id": 2171350806,
  "lat": 50.6628275,
  "lon": 17.9163488,
  "timestamp": "2013-02-24T13:58:24Z",
  "version": 1,
  "changeset": 15148374,
  "user": "Yarl (import)",
  "uid": 1228094
},
{
  "type": "node",
  "id": 2171350933,
  "lat": 50.6628466,
  "lon": 17.9163349,
  "timestamp": "2013-02-24T13:58:26Z",
  "version": 1,
  "changeset": 15148374,
  "user": "Yarl (import)",
  "uid": 1228094
},
{
  "type": "node",
  "id": 2171351139,
  "lat": 50.6628669,
  "lon": 17.9164017,
  "timestamp": "2013-02-24T13:58:28Z",
  "version": 1,
  "changeset": 15148374,
  "user": "Yarl (import)",
  "uid": 1228094
},
{
  "type": "node",
  "id": 2171351642,
  "lat": 50.6629096,
  "lon": 17.9161139,
  "timestamp": "2013-02-24T13:58:33Z",
  "version": 1,
  "changeset": 15148374,
  "user": "Yarl (import)",
  "uid": 1228094
},
{
  "type": "node",
  "id": 2171351740,
  "lat": 50.6629185,
  "lon": 17.9161430,
  "timestamp": "2013-02-24T13:58:34Z",
  "version": 1,
  "changeset": 15148374,
  "user": "Yarl (import)",
  "uid": 1228094
},
{
  "type": "node",
  "id": 2171352393,
  "lat": 50.6629684,
  "lon": 17.9160812,
  "timestamp": "2013-02-24T13:58:43Z",
  "version": 1,
  "changeset": 15148374,
  "user": "Yarl (import)",
  "uid": 1228094
},
{
  "type": "node",
  "id": 2171352418,
  "lat": 50.6629729,
  "lon": 17.9160661,
  "timestamp": "2013-02-24T13:58:43Z",
  "version": 1,
  "changeset": 15148374,
  "user": "Yarl (import)",
  "uid": 1228094
},
{
  "type": "node",
  "id": 2171352425,
  "lat": 50.6629733,
  "lon": 17.9160974,
  "timestamp": "2013-02-24T13:58:43Z",
  "version": 1,
  "changeset": 15148374,
  "user": "Yarl (import)",
  "uid": 1228094
},
{
  "type": "node",
  "id": 2171352435,
  "lat": 50.6629758,
  "lon": 17.9160757,
  "timestamp": "2013-02-24T13:58:43Z",
  "version": 1,
  "changeset": 15148374,
  "user": "Yarl (import)",
  "uid": 1228094
},
{
  "type": "node",
  "id": 2171352599,
  "lat": 50.6630040,
  "lon": 17.9162986,
  "timestamp": "2013-02-24T13:58:46Z",
  "version": 1,
  "changeset": 15148374,
  "user": "Yarl (import)",
  "uid": 1228094
},
{
  "type": "node",
  "id": 2171352603,
  "lat": 50.6630051,
  "lon": 17.9163024,
  "timestamp": "2013-02-24T13:58:46Z",
  "version": 1,
  "changeset": 15148374,
  "user": "Yarl (import)",
  "uid": 1228094
},
{
  "type": "node",
  "id": 2171352666,
  "lat": 50.6630163,
  "lon": 17.9160651,
  "timestamp": "2013-02-24T13:58:47Z",
  "version": 1,
  "changeset": 15148374,
  "user": "Yarl (import)",
  "uid": 1228094
},
{
  "type": "node",
  "id": 2171352879,
  "lat": 50.6630583,
  "lon": 17.9162030,
  "timestamp": "2013-02-24T13:58:52Z",
  "version": 1,
  "changeset": 15148374,
  "user": "Yarl (import)",
  "uid": 1228094
},
{
  "type": "node",
  "id": 2171352947,
  "lat": 50.6630737,
  "lon": 17.9161913,
  "timestamp": "2013-02-24T13:58:53Z",
  "version": 1,
  "changeset": 15148374,
  "user": "Yarl (import)",
  "uid": 1228094
},
{
  "type": "node",
  "id": 2171353005,
  "lat": 50.6630881,
  "lon": 17.9162378,
  "timestamp": "2013-02-24T13:58:54Z",
  "version": 1,
  "changeset": 15148374,
  "user": "Yarl (import)",
  "uid": 1228094
},
{
  "type": "node",
  "id": 2210461797,
  "lat": 53.1440518,
  "lon": 23.1856552,
  "timestamp": "2024-07-21T14:18:26Z",
  "version": 5,
  "changeset": 154221681,
  "user": "Michoo",
  "uid": 594456
},
{
  "type": "node",
  "id": 2210461832,
  "lat": 53.1443859,
  "lon": 23.1854570,
  "timestamp": "2024-07-21T14:18:26Z",
  "version": 5,
  "changeset": 154221681,
  "user": "Michoo",
  "uid": 594456
},
{
  "type": "node",
  "id": 2210461852,
  "lat": 53.1443870,
  "lon": 23.1856515,
  "timestamp": "2024-07-21T14:18:26Z",
  "version": 5,
  "changeset": 154221681,
  "user": "Michoo",
  "uid": 594456
},
{
  "type": "node",
  "id": 2210461895,
  "lat": 53.1440517,
  "lon": 23.1854642,
  "timestamp": "2024-07-21T14:18:26Z",
  "version": 5,
  "changeset": 154221681,
  "user": "Michoo",
  "uid": 594456
},
{
  "type": "node",
  "id": 2464562915,
  "lat": 49.7841113,
  "lon": 22.7636135,
  "timestamp": "2021-10-16T17:58:57Z",
  "version": 6,
  "changeset": 112588718,
  "user": "bdzik",
  "uid": 7666585
},
{
  "type": "node",
  "id": 2464562917,
  "lat": 49.7840388,
  "lon": 22.7636916,
  "timestamp": "2021-10-16T17:58:57Z",
  "version": 6,
  "changeset": 112588718,
  "user": "bdzik",
  "uid": 7666585
},
{
  "type": "node",
  "id": 2464562920,
  "lat": 49.7841358,
  "lon": 22.7635837,
  "timestamp": "2021-10-16T17:58:57Z",
  "version": 6,
  "changeset": 112588718,
  "user": "bdzik",
  "uid": 7666585
},
{
  "type": "node",
  "id": 2464562928,
  "lat": 49.7839501,
  "lon": 22.7634840,
  "timestamp": "2021-10-16T17:58:57Z",
  "version": 6,
  "changeset": 112588718,
  "user": "bdzik",
  "uid": 7666585
},
{
  "type": "node",
  "id": 2464562958,
  "lat": 49.7840404,
  "lon": 22.7633816,
  "timestamp": "2021-10-16T17:58:57Z",
  "version": 6,
  "changeset": 112588718,
  "user": "bdzik",
  "uid": 7666585
},
{
  "type": "node",
  "id": 2600858556,
  "lat": 54.0346097,
  "lon": 21.7642416,
  "timestamp": "2014-01-29T17:00:28Z",
  "version": 2,
  "changeset": 20268752,
  "user": "RoboD",
  "uid": 536107
},
{
  "type": "node",
  "id": 2600858560,
  "lat": 54.0346363,
  "lon": 21.7640711,
  "timestamp": "2014-01-29T17:00:28Z",
  "version": 2,
  "changeset": 20268752,
  "user": "RoboD",
  "uid": 536107
},
{
  "type": "node",
  "id": 2600858568,
  "lat": 54.0348368,
  "lon": 21.7643443,
  "timestamp": "2014-01-29T17:00:28Z",
  "version": 2,
  "changeset": 20268752,
  "user": "RoboD",
  "uid": 536107
},
{
  "type": "node",
  "id": 2600858570,
  "lat": 54.0348634,
  "lon": 21.7641739,
  "timestamp": "2014-01-29T17:00:28Z",
  "version": 2,
  "changeset": 20268752,
  "user": "RoboD",
  "uid": 536107
},
{
  "type": "node",
  "id": 3128175486,
  "lat": 51.1056693,
  "lon": 15.5941039,
  "timestamp": "2014-10-13T17:51:13Z",
  "version": 1,
  "changeset": 26054612,
  "user": "zVID",
  "uid": 328526
},
{
  "type": "node",
  "id": 3128175487,
  "lat": 51.1056756,
  "lon": 15.5940819,
  "timestamp": "2014-10-13T17:51:13Z",
  "version": 1,
  "changeset": 26054612,
  "user": "zVID",
  "uid": 328526
},
{
  "type": "node",
  "id": 3128175488,
  "lat": 51.1056835,
  "lon": 15.5941776,
  "timestamp": "2014-10-13T17:51:13Z",
  "version": 1,
  "changeset": 26054612,
  "user": "zVID",
  "uid": 328526
},
{
  "type": "node",
  "id": 3128175489,
  "lat": 51.1056980,
  "lon": 15.5941360,
  "timestamp": "2014-10-13T17:51:13Z",
  "version": 1,
  "changeset": 26054612,
  "user": "zVID",
  "uid": 328526
},
{
  "type": "node",
  "id": 3128175490,
  "lat": 51.1057055,
  "lon": 15.5939849,
  "timestamp": "2014-10-13T17:51:13Z",
  "version": 1,
  "changeset": 26054612,
  "user": "zVID",
  "uid": 328526
},
{
  "type": "node",
  "id": 3128175491,
  "lat": 51.1057070,
  "lon": 15.5939641,
  "timestamp": "2014-10-13T17:51:13Z",
  "version": 1,
  "changeset": 26054612,
  "user": "zVID",
  "uid": 328526
},
{
  "type": "node",
  "id": 3128175492,
  "lat": 51.1057231,
  "lon": 15.5939290,
  "timestamp": "2014-10-13T17:51:13Z",
  "version": 1,
  "changeset": 26054612,
  "user": "zVID",
  "uid": 328526
},
{
  "type": "node",
  "id": 3128175493,
  "lat": 51.1057354,
  "lon": 15.5942210,
  "timestamp": "2014-10-13T17:51:13Z",
  "version": 1,
  "changeset": 26054612,
  "user": "zVID",
  "uid": 328526
},
{
  "type": "node",
  "id": 3128175494,
  "lat": 51.1057458,
  "lon": 15.5939243,
  "timestamp": "2014-10-13T17:51:13Z",
  "version": 1,
  "changeset": 26054612,
  "user": "zVID",
  "uid": 328526
},
{
  "type": "node",
  "id": 3128175495,
  "lat": 51.1057608,
  "lon": 15.5939380,
  "timestamp": "2014-10-13T17:51:13Z",
  "version": 1,
  "changeset": 26054612,
  "user": "zVID",
  "uid": 328526
},
{
  "type": "node",
  "id": 3128175496,
  "lat": 51.1057847,
  "lon": 15.5941681,
  "timestamp": "2014-10-13T17:51:13Z",
  "version": 1,
  "changeset": 26054612,
  "user": "zVID",
  "uid": 328526
},
{
  "type": "node",
  "id": 3530245219,
  "lat": 51.1067392,
  "lon": 17.0655651,
  "timestamp": "2022-10-05T10:28:17Z",
  "version": 3,
  "changeset": 127040213,
  "user": "Mordechai23",
  "uid": 8826419,
  "tags": {
    "access": "private",
    "barrier": "gate",
    "description": "Wstęp wzbroniony."
  }
},
{
  "type": "node",
  "id": 3578704142,
  "lat": 50.6396243,
  "lon": 20.2971349,
  "timestamp": "2015-06-07T16:01:23Z",
  "version": 1,
  "changeset": 31792960,
  "user": "Władysław Komorek",
  "uid": 693154
},
{
  "type": "node",
  "id": 3578704146,
  "lat": 50.6396318,
  "lon": 20.2971420,
  "timestamp": "2015-06-07T16:01:25Z",
  "version": 1,
  "changeset": 31792960,
  "user": "Władysław Komorek",
  "uid": 693154
},
{
  "type": "node",
  "id": 3578704151,
  "lat": 50.6396359,
  "lon": 20.2971316,
  "timestamp": "2015-06-07T16:01:27Z",
  "version": 1,
  "changeset": 31792960,
  "user": "Władysław Komorek",
  "uid": 693154
},
{
  "type": "node",
  "id": 3578704210,
  "lat": 50.6396541,
  "lon": 20.2971703,
  "timestamp": "2015-06-07T16:01:30Z",
  "version": 1,
  "changeset": 31792960,
  "user": "Władysław Komorek",
  "uid": 693154
},
{
  "type": "node",
  "id": 3578704216,
  "lat": 50.6396600,
  "lon": 20.2971554,
  "timestamp": "2015-06-07T16:01:33Z",
  "version": 1,
  "changeset": 31792960,
  "user": "Władysław Komorek",
  "uid": 693154
},
{
  "type": "node",
  "id": 3578704303,
  "lat": 50.6396657,
  "lon": 20.2970273,
  "timestamp": "2015-06-07T16:01:34Z",
  "version": 1,
  "changeset": 31792960,
  "user": "Władysław Komorek",
  "uid": 693154
},
{
  "type": "node",
  "id": 3578704327,
  "lat": 50.6396977,
  "lon": 20.2970577,
  "timestamp": "2015-06-07T16:01:44Z",
  "version": 1,
  "changeset": 31792960,
  "user": "Władysław Komorek",
  "uid": 693154
},
{
  "type": "node",
  "id": 3578704330,
  "lat": 50.6397025,
  "lon": 20.2970454,
  "timestamp": "2015-06-07T16:01:45Z",
  "version": 1,
  "changeset": 31792960,
  "user": "Władysław Komorek",
  "uid": 693154
},
{
  "type": "node",
  "id": 3578704514,
  "lat": 50.6397285,
  "lon": 20.2972361,
  "timestamp": "2015-06-07T16:01:53Z",
  "version": 1,
  "changeset": 31792960,
  "user": "Władysław Komorek",
  "uid": 693154
},
{
  "type": "node",
  "id": 3578704524,
  "lat": 50.6397341,
  "lon": 20.2972203,
  "timestamp": "2015-06-07T16:01:54Z",
  "version": 1,
  "changeset": 31792960,
  "user": "Władysław Komorek",
  "uid": 693154
},
{
  "type": "node",
  "id": 3578704552,
  "lat": 50.6397549,
  "lon": 20.2972561,
  "timestamp": "2015-06-07T16:01:59Z",
  "version": 1,
  "changeset": 31792960,
  "user": "Władysław Komorek",
  "uid": 693154
},
{
  "type": "node",
  "id": 3578704555,
  "lat": 50.6397599,
  "lon": 20.2972431,
  "timestamp": "2015-06-07T16:02:00Z",
  "version": 1,
  "changeset": 31792960,
  "user": "Władysław Komorek",
  "uid": 693154
},
{
  "type": "node",
  "id": 3578704557,
  "lat": 50.6397616,
  "lon": 20.2972623,
  "timestamp": "2015-06-07T16:02:00Z",
  "version": 1,
  "changeset": 31792960,
  "user": "Władysław Komorek",
  "uid": 693154
},
{
  "type": "node",
  "id": 3578704570,
  "lat": 50.6397704,
  "lon": 20.2971185,
  "timestamp": "2015-06-07T16:02:03Z",
  "version": 1,
  "changeset": 31792960,
  "user": "Władysław Komorek",
  "uid": 693154
},
{
  "type": "node",
  "id": 3578704572,
  "lat": 50.6397737,
  "lon": 20.2971088,
  "timestamp": "2015-06-07T16:02:04Z",
  "version": 1,
  "changeset": 31792960,
  "user": "Władysław Komorek",
  "uid": 693154
},
{
  "type": "node",
  "id": 3578704584,
  "lat": 50.6398049,
  "lon": 20.2971489,
  "timestamp": "2015-06-07T16:02:12Z",
  "version": 1,
  "changeset": 31792960,
  "user": "Władysław Komorek",
  "uid": 693154
},
{
  "type": "node",
  "id": 3595857585,
  "lat": 52.2011050,
  "lon": 18.6385482,
  "timestamp": "2022-08-31T22:56:04Z",
  "version": 3,
  "changeset": 125631593,
  "user": "blxght",
  "uid": 16345719
},
{
  "type": "node",
  "id": 3595857586,
  "lat": 52.2011439,
  "lon": 18.6387174,
  "timestamp": "2022-08-31T22:56:04Z",
  "version": 3,
  "changeset": 125631593,
  "user": "blxght",
  "uid": 16345719
},
{
  "type": "node",
  "id": 3595857587,
  "lat": 52.2007926,
  "lon": 18.6389315,
  "timestamp": "2022-08-31T22:56:04Z",
  "version": 3,
  "changeset": 125631593,
  "user": "blxght",
  "uid": 16345719
},
{
  "type": "node",
  "id": 3595857588,
  "lat": 52.2007536,
  "lon": 18.6387623,
  "timestamp": "2022-08-31T22:56:04Z",
  "version": 3,
  "changeset": 125631593,
  "user": "blxght",
  "uid": 16345719
},
{
  "type": "node",
  "id": 3596250820,
  "lat": 51.1066730,
  "lon": 17.0654877,
  "timestamp": "2015-06-15T12:04:32Z",
  "version": 1,
  "changeset": 31982214,
  "user": "maraf24",
  "uid": 2098272
},
{
  "type": "node",
  "id": 3596250822,
  "lat": 51.1067058,
  "lon": 17.0655065,
  "timestamp": "2015-06-15T12:04:32Z",
  "version": 1,
  "changeset": 31982214,
  "user": "maraf24",
  "uid": 2098272
},
{
  "type": "node",
  "id": 3596250823,
  "lat": 51.1066909,
  "lon": 17.0654959,
  "timestamp": "2015-06-15T12:04:32Z",
  "version": 1,
  "changeset": 31982214,
  "user": "maraf24",
  "uid": 2098272
},
{
  "type": "node",
  "id": 3596250825,
  "lat": 51.1067140,
  "lon": 17.0655220,
  "timestamp": "2015-06-15T12:04:32Z",
  "version": 1,
  "changeset": 31982214,
  "user": "maraf24",
  "uid": 2098272
},
{
  "type": "node",
  "id": 3596250826,
  "lat": 51.1067263,
  "lon": 17.0655660,
  "timestamp": "2015-06-15T12:04:32Z",
  "version": 1,
  "changeset": 31982214,
  "user": "maraf24",
  "uid": 2098272
},
{
  "type": "node",
  "id": 3596250827,
  "lat": 51.1067227,
  "lon": 17.0655440,
  "timestamp": "2015-06-15T12:04:32Z",
  "version": 1,
  "changeset": 31982214,
  "user": "maraf24",
  "uid": 2098272
},
{
  "type": "node",
  "id": 3596250830,
  "lat": 51.1068144,
  "lon": 17.0655598,
  "timestamp": "2022-10-05T10:28:17Z",
  "version": 2,
  "changeset": 127040213,
  "user": "Mordechai23",
  "uid": 8826419
},
{
  "type": "node",
  "id": 3596250832,
  "lat": 51.1068182,
  "lon": 17.0654402,
  "timestamp": "2019-03-29T19:47:35Z",
  "version": 2,
  "changeset": 68677410,
  "user": "maraf24",
  "uid": 2098272
},
{
  "type": "node",
  "id": 3976642420,
  "lat": 53.1311349,
  "lon": 18.0131202,
  "timestamp": "2016-01-29T19:41:04Z",
  "version": 1,
  "changeset": 36886277,
  "user": "adas",
  "uid": 23168
},
{
  "type": "node",
  "id": 3976642421,
  "lat": 53.1312551,
  "lon": 18.0132720,
  "timestamp": "2016-01-29T19:41:04Z",
  "version": 1,
  "changeset": 36886277,
  "user": "adas",
  "uid": 23168
},
{
  "type": "node",
  "id": 3976642422,
  "lat": 53.1311354,
  "lon": 18.0133483,
  "timestamp": "2016-01-29T19:41:04Z",
  "version": 1,
  "changeset": 36886277,
  "user": "adas",
  "uid": 23168
},
{
  "type": "node",
  "id": 3976642423,
  "lat": 53.1312980,
  "lon": 18.0133140,
  "timestamp": "2016-01-29T19:41:04Z",
  "version": 1,
  "changeset": 36886277,
  "user": "adas",
  "uid": 23168
},
{
  "type": "node",
  "id": 3976642443,
  "lat": 53.1312388,
  "lon": 18.0134933,
  "timestamp": "2016-01-29T19:41:05Z",
  "version": 1,
  "changeset": 36886277,
  "user": "adas",
  "uid": 23168
},
{
  "type": "node",
  "id": 3976642446,
  "lat": 53.1311241,
  "lon": 18.0133823,
  "timestamp": "2016-01-29T19:41:05Z",
  "version": 1,
  "changeset": 36886277,
  "user": "adas",
  "uid": 23168
},
{
  "type": "node",
  "id": 4146767753,
  "lat": 50.0596711,
  "lon": 19.9284887,
  "timestamp": "2016-04-25T13:01:10Z",
  "version": 1,
  "changeset": 38856291,
  "user": "slodki",
  "uid": 231392
},
{
  "type": "node",
  "id": 4146767754,
  "lat": 50.0596716,
  "lon": 19.9284926,
  "timestamp": "2016-04-25T13:01:10Z",
  "version": 1,
  "changeset": 38856291,
  "user": "slodki",
  "uid": 231392
},
{
  "type": "node",
  "id": 4146767755,
  "lat": 50.0596725,
  "lon": 19.9284923,
  "timestamp": "2016-04-25T13:01:10Z",
  "version": 1,
  "changeset": 38856291,
  "user": "slodki",
  "uid": 231392
},
{
  "type": "node",
  "id": 4146767762,
  "lat": 50.0596780,
  "lon": 19.9284861,
  "timestamp": "2016-04-25T13:01:10Z",
  "version": 1,
  "changeset": 38856291,
  "user": "slodki",
  "uid": 231392
},
{
  "type": "node",
  "id": 4146767776,
  "lat": 50.0596881,
  "lon": 19.9283495,
  "timestamp": "2016-04-25T13:01:10Z",
  "version": 1,
  "changeset": 38856291,
  "user": "slodki",
  "uid": 231392
},
{
  "type": "node",
  "id": 4146767927,
  "lat": 50.0597498,
  "lon": 19.9290236,
  "timestamp": "2016-04-25T13:01:11Z",
  "version": 1,
  "changeset": 38856291,
  "user": "slodki",
  "uid": 231392
},
{
  "type": "node",
  "id": 4146767928,
  "lat": 50.0597530,
  "lon": 19.9282867,
  "timestamp": "2016-04-25T13:01:11Z",
  "version": 1,
  "changeset": 38856291,
  "user": "slodki",
  "uid": 231392
},
{
  "type": "node",
  "id": 4146767937,
  "lat": 50.0597646,
  "lon": 19.9291345,
  "timestamp": "2016-04-25T13:01:11Z",
  "version": 1,
  "changeset": 38856291,
  "user": "slodki",
  "uid": 231392
},
{
  "type": "node",
  "id": 4146767956,
  "lat": 50.0597823,
  "lon": 19.9282782,
  "timestamp": "2016-04-25T13:01:11Z",
  "version": 1,
  "changeset": 38856291,
  "user": "slodki",
  "uid": 231392
},
{
  "type": "node",
  "id": 4146767963,
  "lat": 50.0597885,
  "lon": 19.9293033,
  "timestamp": "2016-04-25T13:01:11Z",
  "version": 1,
  "changeset": 38856291,
  "user": "slodki",
  "uid": 231392
},
{
  "type": "node",
  "id": 4146768133,
  "lat": 50.0599226,
  "lon": 19.9292592,
  "timestamp": "2016-04-25T13:01:12Z",
  "version": 1,
  "changeset": 38856291,
  "user": "slodki",
  "uid": 231392
},
{
  "type": "node",
  "id": 4659340121,
  "lat": 51.2402309,
  "lon": 22.5327351,
  "timestamp": "2017-02-03T11:35:31Z",
  "version": 1,
  "changeset": 45775757,
  "user": "fkdoo",
  "uid": 2300915
},
{
  "type": "node",
  "id": 4659340122,
  "lat": 51.2402300,
  "lon": 22.5325566,
  "timestamp": "2017-02-03T11:35:31Z",
  "version": 1,
  "changeset": 45775757,
  "user": "fkdoo",
  "uid": 2300915
},
{
  "type": "node",
  "id": 4659340123,
  "lat": 51.2403427,
  "lon": 22.5327333,
  "timestamp": "2017-02-03T11:35:31Z",
  "version": 1,
  "changeset": 45775757,
  "user": "fkdoo",
  "uid": 2300915
},
{
  "type": "node",
  "id": 4659340124,
  "lat": 51.2403418,
  "lon": 22.5325551,
  "timestamp": "2017-02-03T11:35:31Z",
  "version": 1,
  "changeset": 45775757,
  "user": "fkdoo",
  "uid": 2300915
},
{
  "type": "node",
  "id": 4659340125,
  "lat": 51.2406698,
  "lon": 22.5325736,
  "timestamp": "2019-01-15T23:07:42Z",
  "version": 2,
  "changeset": 66347152,
  "user": "RafalR",
  "uid": 175746
},
{
  "type": "node",
  "id": 4659340126,
  "lat": 51.2406701,
  "lon": 22.5325326,
  "timestamp": "2019-01-15T23:07:42Z",
  "version": 2,
  "changeset": 66347152,
  "user": "RafalR",
  "uid": 175746
},
{
  "type": "node",
  "id": 6003214978,
  "lat": 51.1058451,
  "lon": 15.5938919,
  "timestamp": "2018-10-21T17:25:01Z",
  "version": 1,
  "changeset": 63733310,
  "user": "Rakowice_Wielkie",
  "uid": 8977320
},
{
  "type": "node",
  "id": 6080805619,
  "lat": 51.1112161,
  "lon": 17.0626945,
  "timestamp": "2018-11-21T21:21:54Z",
  "version": 1,
  "changeset": 64755889,
  "user": "maraf24",
  "uid": 2098272
},
{
  "type": "node",
  "id": 6080805620,
  "lat": 51.1112434,
  "lon": 17.0626086,
  "timestamp": "2018-11-21T21:21:54Z",
  "version": 1,
  "changeset": 64755889,
  "user": "maraf24",
  "uid": 2098272
},
{
  "type": "node",
  "id": 6080805621,
  "lat": 51.1113086,
  "lon": 17.0624561,
  "timestamp": "2018-11-21T21:21:54Z",
  "version": 1,
  "changeset": 64755889,
  "user": "maraf24",
  "uid": 2098272
},
{
  "type": "node",
  "id": 6080805626,
  "lat": 51.1115034,
  "lon": 17.0629278,
  "timestamp": "2018-11-21T21:21:54Z",
  "version": 1,
  "changeset": 64755889,
  "user": "maraf24",
  "uid": 2098272
},
{
  "type": "node",
  "id": 6080805627,
  "lat": 51.1115580,
  "lon": 17.0627628,
  "timestamp": "2018-11-21T21:21:54Z",
  "version": 1,
  "changeset": 64755889,
  "user": "maraf24",
  "uid": 2098272
},
{
  "type": "node",
  "id": 6080805628,
  "lat": 51.1114019,
  "lon": 17.0624684,
  "timestamp": "2018-11-21T21:21:54Z",
  "version": 1,
  "changeset": 64755889,
  "user": "maraf24",
  "uid": 2098272
},
{
  "type": "node",
  "id": 6080805629,
  "lat": 51.1113269,
  "lon": 17.0624588,
  "timestamp": "2018-11-21T21:21:54Z",
  "version": 1,
  "changeset": 64755889,
  "user": "maraf24",
  "uid": 2098272,
  "tags": {
    "barrier": "gate"
  }
},
{
  "type": "node",
  "id": 6080805635,
  "lat": 51.1111398,
  "lon": 17.0626340,
  "timestamp": "2018-11-21T21:21:54Z",
  "version": 1,
  "changeset": 64755889,
  "user": "maraf24",
  "uid": 2098272
},
{
  "type": "node",
  "id": 6211815869,
  "lat": 51.2403429,
  "lon": 22.5327525,
  "timestamp": "2019-01-15T23:07:13Z",
  "version": 1,
  "changeset": 66347152,
  "user": "RafalR",
  "uid": 175746
},
{
  "type": "node",
  "id": 6211817085,
  "lat": 51.2403417,
  "lon": 22.5325369,
  "timestamp": "2019-01-15T23:07:10Z",
  "version": 1,
  "changeset": 66347152,
  "user": "RafalR",
  "uid": 175746
},
{
  "type": "node",
  "id": 6211817099,
  "lat": 51.2406704,
  "lon": 22.5327476,
  "timestamp": "2019-01-15T23:07:11Z",
  "version": 1,
  "changeset": 66347152,
  "user": "RafalR",
  "uid": 175746
},
{
  "type": "node",
  "id": 6370957591,
  "lat": 51.1068011,
  "lon": 17.0654159,
  "timestamp": "2022-10-06T10:21:19Z",
  "version": 2,
  "changeset": 127094189,
  "user": "Mordechai23",
  "uid": 8826419
},
{
  "type": "node",
  "id": 7251614026,
  "lat": 53.3685751,
  "lon": 14.5935119,
  "timestamp": "2023-02-24T12:02:43Z",
  "version": 2,
  "changeset": 132964466,
  "user": "pio2_122",
  "uid": 3214275
},
{
  "type": "node",
  "id": 8998259059,
  "lat": 51.1108490,
  "lon": 17.0630051,
  "timestamp": "2022-09-14T13:39:47Z",
  "version": 2,
  "changeset": 126183425,
  "user": "Mordechai23",
  "uid": 8826419
},
{
  "type": "node",
  "id": 9010837959,
  "lat": 49.7840262,
  "lon": 22.7636428,
  "timestamp": "2021-10-16T17:58:57Z",
  "version": 2,
  "changeset": 112588718,
  "user": "bdzik",
  "uid": 7666585
},
{
  "type": "node",
  "id": 9010837960,
  "lat": 49.7840198,
  "lon": 22.7636501,
  "timestamp": "2021-10-16T17:58:57Z",
  "version": 2,
  "changeset": 112588718,
  "user": "bdzik",
  "uid": 7666585
},
{
  "type": "node",
  "id": 9176823896,
  "lat": 49.7841103,
  "lon": 22.7636110,
  "timestamp": "2021-10-16T17:58:57Z",
  "version": 1,
  "changeset": 112588718,
  "user": "bdzik",
  "uid": 7666585
},
{
  "type": "node",
  "id": 9991712010,
  "lat": 52.2008834,
  "lon": 18.6388761,
  "timestamp": "2022-08-31T22:56:04Z",
  "version": 1,
  "changeset": 125631593,
  "user": "blxght",
  "uid": 16345719
},
{
  "type": "node",
  "id": 9991712011,
  "lat": 52.2008867,
  "lon": 18.6388904,
  "timestamp": "2022-08-31T22:56:04Z",
  "version": 1,
  "changeset": 125631593,
  "user": "blxght",
  "uid": 16345719
},
{
  "type": "node",
  "id": 9991712012,
  "lat": 52.2009659,
  "lon": 18.6388422,
  "timestamp": "2022-08-31T22:56:04Z",
  "version": 1,
  "changeset": 125631593,
  "user": "blxght",
  "uid": 16345719
},
{
  "type": "node",
  "id": 9991712013,
  "lat": 52.2009625,
  "lon": 18.6388279,
  "timestamp": "2022-08-31T22:56:04Z",
  "version": 1,
  "changeset": 125631593,
  "user": "blxght",
  "uid": 16345719
},
{
  "type": "node",
  "id": 10024536117,
  "lat": 51.1108632,
  "lon": 17.0630169,
  "timestamp": "2022-09-14T13:39:47Z",
  "version": 1,
  "changeset": 126183425,
  "user": "Mordechai23",
  "uid": 8826419
},
{
  "type": "node",
  "id": 10024536118,
  "lat": 51.1109589,
  "lon": 17.0630961,
  "timestamp": "2022-09-14T13:39:47Z",
  "version": 1,
  "changeset": 126183425,
  "user": "Mordechai23",
  "uid": 8826419
},
{
  "type": "node",
  "id": 10024536119,
  "lat": 51.1109574,
  "lon": 17.0631009,
  "timestamp": "2022-09-14T13:39:47Z",
  "version": 1,
  "changeset": 126183425,
  "user": "Mordechai23",
  "uid": 8826419
},
{
  "type": "node",
  "id": 10024536120,
  "lat": 51.1110129,
  "lon": 17.0631471,
  "timestamp": "2022-09-14T13:39:47Z",
  "version": 1,
  "changeset": 126183425,
  "user": "Mordechai23",
  "uid": 8826419
},
{
  "type": "node",
  "id": 10024536121,
  "lat": 51.1110141,
  "lon": 17.0631437,
  "timestamp": "2022-09-14T13:39:47Z",
  "version": 1,
  "changeset": 126183425,
  "user": "Mordechai23",
  "uid": 8826419
},
{
  "type": "node",
  "id": 10024536122,
  "lat": 51.1113074,
  "lon": 17.0633808,
  "timestamp": "2022-09-14T13:39:47Z",
  "version": 1,
  "changeset": 126183425,
  "user": "Mordechai23",
  "uid": 8826419
},
{
  "type": "node",
  "id": 10024536123,
  "lat": 51.1113051,
  "lon": 17.0633882,
  "timestamp": "2022-09-14T13:39:47Z",
  "version": 1,
  "changeset": 126183425,
  "user": "Mordechai23",
  "uid": 8826419
},
{
  "type": "node",
  "id": 10076655906,
  "lat": 51.1067423,
  "lon": 17.0648770,
  "timestamp": "2022-10-05T10:28:17Z",
  "version": 1,
  "changeset": 127040213,
  "user": "Mordechai23",
  "uid": 8826419
},
{
  "type": "node",
  "id": 10076683369,
  "lat": 51.1067648,
  "lon": 17.0653327,
  "timestamp": "2022-10-06T10:21:19Z",
  "version": 2,
  "changeset": 127094189,
  "user": "Mordechai23",
  "uid": 8826419
},
{
  "type": "node",
  "id": 10076683397,
  "lat": 51.1067742,
  "lon": 17.0649825,
  "timestamp": "2022-10-05T10:28:17Z",
  "version": 1,
  "changeset": 127040213,
  "user": "Mordechai23",
  "uid": 8826419
},
{
  "type": "node",
  "id": 10076683398,
  "lat": 51.1067919,
  "lon": 17.0649333,
  "timestamp": "2022-10-05T11:17:07Z",
  "version": 2,
  "changeset": 127041968,
  "user": "Mordechai23",
  "uid": 8826419
},
{
  "type": "node",
  "id": 10076786290,
  "lat": 51.1067912,
  "lon": 17.0649597,
  "timestamp": "2022-10-05T11:17:07Z",
  "version": 1,
  "changeset": 127041968,
  "user": "Mordechai23",
  "uid": 8826419
},
{
  "type": "node",
  "id": 10076786291,
  "lat": 51.1067922,
  "lon": 17.0649196,
  "timestamp": "2022-10-05T11:17:07Z",
  "version": 1,
  "changeset": 127041968,
  "user": "Mordechai23",
  "uid": 8826419
},
{
  "type": "node",
  "id": 10076786293,
  "lat": 51.1067905,
  "lon": 17.0649837,
  "timestamp": "2022-10-05T11:17:07Z",
  "version": 1,
  "changeset": 127041968,
  "user": "Mordechai23",
  "uid": 8826419
},
{
  "type": "node",
  "id": 10076786294,
  "lat": 51.1067759,
  "lon": 17.0649185,
  "timestamp": "2022-10-05T11:17:07Z",
  "version": 1,
  "changeset": 127041968,
  "user": "Mordechai23",
  "uid": 8826419
},
{
  "type": "node",
  "id": 10079716286,
  "lat": 51.1065924,
  "lon": 17.0650944,
  "timestamp": "2022-10-06T10:21:19Z",
  "version": 1,
  "changeset": 127094189,
  "user": "Mordechai23",
  "uid": 8826419
},
{
  "type": "node",
  "id": 10079716287,
  "lat": 51.1066614,
  "lon": 17.0654877,
  "timestamp": "2022-10-06T10:21:19Z",
  "version": 1,
  "changeset": 127094189,
  "user": "Mordechai23",
  "uid": 8826419
},
{
  "type": "node",
  "id": 10079716295,
  "lat": 51.1066245,
  "lon": 17.0648697,
  "timestamp": "2022-10-06T10:21:19Z",
  "version": 1,
  "changeset": 127094189,
  "user": "Mordechai23",
  "uid": 8826419
},
{
  "type": "node",
  "id": 10079716296,
  "lat": 51.1066594,
  "lon": 17.0654465,
  "timestamp": "2022-10-06T10:21:19Z",
  "version": 1,
  "changeset": 127094189,
  "user": "Mordechai23",
  "uid": 8826419
},
{
  "type": "node",
  "id": 10079716297,
  "lat": 51.1065999,
  "lon": 17.0654509,
  "timestamp": "2022-10-06T10:21:19Z",
  "version": 1,
  "changeset": 127094189,
  "user": "Mordechai23",
  "uid": 8826419
},
{
  "type": "node",
  "id": 10079716298,
  "lat": 51.1065966,
  "lon": 17.0653569,
  "timestamp": "2022-10-06T10:21:19Z",
  "version": 1,
  "changeset": 127094189,
  "user": "Mordechai23",
  "uid": 8826419
},
{
  "type": "node",
  "id": 10080241133,
  "lat": 51.1112490,
  "lon": 17.0633336,
  "timestamp": "2022-10-06T15:44:27Z",
  "version": 1,
  "changeset": 127108797,
  "user": "Mordechai23",
  "uid": 8826419
},
{
  "type": "node",
  "id": 10080241137,
  "lat": 51.1112384,
  "lon": 17.0633250,
  "timestamp": "2022-10-06T15:44:27Z",
  "version": 1,
  "changeset": 127108797,
  "user": "Mordechai23",
  "uid": 8826419
},
{
  "type": "node",
  "id": 10690553216,
  "lat": 53.3690087,
  "lon": 14.5925670,
  "timestamp": "2023-02-24T12:02:43Z",
  "version": 1,
  "changeset": 132964466,
  "user": "pio2_122",
  "uid": 3214275
},
{
  "type": "node",
  "id": 10690553217,
  "lat": 53.3689812,
  "lon": 14.5926356,
  "timestamp": "2023-02-24T12:02:43Z",
  "version": 1,
  "changeset": 132964466,
  "user": "pio2_122",
  "uid": 3214275
},
{
  "type": "node",
  "id": 10690553218,
  "lat": 53.3691572,
  "lon": 14.5928332,
  "timestamp": "2023-02-24T12:02:43Z",
  "version": 1,
  "changeset": 132964466,
  "user": "pio2_122",
  "uid": 3214275
},
{
  "type": "node",
  "id": 10690553219,
  "lat": 53.3694835,
  "lon": 14.5931994,
  "timestamp": "2023-02-24T12:02:43Z",
  "version": 1,
  "changeset": 132964466,
  "user": "pio2_122",
  "uid": 3214275
},
{
  "type": "node",
  "id": 10690553220,
  "lat": 53.3696136,
  "lon": 14.5933467,
  "timestamp": "2023-02-24T12:02:43Z",
  "version": 1,
  "changeset": 132964466,
  "user": "pio2_122",
  "uid": 3214275
},
{
  "type": "node",
  "id": 10690553221,
  "lat": 53.3696314,
  "lon": 14.5936497,
  "timestamp": "2023-02-24T12:02:43Z",
  "version": 1,
  "changeset": 132964466,
  "user": "pio2_122",
  "uid": 3214275
},
{
  "type": "node",
  "id": 10690553222,
  "lat": 53.3696297,
  "lon": 14.5937144,
  "timestamp": "2023-02-24T12:02:43Z",
  "version": 1,
  "changeset": 132964466,
  "user": "pio2_122",
  "uid": 3214275
},
{
  "type": "node",
  "id": 10690553223,
  "lat": 53.3696646,
  "lon": 14.5938097,
  "timestamp": "2023-02-24T12:02:43Z",
  "version": 1,
  "changeset": 132964466,
  "user": "pio2_122",
  "uid": 3214275
},
{
  "type": "node",
  "id": 10690553224,
  "lat": 53.3697378,
  "lon": 14.5938359,
  "timestamp": "2023-02-24T12:02:43Z",
  "version": 1,
  "changeset": 132964466,
  "user": "pio2_122",
  "uid": 3214275
},
{
  "type": "node",
  "id": 10690553225,
  "lat": 53.3698925,
  "lon": 14.5939204,
  "timestamp": "2023-02-24T12:02:43Z",
  "version": 1,
  "changeset": 132964466,
  "user": "pio2_122",
  "uid": 3214275
},
{
  "type": "node",
  "id": 10690553226,
  "lat": 53.3689655,
  "lon": 14.5925153,
  "timestamp": "2023-02-24T12:02:43Z",
  "version": 1,
  "changeset": 132964466,
  "user": "pio2_122",
  "uid": 3214275
},
{
  "type": "node",
  "id": 10690553227,
  "lat": 53.3695843,
  "lon": 14.5947637,
  "timestamp": "2023-02-24T12:02:43Z",
  "version": 1,
  "changeset": 132964466,
  "user": "pio2_122",
  "uid": 3214275
},
{
  "type": "node",
  "id": 10690553228,
  "lat": 53.3699143,
  "lon": 14.5939768,
  "timestamp": "2023-02-24T12:02:43Z",
  "version": 1,
  "changeset": 132964466,
  "user": "pio2_122",
  "uid": 3214275
},
{
  "type": "node",
  "id": 10737171355,
  "lat": 51.9939271,
  "lon": 21.2103178,
  "timestamp": "2023-03-15T14:11:49Z",
  "version": 1,
  "changeset": 133711988,
  "user": "pomocnysztab",
  "uid": 14165189
},
{
  "type": "node",
  "id": 10737171356,
  "lat": 51.9937990,
  "lon": 21.2104980,
  "timestamp": "2023-03-15T14:11:49Z",
  "version": 1,
  "changeset": 133711988,
  "user": "pomocnysztab",
  "uid": 14165189
},
{
  "type": "node",
  "id": 10737171357,
  "lat": 51.9942693,
  "lon": 21.2118863,
  "timestamp": "2023-03-15T14:11:49Z",
  "version": 1,
  "changeset": 133711988,
  "user": "pomocnysztab",
  "uid": 14165189
},
{
  "type": "node",
  "id": 10737171358,
  "lat": 51.9945706,
  "lon": 21.2114121,
  "timestamp": "2023-03-15T14:11:49Z",
  "version": 1,
  "changeset": 133711988,
  "user": "pomocnysztab",
  "uid": 14165189
},
{
  "type": "node",
  "id": 10737291577,
  "lat": 51.9938759,
  "lon": 21.2103908,
  "timestamp": "2023-03-15T15:04:33Z",
  "version": 1,
  "changeset": 133714056,
  "user": "Piotr Strębski",
  "uid": 5060085
},
{
  "type": "node",
  "id": 11736496763,
  "lat": 51.1109847,
  "lon": 17.0631236,
  "timestamp": "2024-03-16T10:19:57Z",
  "version": 1,
  "changeset": 148724509,
  "user": "qaz789",
  "uid": 4851745,
  "tags": {
    "entrance": "main"
  }
}

  ]
}
